plant_code,plant_name,state,county,ba,azimuth,tilt,system_capacity,module_type,array_type,lat,lon,dc_ac_ratio,gcr,inv_eff,losses,adjust:constant,capital_cost,fixed_charge_rate,fixed_operating_cost,variable_operating_cost
141,Agua Fria,AZ,Maricopa,SRP,180,33.4,200,0,2,33.5561,-112.2153,1.2,0.4,96,14.07566,0,39767200,0.096,260000,0
8223,Springerville,AZ,Apache,TEPC,180,25,13400,2,0,34.318600000000004,-109.1639,1.2,0.4,96,14.07566,0,39767200,0.096,260000,0
10437,Sunray 2,CA,San Bernardino,CISO,180,34.863356,20000,0,2,34.863356,-116.827627,1.2,0.4,96,14.07566,0,39767200,0.096,260000,0
10438,Sunray 3,CA,San Bernardino,CISO,180,34.863356,13800,0,2,34.863356,-116.827627,1.2,0.4,96,14.07566,0,39767200,0.096,260000,0
10446,SEGS IX,CA,San Bernardino,CISO,180,35.033,92000,0,2,35.033,-117.338,1.2,0.4,96,14.07566,0,39767200,0.096,260000,0
50061,San Diego State University,CA,San Diego,CISO,265,35,799.9999999999999,0,0,32.778225,-117.070114,1.2,0.4,96,14.07566,0,39767200,0.096,260000,0
50765,Stillwater Facility,NV,Churchill,NEVP,180,16.2,22000,0,0,39.547537,-118.555613,1.2,0.4,96,14.07566,0,39767200,0.096,260000,0
56228,Prescott Airport,AZ,Yavapai,AZPS,30,30,3000,0,2,34.6584,-112.4008,1.2,0.4,96,14.07566,0,39767200,0.096,260000,0
56322,Wild Horse,WA,Kittitas,PSEI,180,37,500,0,0,47.036269,-120.206494,1.2,0.4,96,14.07566,0,39767200,0.096,260000,0
56405,Nevada Solar One,NV,Clark,NEVP,180,35.799798,75700,0,2,35.799798,-114.98173,1.2,0.4,96,14.07566,0,39767200,0.096,260000,0
56481,SunE Alamosa,CO,Alamosa,PSCO,180,20,8200,0,2,37.690304,-105.880501,1.2,0.4,96,14.07566,0,39767200,0.096,260000,0
56500,Western 102 Power Plant,NV,Storey,NEVP,180,21,1000,0,0,39.5603,-119.5108,1.2,0.4,96,14.07566,0,39767200,0.096,260000,0
56568,Nellis Air Force Base Solar Array,NV,Clark,NEVP,0,0,14000.000000000002,0,2,36.260278,-115.0544,1.2,0.4,96,14.07566,0,39767200,0.096,260000,0
56768,CalRenew-1,CA,Fresno,CISO,198,20,5000,0,0,36.7575,-120.3658,1.2,0.4,96,14.07566,0,39767200,0.096,260000,0
56812,Solana Generating Station,AZ,Maricopa,AZPS,180,32.922294,280000,0,2,32.922294,-112.95594,1.2,0.4,96,14.07566,0,39767200,0.096,260000,0
56813,CSU Fresno Solar Project,CA,Fresno,CISO,180,30,1000,0,0,36.809841,-119.741665,1.2,0.4,96,14.07566,0,39767200,0.096,260000,0
56814,ELACC Photovoltaic Power Facility,CA,Los Angeles,CISO,180,2,1000,0,0,34.040278,-118.148056,1.2,0.4,96,14.07566,0,39767200,0.096,260000,0
56815,Denver Int Airport,CO,Denver,PSCO,90,39.836789,1900,0,2,39.836789,-104.697149,1.2,0.4,96,14.07566,0,39767200,0.096,260000,0
56862,Bolthouse S&P and Rowen Farms Solar,CA,Los Angeles,CISO,180,15,1200,0,2,34.5644,-117.6933,1.2,0.4,96,14.07566,0,39767200,0.096,260000,0
56875,Sacramento Soleil LLC,CA,Sacramento,BANC,205,45,1000,2,0,38.44979,-121.16469,1.2,0.4,96,14.07566,0,39767200,0.096,260000,0
56909,Gap Pacific Distribution Center,CA,Fresno,CISO,90,36.806476,1200,0,2,36.806476,-121.7745,1.2,0.4,96,14.07566,0,39767200,0.096,260000,0
56917,"Imperial Valley Solar, LLC",CA,Imperial,CISO,180,0,199899.99999999997,2,2,32.671099,-115.587265,1.2,0.4,96,14.07566,0,39767200,0.096,260000,0
56922,WWRF Solar Plant,CO,Garfield,PSCO,90,39.522904,1500,0,2,39.522904,-107.81341,1.2,0.4,96,14.07566,0,39767200,0.096,260000,0
56939,Solar Blythe LLC,CA,Riverside,CISO,180,24,21000,2,0,33.5917,-114.7444,1.2,0.4,96,14.07566,0,39767200,0.096,260000,0
56944,CM10,NV,Clark,CISO,180,25,10000,2,0,35.7881,-114.9933,1.2,0.4,96,14.07566,0,39767200,0.096,260000,0
56996,Solar Photovoltaic Project #02,CA,San Bernardino,CISO,180,0,1000,2,0,33.985244,-117.700826,1.2,0.4,96,14.07566,0,39767200,0.096,260000,0
57004,SunEdison Walgreens Moreno Valley,CA,Riverside,CISO,180,15,1000,0,2,33.8672,-117.23,1.2,0.4,96,14.07566,0,39767200,0.096,260000,0
57005,Mariani Packing Vacaville Solar,CA,Solano,CISO,100,38.40008,1000,0,2,38.40008,-121.96366,1.2,0.4,96,14.07566,0,39767200,0.096,260000,0
57006,Walgreens Woodland Distribution Center,CA,Yolo,CISO,180,15,1000,0,2,38.674894,-121.713362,1.2,0.4,96,14.07566,0,39767200,0.096,260000,0
57007,SunEdison Ironwood State Prison,CA,Riverside,CISO,90,33.567268,1000,0,2,33.567268,-114.917979,1.2,0.4,96,14.07566,0,39767200,0.096,260000,0
57008,SunEdison Procter & Gamble Oxnard,CA,Ventura,CISO,180,20,1000,2,0,34.2089,-119.13,1.2,0.4,96,14.07566,0,39767200,0.096,260000,0
57009,Kohls San Bernardino Solar Facility,CA,San Bernardino,CISO,180,0,1000,0,2,34.094695,-117.266831,1.2,0.4,96,14.07566,0,39767200,0.096,260000,0
57010,SunEdison Anheuser Busch Fairfield,CA,Solano,CISO,0,0,1000,0,2,38.232108,-122.092706,1.2,0.4,96,14.07566,0,39767200,0.096,260000,0
57011,Chuckawalla Valley State Prison,CA,Riverside,CISO,180,20,1000,0,0,33.565329,-114.903629,1.2,0.4,96,14.07566,0,39767200,0.096,260000,0
57012,SunEdison Walmart Apple Valley DC,CA,San Bernardino,CISO,0,0,1000,0,2,34.5975,-117.2,1.2,0.4,96,14.07566,0,39767200,0.096,260000,0
57041,Vaca Dixon Solar Station,CA,Solano,CISO,180,30,2000,0,0,38.4106,-121.9264,1.2,0.4,96,14.07566,0,39767200,0.096,260000,0
57073,Ivanpah 2,CA,San Bernardino,CISO,180,35.556111,133400,0,4,35.556111,-115.468611,1.2,0.4,96,14.07566,0,39767200,0.096,260000,0
57074,Ivanpah 1,CA,San Bernardino,CISO,180,35.533056,126000,0,4,35.533056,-115.4525,1.2,0.4,96,14.07566,0,39767200,0.096,260000,0
57075,Ivanpah 3,CA,San Bernardino,CISO,180,35.580833,133400,0,4,35.580833,-115.4825,1.2,0.4,96,14.07566,0,39767200,0.096,260000,0
57141,RV CSU Power LLC,CO,Larimer,PSCO,180,25,1900,0,2,40.591099,-105.145904,1.2,0.4,96,14.07566,0,39767200,0.096,260000,0
57205,CM48,NV,Clark,CISO,180,25,48000,2,0,35.7814,-114.9933,1.2,0.4,96,14.07566,0,39767200,0.096,260000,0
57217,Solar Photovoltaic Project #03,CA,San Bernardino,CISO,180,0,1000,2,0,34.094279,-117.400113,1.2,0.4,96,14.07566,0,39767200,0.096,260000,0
57219,Solar Photovoltaic Project #05,CA,San Bernardino,CISO,180,5,2500,0,0,34.086276,-117.230571,1.2,0.4,96,14.07566,0,39767200,0.096,260000,0
57220,Solar Photovoltaic Project #06,CA,San Bernardino,CISO,180,10,2000,0,0,34.041389,-117.573055,1.2,0.4,96,14.07566,0,39767200,0.096,260000,0
57221,Solar Photovoltaic Project #07,CA,San Bernardino,CISO,180,5,2500,0,0,34.086111,-117.2275,1.2,0.4,96,14.07566,0,39767200,0.096,260000,0
57222,Solar Photovoltaic Project #08,CA,San Bernardino,CISO,180,10,2000,0,0,34.041944,-117.565,1.2,0.4,96,14.07566,0,39767200,0.096,260000,0
57223,Solar Photovoltaic Project #09,CA,San Bernardino,CISO,180,10,1000,0,0,34.042778,-117.571666,1.2,0.4,96,14.07566,0,39767200,0.096,260000,0
57224,Solar Photovoltaic Project #10,CA,San Bernardino,CISO,180,10,1500,0,0,34.075,-117.516944,1.2,0.4,96,14.07566,0,39767200,0.096,260000,0
57225,Solar Photovoltaic Project #11,CA,San Bernardino,CISO,180,5,3500,0,0,34.075833,-117.241388,1.2,0.4,96,14.07566,0,39767200,0.096,260000,0
57226,Solar Photovoltaic Project #12,CA,San Bernardino,CISO,180,10,500,0,0,34.042222,-117.561666,1.2,0.4,96,14.07566,0,39767200,0.096,260000,0
57227,Solar Photovoltaic Project #13,CA,San Bernardino,CISO,180,5,3500,0,0,34.083499,-117.23557,1.2,0.4,96,14.07566,0,39767200,0.096,260000,0
57229,Solar Photovoltaic Project #15,CA,San Bernardino,CISO,180,5,3500,2,0,34.079167,-117.516666,1.2,0.4,96,14.07566,0,39767200,0.096,260000,0
57230,Solar Photovoltaic Project #16,CA,San Bernardino,CISO,180,5,1500,0,0,34.085556,-117.233611,1.2,0.4,96,14.07566,0,39767200,0.096,260000,0
57231,Solar Photovoltaic Project #17,CA,San Bernardino,CISO,180,5,3500,0,0,34.072778,-117.503333,1.2,0.4,96,14.07566,0,39767200,0.096,260000,0
57232,Solar Photovoltaic Project #18,CA,San Bernardino,CISO,180,10,1500,0,0,34.083333,-117.516388,1.2,0.4,96,14.07566,0,39767200,0.096,260000,0
57236,Solar Photovoltaic Project #23,CA,San Bernardino,CISO,180,10,2500,0,0,34.080833,-117.520277,1.2,0.4,96,14.07566,0,39767200,0.096,260000,0
57237,Solar Photovoltaic Project #22,CA,San Bernardino,CISO,180,10,2000,0,0,34.08,-117.2114,1.2,0.4,96,14.07566,0,39767200,0.096,260000,0
57243,Cimarron Solar Facility,NM,Colfax,WACM,180,25,30600,2,0,36.468078,-104.635659,1.2,0.4,96,14.07566,0,39767200,0.096,260000,0
57245,Solar Photovoltaic Project #26,CA,San Bernardino,CISO,180,5,6000,0,0,34.131214,-117.425324,1.2,0.4,96,14.07566,0,39767200,0.096,260000,0
57246,Solar Photovoltaic Project #27,CA,San Bernardino,CISO,180,10,2000,0,0,34.131111,-117.421666,1.2,0.4,96,14.07566,0,39767200,0.096,260000,0
57247,Solar Photovoltaic Project #28,CA,San Bernardino,CISO,180,5,3500,0,0,34.094167,-117.274166,1.2,0.4,96,14.07566,0,39767200,0.096,260000,0
57254,Victor Valley CC CPV Solar,CA,San Bernardino,CISO,180,34.48017,1000,0,4,34.48017,-117.257938,1.2,0.4,96,14.07566,0,39767200,0.096,260000,0
57275,Crescent Dunes Solar Energy,NV,Nye,NEVP,180,38.238889,125000,0,4,38.238889,-117.36361,1.2,0.4,96,14.07566,0,39767200,0.096,260000,0
57295,Alpine Solar,CA,Los Angeles,CISO,180.5,25,66000,2,0,34.7892,-118.5047,1.2,0.4,96,14.07566,0,39767200,0.096,260000,0
57305,Adelanto Solar Project,CA,San Bernardino,LDWP,180,30,6800,0,0,34.550833,-117.435277,1.2,0.4,96,14.07566,0,39767200,0.096,260000,0
57306,Pine Tree Solar Project,CA,Kern,LDWP,180,30,8500,0,0,35.229635,-118.1957,1.2,0.4,96,14.07566,0,39767200,0.096,260000,0
57308,Maclay Solar Project,CA,Los Angeles,LDWP,180,10,2000,0,0,34.319722,-118.430833,1.2,0.4,96,14.07566,0,39767200,0.096,260000,0
57309,Pacific Cruise Ship Terminals Berth 93,CA,Los Angeles,LDWP,211,5,1000,0,0,33.7331,-118.27722,1.2,0.4,96,14.07566,0,39767200,0.096,260000,0
57310,1420 Coil Av #C,CA,Los Angeles,LDWP,180,30,1300,0,0,33.794283,-118.241405,1.2,0.4,96,14.07566,0,39767200,0.096,260000,0
57311,Occidental College Solar Project,CA,Los Angeles,LDWP,220,25,1000,0,0,34.1283,-118.206903,1.2,0.4,96,14.07566,0,39767200,0.096,260000,0
57313,Metro Support Services Center Solar,CA,Los Angeles,LDWP,180,5,1200,0,0,34.0578,-118.229722,1.2,0.4,96,14.07566,0,39767200,0.096,260000,0
57314,Los Angeles Harbor College,CA,Los Angeles,LDWP,180,2,1200,0,0,33.783102,-118.28493,1.2,0.4,96,14.07566,0,39767200,0.096,260000,0
57317,San Luis Valley Solar Ranch,CO,Alamosa,PSCO,180,45,35000,0,2,37.694535,-105.927622,1.2,0.4,96,14.07566,0,39767200,0.096,260000,0
57318,"Poseidon Solar, LLC",AZ,GILA,SRP,0,0,20000,0,2,33.160601,-111.484011,1.2,0.4,96,14.07566,0,39767200,0.096,260000,0
57324,Luke Solar,AZ,Maricopa,AZPS,180,33.526111,15000,0,2,33.526111,-112.37944,1.2,0.4,96,14.07566,0,39767200,0.096,260000,0
57331,Mojave Solar Project,CA,San Bernardino,CISO,180,35.017717,280000,0,2,35.017717,-117.339144,1.2,0.4,96,14.07566,0,39767200,0.096,260000,0
57338,Roadrunner Solar,NM,Dona Ana,EPE,90,45,20200,2,2,31.792778,-106.673333,1.2,0.4,96,14.07566,0,39767200,0.096,260000,0
57340,Panoche Valley Solar Farm,CA,San Benito,CISO,0,36.627,140000,0,2,36.627,-120.879,1.2,0.4,96,14.07566,0,39767200,0.096,260000,0
57359,Avenal Park,CA,Kings,CISO,180,25,6000,2,0,35.989722,-120.11,1.2,0.4,96,14.07566,0,39767200,0.096,260000,0
57360,Sun City Project LLC,CA,Kings,CISO,180,25,20000,2,0,35.983056,-120.110277,1.2,0.4,96,14.07566,0,39767200,0.096,260000,0
57361,Sand Drag LLC,CA,Kings,CISO,180,25,19000,2,0,35.982778,-120.110277,1.2,0.4,96,14.07566,0,39767200,0.096,260000,0
57368,Cogentrix of Alamosa,CO,Alamosa,PSCO,180,37.598579,30000,0,4,37.598579,-105.955832,1.2,0.4,96,14.07566,0,39767200,0.096,260000,0
57369,Questa Solar Facility,NM,Taos,PNM,180,36.716944,1000,0,4,36.716944,-105.60944,1.2,0.4,96,14.07566,0,39767200,0.096,260000,0
57372,Bellevue Solar Project,OR,Yamhill,PGE,97,43,1600,0,0,45.112222,-123.234722,1.2,0.4,96,14.07566,0,39767200,0.096,260000,0
57373,Agua Caliente Solar Project,AZ,Yuma,CISO,195,15,347700,2,0,32.9774,-113.4945,1.2,0.4,96,14.07566,0,39767200,0.096,260000,0
57377,Greater Sandhill I,CO,Alamosa,PSCO,0,0,19000,0,2,37.685467,-105.8909,1.2,0.4,96,14.07566,0,39767200,0.096,260000,0
57378,AV Solar Ranch One,CA,Los Angeles,CISO,180,25,253000,2,0,34.780278,-118.42444,1.2,0.4,96,14.07566,0,39767200,0.096,260000,0
57392,UASTP I,AZ,Pima,TEPC,180,25,1200,0,2,32.096973,-110.8106,1.2,0.4,96,14.07566,0,39767200,0.096,260000,0
57394,Genesis Solar Energy Project,CA,Riverside,CISO,180,33.665,250000,0,2,33.665,-114.998055,1.2,0.4,96,14.07566,0,39767200,0.096,260000,0
57422,Yolo County Solar Project,CA,Yolo,CISO,180,38.659722,1000,0,4,38.659722,-121.7294,1.2,0.4,96,14.07566,0,39767200,0.096,260000,0
57439,California Valley Solar Ranch,CA,San Luis Obispo,CISO,90,0,249800,0,2,35.323739,-119.91663,1.2,0.4,96,14.07566,0,39767200,0.096,260000,0
57441,Solar Photovoltaic Project #42,CA,Tulare,CISO,180,25,5000,0,0,36.028056,-119.074722,1.2,0.4,96,14.07566,0,39767200,0.096,260000,0
57442,Silver State Solar Power North,NV,Clark,NEVP,180,25,52000,2,0,35.793056,-115.35028,1.2,0.4,96,14.07566,0,39767200,0.096,260000,0
57455,Solar Borrego I,CA,San Diego,CISO,45,45,26000,0,2,33.298889,-116.35083,1.2,0.4,96,14.07566,0,39767200,0.096,260000,0
57490,Imperial Solar Energy Center South,CA,Imperial,CISO,180,25,128900,2,0,32.663289,-115.658284,1.2,0.4,96,14.07566,0,39767200,0.096,260000,0
57491,Imperial Solar Energy Center West,CA,Imperial,CISO,180,0,148700,2,2,32.772225,-115.779311,1.2,0.4,96,14.07566,0,39767200,0.096,260000,0
57497,Stroud Solar Station,CA,Fresno,CISO,180,25,20000,0,0,36.531389,-120.106944,1.2,0.4,96,14.07566,0,39767200,0.096,260000,0
57498,Five Points Solar Station,CA,Fresno,CISO,180,25,15000,0,0,36.400278,-120.103333,1.2,0.4,96,14.07566,0,39767200,0.096,260000,0
57499,Westside Solar Station,CA,Fresno,CISO,180,25,15000,0,0,36.378726,-120.124898,1.2,0.4,96,14.07566,0,39767200,0.096,260000,0
57506,FRV SI Transport Solar LP,CA,Sacramento,CISO,180,5,1000,0,0,38.4869,-121.3911,1.2,0.4,96,14.07566,0,39767200,0.096,260000,0
57507,RV CSU Power II LLC,CO,Larimer,PSCO,180,25,3000,0,0,40.592841,-105.147097,1.2,0.4,96,14.07566,0,39767200,0.096,260000,0
57509,Carson Solar I,CO,El Paso,WACM,180,25,2000,0,0,38.7228,-104.7817,1.2,0.4,96,14.07566,0,39767200,0.096,260000,0
57521,Giffen,CA,Fresno,CISO,180,25,10000,0,0,36.530278,-120.316111,1.2,0.4,96,14.07566,0,39767200,0.096,260000,0
57522,Cantua Solar Station,CA,Fresno,CISO,180,25,20000,0,0,36.425085,-120.343543,1.2,0.4,96,14.07566,0,39767200,0.096,260000,0
57523,Huron Solar Station,CA,Fresno,CISO,180,25,20000,0,0,36.181389,-120.030555,1.2,0.4,96,14.07566,0,39767200,0.096,260000,0
57524,Roger Road WWTP,AZ,Pima,TEPC,0,0,1100,0,2,32.2894,-111.0331,1.2,0.4,96,14.07566,0,39767200,0.096,260000,0
57534,Solar Photovoltaic Project #32,CA,San Bernardino,CISO,180,10,1500,0,0,34.031667,-117.571944,1.2,0.4,96,14.07566,0,39767200,0.096,260000,0
57535,Solar Photovoltaic Project #33,CA,San Bernardino,CISO,180,10,1000,0,0,34.0325,-117.569166,1.2,0.4,96,14.07566,0,39767200,0.096,260000,0
57554,AFA Solar Farm,CO,El Paso,WACM,0,0,5500,0,2,38.957901,-104.806627,1.2,0.4,96,14.07566,0,39767200,0.096,260000,0
57556,La Senita,AZ,Mohave,TEPC,180,25,1000,0,2,35.241675,-114.004591,1.2,0.4,96,14.07566,0,39767200,0.096,260000,0
57559,Sunset Reservoir North Basin,CA,San Francisco,CISO,180,6,4500,0,0,37.750894,-122.481758,1.2,0.4,96,14.07566,0,39767200,0.096,260000,0
57560,Chino Solar Valley,AZ,Yavapai,AZPS,0,0,19000,0,2,34.71843,-112.42899,1.2,0.4,96,14.07566,0,39767200,0.096,260000,0
57561,Cotton Center Solar Hybrid,AZ,Maricopa,AZPS,0,0,17000,0,2,33.034722,-112.661667,1.2,0.4,96,14.07566,0,39767200,0.096,260000,0
57562,Paloma Solar Hybrid,AZ,Maricopa,AZPS,190,25,17600,2,0,33.021111,-112.661389,1.2,0.4,96,14.07566,0,39767200,0.096,260000,0
57563,Hyder Solar Hybrid,AZ,Yuma,AZPS,0,0,32000,0,2,33.02566,-113.34397,1.2,0.4,96,14.07566,0,39767200,0.096,260000,0
57567,Albuquerque Solar Energy Center,NM,Bernalillo,PNM,180,25,2000,2,0,35.168957,-106.60005,1.2,0.4,96,14.07566,0,39767200,0.096,260000,0
57571,Los Lunas Solar Energy Center,NM,Valencia,PNM,180,25,7000,2,0,34.833136,-106.772413,1.2,0.4,96,14.07566,0,39767200,0.096,260000,0
57575,Deming Solar Energy Center,NM,Luna,PNM,180,25,9000,2,0,32.165833,-107.75056,1.2,0.4,96,14.07566,0,39767200,0.096,260000,0
57576,Las Vegas Solar Energy Center,NM,San Miguel,PNM,180,25,5000,2,0,35.643333,-105.206667,1.2,0.4,96,14.07566,0,39767200,0.096,260000,0
57577,Alamogordo Solar Energy Center,NM,Otero,PNM,180,25,5000,2,0,32.86571,-105.999775,1.2,0.4,96,14.07566,0,39767200,0.096,260000,0
57579,Robert O Schulz Solar Farm,CA,Stanislaus,CISO,180,37.8583,1300,0,4,37.8583,-120.8917,1.2,0.4,96,14.07566,0,39767200,0.096,260000,0
57580,Broadridge Cogen,CA,El Dorado,CISO,180,38.6183,800,2,0,38.6183,-121.0564,1.2,0.4,96,14.07566,0,39767200,0.096,260000,0
57591,"Hatch Solar Energy Center I, LLC",NM,Dona Ana,EPE,180,32.63,5000,0,4,32.63,-107.259722,1.2,0.4,96,14.07566,0,39767200,0.096,260000,0
57645,City & County of Denver at Denver Int'l,CO,Denver,PSCO,180,25,3400,0,0,39.904133,-104.654183,1.2,0.4,96,14.07566,0,39767200,0.096,260000,0
57650,Regulus Solar Project,CA,Kern,CISO,0,0,60000,0,2,35.3,-118.851944,1.2,0.4,96,14.07566,0,39767200,0.096,260000,0
57651,Adobe Solar,CA,KERN,CISO,90,35.102778,20000,0,2,35.102778,-118.954444,1.2,0.4,96,14.07566,0,39767200,0.096,260000,0
57652,Yamhill Solar LLC,OR,Yamhill,PGE,175,28,1000,0,0,45.108889,-123.278611,1.2,0.4,96,14.07566,0,39767200,0.096,260000,0
57655,Bakersfield College Solar 01,CA,Kern,CISO,1,1,1100,0,2,35.411817,-118.96864,1.2,0.4,96,14.07566,0,39767200,0.096,260000,0
57656,"Temescal Canyon RV, LLC",CA,Riverside,CISO,225,2,1500,0,0,33.826389,-117.511667,1.2,0.4,96,14.07566,0,39767200,0.096,260000,0
57657,Avra Valley Solar,AZ,Pima,TEPC,180,0,25000,2,2,32.371667,-111.282777,1.2,0.4,96,14.07566,0,39767200,0.096,260000,0
57669,SMUD at Grundman,CA,Sacramento,BANC,210,20,17000,2,0,38.364722,-121.41278,1.2,0.4,96,14.07566,0,39767200,0.096,260000,0
57670,SMUD at Van Conett,CA,Sacramento,BANC,210,20,2900,2,0,38.253056,-121.278888,1.2,0.4,96,14.07566,0,39767200,0.096,260000,0
57671,SMUD at Fleshman,CA,Sacramento,BANC,210,20,2900,2,0,38.237778,-121.3375,1.2,0.4,96,14.07566,0,39767200,0.096,260000,0
57673,Macys Goodyear,AZ,Maricopa,AZPS,180,7,3500,0,0,33.409063,-112.414596,1.2,0.4,96,14.07566,0,39767200,0.096,260000,0
57680,Arlington Valley Solar Energy II,AZ,Maricopa,AZPS,90,33.305,129000,0,2,33.305,-112.833888,1.2,0.4,96,14.07566,0,39767200,0.096,260000,0
57681,City of Boulder WWTP,CO,Boulder,PSCO,180,30,1000,0,0,40.048025,-105.180327,1.2,0.4,96,14.07566,0,39767200,0.096,260000,0
57682,City of Madera WWTP,CA,Madera,CISO,180,36.9408,1200,0,4,36.9408,-120.1572,1.2,0.4,96,14.07566,0,39767200,0.096,260000,0
57683,"Staples La Mirada, CA",CA,Los Angeles,CISO,180,20,1100,0,0,33.881667,-118.0175,1.2,0.4,96,14.07566,0,39767200,0.096,260000,0
57695,Topaz Solar Farm,CA,San Luis Obispo,CISO,180,25,585900.0000000001,2,0,35.405556,-120.068611,1.2,0.4,96,14.07566,0,39767200,0.096,260000,0
57697,Aerojet I,CA,Sacramento,BANC,225,45,3000,0,2,38.613508,-121.162879,1.2,0.4,96,14.07566,0,39767200,0.096,260000,0
57698,Aerojet II,CA,Sacramento,BANC,225,45,2200,0,2,38.6086,-121.1703,1.2,0.4,96,14.07566,0,39767200,0.096,260000,0
57707,Mesquite Solar 1,AZ,Maricopa,CISO,180,20,170000,0,0,33.341833,-112.904028,1.2,0.4,96,14.07566,0,39767200,0.096,260000,0
57708,Catalina Solar LLC,CA,Kern,CISO,178,20,110000,2,0,34.938261,-118.334492,1.2,0.4,96,14.07566,0,39767200,0.096,260000,0
57722,North Palm Springs 4A,CA,Riverside,CISO,225,45,4000,0,2,33.909722,-116.5625,1.2,0.4,96,14.07566,0,39767200,0.096,260000,0
57736,SPS1 Dollarhide,NM,Lea,SWPP,180,0,10000,0,2,32.12743,-103.137825,1.2,0.4,96,14.07566,0,39767200,0.096,260000,0
57737,SPS2 Jal,NM,Lea,SWPP,180,0,10000,0,2,32.183611,-103.183056,1.2,0.4,96,14.07566,0,39767200,0.096,260000,0
57738,SPS3 Lea,NM,Lea,SWPP,180,0,10000,0,2,32.469722,-103.323333,1.2,0.4,96,14.07566,0,39767200,0.096,260000,0
57739,SPS4 Monument,NM,Lea,SWPP,180,0,10100,0,2,32.681944,-103.303611,1.2,0.4,96,14.07566,0,39767200,0.096,260000,0
57740,SPS5 Hopi,NM,Eddy,SWPP,180,0,10100,0,2,32.345556,-104.234722,1.2,0.4,96,14.07566,0,39767200,0.096,260000,0
57743,North Palm Springs 1A,CA,Riverside,CISO,225,45,2500,0,2,33.924167,-116.593333,1.2,0.4,96,14.07566,0,39767200,0.096,260000,0
57753,SMUD at Lawrence,CA,Sacramento,BANC,210,20,1000,2,0,38.338868,-121.431342,1.2,0.4,96,14.07566,0,39767200,0.096,260000,0
57764,Naval Air Weapons Station China Lake,CA,Kern,CISO,0,0,11100,0,2,35.68771,-117.68137,1.2,0.4,96,14.07566,0,39767200,0.096,260000,0
57765,Arizona Western College PV,AZ,Yuma,AZPS,180,32.687778,4700,0,4,32.687778,-114.49611,1.2,0.4,96,14.07566,0,39767200,0.096,260000,0
57773,Palo Verde College,CA,Riverside,CISO,0,30,1200,0,2,33.661667,-114.651667,1.2,0.4,96,14.07566,0,39767200,0.096,260000,0
57775,Kingman 1,AZ,Mohave,AZPS,90,35.145833,500,0,2,35.145833,-114.0675,1.2,0.4,96,14.07566,0,39767200,0.096,260000,0
57777,RE Dillard 1 LLC,CA,Sacramento,BANC,90,38.468611,3000,0,2,38.468611,-121.181944,1.2,0.4,96,14.07566,0,39767200,0.096,260000,0
57778,RE Kammerer 1 LLC,CA,Sacramento,BANC,90,38.365053,5000,0,2,38.365053,-121.381101,1.2,0.4,96,14.07566,0,39767200,0.096,260000,0
57779,RE Dillard 2 LLC,CA,Sacramento,BANC,90,38.466111,3000,0,2,38.466111,-121.177778,1.2,0.4,96,14.07566,0,39767200,0.096,260000,0
57780,RE Kammerer 2 LLC,CA,Sacramento,BANC,90,38.365053,5000,0,2,38.365053,-121.381101,1.2,0.4,96,14.07566,0,39767200,0.096,260000,0
57781,RE Dillard 3 LLC,CA,Sacramento,BANC,90,38.461944,3000,0,2,38.461944,-121.180278,1.2,0.4,96,14.07566,0,39767200,0.096,260000,0
57782,RE Kammerer 3 LLC,CA,Sacramento,BANC,90,38.365053,5000,0,2,38.365053,-121.381101,1.2,0.4,96,14.07566,0,39767200,0.096,260000,0
57783,RE Bruceville 1 LLC,CA,Sacramento,BANC,90,38.3475,5000,0,2,38.3475,-121.412777,1.2,0.4,96,14.07566,0,39767200,0.096,260000,0
57784,RE Bruceville 2 LLC,CA,Sacramento,BANC,90,38.3475,5000,0,2,38.3475,-121.412777,1.2,0.4,96,14.07566,0,39767200,0.096,260000,0
57785,RE Bruceville 3 LLC,CA,Sacramento,BANC,90,38.3475,5000,0,2,38.3475,-121.412777,1.2,0.4,96,14.07566,0,39767200,0.096,260000,0
57790,RE Bagdad Solar I LLC,AZ,Yavapai,AZPS,180,34.585833,14900,0,2,34.585833,-113.177222,1.2,0.4,96,14.07566,0,39767200,0.096,260000,0
57795,RE Ajo 1 LLC,AZ,Pima,AZPS,180,32.367013,4500,0,2,32.367013,-112.831401,1.2,0.4,96,14.07566,0,39767200,0.096,260000,0
57796,Golden Springs Building C-1,CA,Los Angeles,CISO,180,10,1200,0,0,33.914167,-118.053611,1.2,0.4,96,14.07566,0,39767200,0.096,260000,0
57797,Golden Springs Building D,CA,Los Angeles,CISO,180,10,1300,0,0,33.911944,-118.052222,1.2,0.4,96,14.07566,0,39767200,0.096,260000,0
57806,RE Dillard 4 LLC,CA,Sacramento,BANC,90,38.461944,400,0,2,38.461944,-121.180278,1.2,0.4,96,14.07566,0,39767200,0.096,260000,0
57816,RE McKenzie 1 LLC,CA,Sacramento,BANC,90,38.302594,5000,0,2,38.302594,-121.295819,1.2,0.4,96,14.07566,0,39767200,0.096,260000,0
57817,RE McKenzie 2 LLC,CA,Sacramento,BANC,90,38.302594,5000,0,2,38.302594,-121.295819,1.2,0.4,96,14.07566,0,39767200,0.096,260000,0
57818,RE McKenzie 3 LLC,CA,Sacramento,BANC,90,38.302594,5000,0,2,38.302594,-121.295819,1.2,0.4,96,14.07566,0,39767200,0.096,260000,0
57819,RE McKenzie 4 LLC,CA,Sacramento,BANC,90,38.302594,5000,0,2,38.302594,-121.295819,1.2,0.4,96,14.07566,0,39767200,0.096,260000,0
57820,RE McKenzie 5 LLC,CA,Sacramento,BANC,90,38.302594,5000,0,2,38.302594,-121.295819,1.2,0.4,96,14.07566,0,39767200,0.096,260000,0
57821,RE McKenzie 6 LLC,CA,Sacramento,BANC,90,38.302594,5000,0,2,38.302594,-121.295819,1.2,0.4,96,14.07566,0,39767200,0.096,260000,0
57827,Dinuba Wastewater Treatment Plant,CA,Tulare,CISO,90,36.538056,1000,0,2,36.538056,-119.426388,1.2,0.4,96,14.07566,0,39767200,0.096,260000,0
57831,Heliocentric,CA,Los Angeles,CISO,180,30,1500,0,0,34.65434,-117.971004,1.2,0.4,96,14.07566,0,39767200,0.096,260000,0
57836,L-8 Solar Project,CA,Los Angeles,CISO,180,30,1500,0,0,34.654347,-117.973103,1.2,0.4,96,14.07566,0,39767200,0.096,260000,0
57840,ISH Solar Hospital SDMC,CA,San Diego,CISO,0,5,1100,0,0,32.791667,-117.095277,1.2,0.4,96,14.07566,0,39767200,0.096,260000,0
57841,ISH Solar Hospital Downey,CA,Los Angeles,CISO,0,10,1100,0,0,33.921667,-118.124444,1.2,0.4,96,14.07566,0,39767200,0.096,260000,0
57849,Green Acres Solar Facility 1,CA,Sacramento,BANC,90,38.282021,3000,0,2,38.282021,-121.464676,1.2,0.4,96,14.07566,0,39767200,0.096,260000,0
57850,Green Acres Solar Facility 2,CA,Sacramento,BANC,0,0,1000,0,2,38.28357,-121.461264,1.2,0.4,96,14.07566,0,39767200,0.096,260000,0
57856,Univ of California San Diego Solar,CA,San Diego,CISO,180,20,1200,0,0,32.874379,-117.238927,1.2,0.4,96,14.07566,0,39767200,0.096,260000,0
57859,Moapa Southern Paiute,NV,Clark,NEVP,180,30,250000,2,0,36.52995,-114.770308,1.2,0.4,96,14.07566,0,39767200,0.096,260000,0
57860,Industry MetroLink PV 1,CA,Los Angeles,CISO,223,5,1500,0,0,34.008661,-117.845603,1.2,0.4,96,14.07566,0,39767200,0.096,260000,0
57870,Castle Rock Vineyards,CA,Tulare,CISO,180,20,1000,0,0,35.801111,-119.110556,1.2,0.4,96,14.07566,0,39767200,0.096,260000,0
57871,2555 E Olympic Bl,CA,Los Angeles,LDWP,170,15,1000,0,0,34.026944,-118.224167,1.2,0.4,96,14.07566,0,39767200,0.096,260000,0
57882,Baldock Solar Highway,OR,Clackamas,PGE,180,21,1400,0,0,45.269444,-122.771667,1.2,0.4,96,14.07566,0,39767200,0.096,260000,0
57883,Queen Creek Solar Farm,AZ,Maricopa,SRP,90,33.2675,19000,0,2,33.2675,-111.612222,1.2,0.4,96,14.07566,0,39767200,0.096,260000,0
57891,Guernsey Solar Station,CA,Kings,CISO,90,0,20000,0,2,36.163889,-119.650556,1.2,0.4,96,14.07566,0,39767200,0.096,260000,0
57892,Gates Solar Station,CA,Fresno,CISO,180,25,20000,0,0,36.176389,-120.114167,1.2,0.4,96,14.07566,0,39767200,0.096,260000,0
57895,Improvement Dst No. 4,CA,Kern,CISO,180,22,1100,0,0,35.402778,-119.038611,1.2,0.4,96,14.07566,0,39767200,0.096,260000,0
57900,Solar Photovoltaic Project #48,CA,San Bernardino,CISO,180,10,5000,0,0,34.081111,-117.228056,1.2,0.4,96,14.07566,0,39767200,0.096,260000,0
57904,San Antonio West Solar Rooftop,CA,Riverside,CISO,180,20,1500,0,0,33.965617,-117.659059,1.2,0.4,96,14.07566,0,39767200,0.096,260000,0
57930,FRB Solar Farm,AZ,Pima,TEPC,180,32.108147,1900,0,4,32.108147,-110.824662,1.2,0.4,96,14.07566,0,39767200,0.096,260000,0
57933,Solar Star California II LLC,CA,Sacramento,BANC,180,38.516389,2000,0,2,38.516389,-121.47528,1.2,0.4,96,14.07566,0,39767200,0.096,260000,0
57939,Walmart Casa Grande,AZ,Pinal,AZPS,180,20,2000,0,2,32.866837,-111.771751,1.2,0.4,96,14.07566,0,39767200,0.096,260000,0
57959,Desert Green Solar Farm LLC,CA,San Diego,CISO,180,33.27055,6300,0,4,33.27055,-116.34805,1.2,0.4,96,14.07566,0,39767200,0.096,260000,0
57970,Butte College Main Campus Solar,CA,Butte,CISO,195,18,3500,0,0,39.648056,-121.644167,1.2,0.4,96,14.07566,0,39767200,0.096,260000,0
57982,Meridian Vineyards,CA,San Luis Obispo,CISO,180,30,1100,0,0,35.670278,-120.566944,1.2,0.4,96,14.07566,0,39767200,0.096,260000,0
57985,SunE EPE2 LLC,NM,Dona Ana,EPE,180,38,12000,0,2,32.251667,-106.913333,1.2,0.4,96,14.07566,0,39767200,0.096,260000,0
57986,SunE EPE1 LLC,NM,Dona Ana,EPE,180,38,10000,0,2,32.034383,-106.340986,1.2,0.4,96,14.07566,0,39767200,0.096,260000,0
57993,"Desert Sunlight 300, LLC",CA,Riverside,CISO,120,22.5,313699.99999999994,2,0,33.823056,-115.393889,1.2,0.4,96,14.07566,0,39767200,0.096,260000,0
57997,Foothills Solar Plant Hybrid,AZ,Yuma,AZPS,0,0,35000,0,2,32.64856,-114.428741,1.2,0.4,96,14.07566,0,39767200,0.096,260000,0
58002,Alpaugh North,CA,Tulare,CISO,0,0,20000,0,2,35.9025,-119.442778,1.2,0.4,96,14.07566,0,39767200,0.096,260000,0
58003,Alpaugh 50,CA,Tulare,CISO,0,0,50000,0,2,35.898333,-119.435278,1.2,0.4,96,14.07566,0,39767200,0.096,260000,0
58006,Salt Palace Solar Gen Plant,UT,Salt Lake,PACE,180,10,1300,0,0,40.767222,-111.895,1.2,0.4,96,14.07566,0,39767200,0.096,260000,0
58010,WSMR I,NM,Dona Ana,EPE,181,38,4100.000000000001,0,2,32.395833,-106.47722,1.2,0.4,96,14.07566,0,39767200,0.096,260000,0
58017,Copper Mountain Solar 2,NV,Clark,CISO,180,25,154000,2,0,35.786389,-114.962778,1.2,0.4,96,14.07566,0,39767200,0.096,260000,0
58028,IKEA Tejon 345,CA,Kern,CISO,180,12,1500,0,0,34.975278,-118.946944,1.2,0.4,96,14.07566,0,39767200,0.096,260000,0
58034,Nickel 1 Solar Facility,CA,Kern,CISO,180,25,1500,0,0,35.647295,-119.716512,1.2,0.4,96,14.07566,0,39767200,0.096,260000,0
58037,Buckeye Union HS District 201,AZ,Maricopa,AZPS,180,8,3300,0,0,33.419167,-112.576111,1.2,0.4,96,14.07566,0,39767200,0.096,260000,0
58039,Axium Modesto Solar,CA,Stanislaus,CISO,0,0,25000,0,2,37.734167,-120.995556,1.2,0.4,96,14.07566,0,39767200,0.096,260000,0
58042,Black Mountain Solar LLC,AZ,Mohave,AZPS,180,35.0227,9000,0,2,35.0227,-114.1627,1.2,0.4,96,14.07566,0,39767200,0.096,260000,0
58056,"Irwindale Brew Yard, LLC",CA,Los Angeles,CISO,28,28,2500,0,2,34.121667,-117.938333,1.2,0.4,96,14.07566,0,39767200,0.096,260000,0
58062,Imperial Valley Solar Company 1 LLC,CA,Imperial,IID,180,30,23000,0,0,33.245833,-115.496667,1.2,0.4,96,14.07566,0,39767200,0.096,260000,0
58073,SEPV 1,CA,Los Angeles,CISO,90,34.618861,2000,0,2,34.618861,-117.939444,1.2,0.4,96,14.07566,0,39767200,0.096,260000,0
58074,SEPV 2,CA,San Bernardino,CISO,90,34.174167,2000,0,2,34.174167,-116.152778,1.2,0.4,96,14.07566,0,39767200,0.096,260000,0
58076,Edwards Air Force Base,CA,Kern,CISO,180,20,3000,0,2,34.9077,-117.9206,1.2,0.4,96,14.07566,0,39767200,0.096,260000,0
58086,Intel Folsom,CA,Sacramento,BANC,230,20,1000,0,2,38.645119,-121.172999,1.2,0.4,96,14.07566,0,39767200,0.096,260000,0
58118,La Joya Del Sol,CA,Fresno,CISO,90,36.678611,1500,0,2,36.678611,-119.7975,1.2,0.4,96,14.07566,0,39767200,0.096,260000,0
58119,Depot Park Solar System,CA,Sacramento,BANC,90,38.515,3000,0,2,38.515,-121.398333,1.2,0.4,96,14.07566,0,39767200,0.096,260000,0
58131,Outback Solar At Christmas Valley,OR,Lake,BPAT,180,43.236944,4400,0,2,43.236944,-120.49,1.2,0.4,96,14.07566,0,39767200,0.096,260000,0
58147,Prescott Solar Plant,AZ,Yavapai,AZPS,0,0,10800,0,2,34.649444,-112.4275,1.2,0.4,96,14.07566,0,39767200,0.096,260000,0
58148,RE Kansas South LLC,CA,Kings,CISO,0,0,20000,0,2,36.226111,-119.834167,1.2,0.4,96,14.07566,0,39767200,0.096,260000,0
58149,TA-High Desert LLC,CA,Los Angeles,CISO,0,0,20000,0,2,34.708889,-118.304722,1.2,0.4,96,14.07566,0,39767200,0.096,260000,0
58150,Black Cap Solar Plant,OR,Lake,PACW,90,0,2000,0,2,42.17505,-120.362631,1.2,0.4,96,14.07566,0,39767200,0.096,260000,0
58169,CSUF Trigeneration,CA,Orange,CISO,180,10,4300,0,0,33.880638,-117.88656,1.2,0.4,96,14.07566,0,39767200,0.096,260000,0
58170,Crafton Hills College Solar Farm,CA,San Bernardino,CISO,180,34.043056,1300,0,4,34.043056,-117.098889,1.2,0.4,96,14.07566,0,39767200,0.096,260000,0
58171,Prairie Fire,AZ,Pima,TEPC,180,25,4500,0,0,32.116389,-110.82,1.2,0.4,96,14.07566,0,39767200,0.096,260000,0
58202,RE Victor Phelan Solar One LLC,CA,San Bernardino,CISO,90,34.51231,20000,0,2,34.51231,-117.47753,1.2,0.4,96,14.07566,0,39767200,0.096,260000,0
58204,Grassland 3&4 Solar Project,CA,Yolo,CISO,180,38.500278,2500,0,4,38.500278,-121.694167,1.2,0.4,96,14.07566,0,39767200,0.096,260000,0
58206,West Gates Solar Station,CA,Fresno,CISO,180,25,10000,0,0,36.142222,-120.1325,1.2,0.4,96,14.07566,0,39767200,0.096,260000,0
58213,Saddle Mountain Solar I,AZ,Maricopa,AZPS,0,0,15000,0,2,33.378333,-113.180833,1.2,0.4,96,14.07566,0,39767200,0.096,260000,0
58217,Grassland 1&2 Solar Project,CA,Yolo,CISO,180,38.500278,2500,0,4,38.500278,-121.694167,1.2,0.4,96,14.07566,0,39767200,0.096,260000,0
58226,Newberry Solar 1 LLC,CA,San Bernardino,CISO,180,34.853581,1500,0,4,34.853581,-116.683108,1.2,0.4,96,14.07566,0,39767200,0.096,260000,0
58227,SEPV9 Power Plant,CA,San Bernardino,CISO,180,34.192222,9000,0,2,34.192222,-116.090278,1.2,0.4,96,14.07566,0,39767200,0.096,260000,0
58232,Tahquitz High School,CA,Riverside,CISO,90,33.767222,1000,0,2,33.767222,-117.0175,1.2,0.4,96,14.07566,0,39767200,0.096,260000,0
58234,SEPV 8,CA,San Bernardino,CISO,180,34.171944,12000,0,2,34.171944,-116.1525,1.2,0.4,96,14.07566,0,39767200,0.096,260000,0
58240,Kit Carson,NM,Taos,PNM,0,0,1300,0,2,36.966667,-105.438056,1.2,0.4,96,14.07566,0,39767200,0.096,260000,0
58244,West Valley High School Solar,CA,Riverside,CISO,90,33.719722,1000,0,2,33.719722,-117.009722,1.2,0.4,96,14.07566,0,39767200,0.096,260000,0
58248,Pierce College,CA,Los Angeles,LDWP,180,2,1900,0,0,34.183611,-118.574722,1.2,0.4,96,14.07566,0,39767200,0.096,260000,0
58249,VA Sepulveda Ambulatory Care Center,CA,Los Angeles,LDWP,180,10,3500,0,0,34.248889,-118.483333,1.2,0.4,96,14.07566,0,39767200,0.096,260000,0
58253,CBS Television City,CA,Los Angeles,LDWP,270,5,1600,0,0,34.075,-118.36,1.2,0.4,96,14.07566,0,39767200,0.096,260000,0
58256,Los Alamos PV Site,NM,Los Alamos,PNM,180,37,1000,0,0,35.875556,-106.31,1.2,0.4,96,14.07566,0,39767200,0.096,260000,0
58261,FAA NorCal TRACON,CA,Sacramento,BANC,90,0,1000,0,0,38.559533,-121.257556,1.2,0.4,96,14.07566,0,39767200,0.096,260000,0
58262,Badger 1,AZ,Maricopa,AZPS,90,33.498003,14800,0,2,33.498003,-112.813458,1.2,0.4,96,14.07566,0,39767200,0.096,260000,0
58289,Venable Solar 1,CA,Riverside,CISO,198,20,1500,0,0,33.598889,-114.571667,1.2,0.4,96,14.07566,0,39767200,0.096,260000,0
58290,Venable Solar 2,CA,Riverside,CISO,198,20,1500,0,0,33.597222,-114.571667,1.2,0.4,96,14.07566,0,39767200,0.096,260000,0
58292,Jewish Community Center PV,AZ,Maricopa,AZPS,180,5,1100,0,0,33.603056,-111.924722,1.2,0.4,96,14.07566,0,39767200,0.096,260000,0
58293,Paradise Valley H.S. PV,AZ,Maricopa,AZPS,180,5,1300,0,0,33.6416,-111.9997,1.2,0.4,96,14.07566,0,39767200,0.096,260000,0
58304,Kingsburg Solar,CA,Tulare,CISO,180,20,3700,0,0,36.505278,-119.540278,1.2,0.4,96,14.07566,0,39767200,0.096,260000,0
58306,Exeter Solar,CA,Tulare,CISO,180,20,3500,0,0,36.2675,-119.128581,1.2,0.4,96,14.07566,0,39767200,0.096,260000,0
58307,Ivanhoe Solar,CA,Tulare,CISO,180,20,3500,0,0,36.3875,-119.255,1.2,0.4,96,14.07566,0,39767200,0.096,260000,0
58308,Lindsay Solar,CA,Tulare,CISO,180,20,4000,0,0,36.211944,-119.133889,1.2,0.4,96,14.07566,0,39767200,0.096,260000,0
58309,Porterville Solar,CA,Tulare,CISO,180,20,3500,0,0,36.102778,-119.039722,1.2,0.4,96,14.07566,0,39767200,0.096,260000,0
58319,"Patua Acquisition Project, LLC",NV,Churchill,NEVP,90,60,10600,0,2,39.585833,-119.073056,1.2,0.4,96,14.07566,0,39767200,0.096,260000,0
58354,Radiance Solar 4,CA,Los Angeles,CISO,200,25,1500,0,0,34.665556,-118.288056,1.2,0.4,96,14.07566,0,39767200,0.096,260000,0
58355,Radiance Solar 5,CA,Los Angeles,CISO,200,25,1500,0,0,34.665556,-118.286944,1.2,0.4,96,14.07566,0,39767200,0.096,260000,0
58366,Atwell Island,CA,Tulare,CISO,180,18,20200,2,0,35.895,-119.510833,1.2,0.4,96,14.07566,0,39767200,0.096,260000,0
58370,Gridley Main,CA,Butte,CISO,0,0,1000,0,2,39.373333,-121.684167,1.2,0.4,96,14.07566,0,39767200,0.096,260000,0
58371,Gridley Main Two,CA,Butte,CISO,0,0,2500,0,2,39.373333,-121.681667,1.2,0.4,96,14.07566,0,39767200,0.096,260000,0
58373,White River Solar,CA,Tulare,CISO,0,0,20000,0,2,35.871389,-119.4625,1.2,0.4,96,14.07566,0,39767200,0.096,260000,0
58374,Corcoran Solar,CA,Kings,CISO,0,0,20000,0,2,36.138333,-119.573333,1.2,0.4,96,14.07566,0,39767200,0.096,260000,0
58376,Oakley Solar Project,CA,Contra Costa,CISO,180,5,1500,0,0,38.001667,-121.747778,1.2,0.4,96,14.07566,0,39767200,0.096,260000,0
58383,Hyder II Hybrid,AZ,Yuma,AZPS,0,0,14000,0,2,33.027,-113.3489,1.2,0.4,96,14.07566,0,39767200,0.096,260000,0
58388,Solar Star 1,CA,Kern,CISO,0,0,318000,0,2,34.8181,-118.4036,1.2,0.4,96,14.07566,0,39767200,0.096,260000,0
58389,Solar Star 2,CA,Kern,CISO,0,0,279000,0,2,34.848611,-118.352778,1.2,0.4,96,14.07566,0,39767200,0.096,260000,0
58398,Heber Solar,CA,Imperial,IID,0,0,10900,0,2,32.7125,-115.540556,1.2,0.4,96,14.07566,0,39767200,0.096,260000,0
58417,Lone Valley Solar Park I LLC,CA,San Bernardino,CISO,90,50,10000,0,2,34.398059,-116.865517,1.2,0.4,96,14.07566,0,39767200,0.096,260000,0
58418,Victor Dry Farm Ranch A,CA,San Bernardino,CISO,193,15,5000,0,0,34.501111,-117.466667,1.2,0.4,96,14.07566,0,39767200,0.096,260000,0
58419,Victor Dry Farm Ranch B,CA,San Bernardino,CISO,193,15,5000,0,0,34.497778,-117.471111,1.2,0.4,96,14.07566,0,39767200,0.096,260000,0
58422,CSU Northridge Plant,CA,Los Angeles,LDWP,270,5,600.0000000000001,0,0,34.243333,-118.530556,1.2,0.4,96,14.07566,0,39767200,0.096,260000,0
58430,Centinela Solar Energy,CA,Imperial,CISO,90,32.686944,174799.99999999997,0,2,32.686944,-115.647778,1.2,0.4,96,14.07566,0,39767200,0.096,260000,0
58445,Arrache 4006,CA,Los Angeles,CISO,180,0,2000,0,2,34.655,-118.051111,1.2,0.4,96,14.07566,0,39767200,0.096,260000,0
58446,Arrache 4013,CA,Los Angeles,CISO,45,0,1500,0,2,34.650556,-118.051944,1.2,0.4,96,14.07566,0,39767200,0.096,260000,0
58447,Arrache 8083,CA,Los Angeles,CISO,45,0,4000,0,2,34.647778,-118.061111,1.2,0.4,96,14.07566,0,39767200,0.096,260000,0
58448,Nunn,CA,San Bernardino,CISO,180,0,1000,0,2,34.509167,-117.154444,1.2,0.4,96,14.07566,0,39767200,0.096,260000,0
58449,Rutan,CA,Los Angeles,CISO,180,0,4000,0,2,34.643889,-118.163056,1.2,0.4,96,14.07566,0,39767200,0.096,260000,0
58450,Vinam,CA,Los Angeles,CISO,45,0,1500,0,2,34.668889,-118.061389,1.2,0.4,96,14.07566,0,39767200,0.096,260000,0
58451,Ma,CA,Los Angeles,CISO,180,0,1500,0,2,34.695278,-118.0625,1.2,0.4,96,14.07566,0,39767200,0.096,260000,0
58452,Horn,CA,Los Angeles,CISO,45,0,1500,0,2,34.708889,-118.274167,1.2,0.4,96,14.07566,0,39767200,0.096,260000,0
58454,Watts 3115,CA,San Bernardino,CISO,180,0,2000,0,2,34.600833,-117.642222,1.2,0.4,96,14.07566,0,39767200,0.096,260000,0
58462,McCoy Solar Energy Project Hybrid,CA,Riverside,CISO,0,0,270600,2,2,33.694722,-114.739722,1.2,0.4,96,14.07566,0,39767200,0.096,260000,0
58467,Campo Verde Solar,CA,Imperial,CISO,180,25,147400,2,0,32.753333,-115.726389,1.2,0.4,96,14.07566,0,39767200,0.096,260000,0
58477,Las Vegas WPCF Solar Plant,NV,Clark,NEVP,0,0,3300,0,2,36.134444,-115.035278,1.2,0.4,96,14.07566,0,39767200,0.096,260000,0
58479,SEV NM Phase 2,NM,Chaves,SWPP,180,25,2000,0,0,33.351111,-104.506944,1.2,0.4,96,14.07566,0,39767200,0.096,260000,0
58481,CSU Pueblo,CO,Pueblo,WACM,180,20,1000,0,0,38.306111,-104.58,1.2,0.4,96,14.07566,0,39767200,0.096,260000,0
58486,"Picture Rocks Solar, LLC",AZ,Pima,TEPC,180,0,20000,0,2,32.369722,-111.242778,1.2,0.4,96,14.07566,0,39767200,0.096,260000,0
58489,Apex Solar PV Power Project,NV,Clark,NEVP,99,36.39,20000,0,2,36.39,-114.97,1.2,0.4,96,14.07566,0,39767200,0.096,260000,0
58490,Spectrum Solar PV Power Project,NV,Clark,NEVP,90,36.23,30200,0,2,36.23,-114.87,1.2,0.4,96,14.07566,0,39767200,0.096,260000,0
58498,RE Rosamond One LLC,CA,Kern,CISO,90,34.9,20000,0,2,34.9,-118.246944,1.2,0.4,96,14.07566,0,39767200,0.096,260000,0
58499,RE Rosamond Two LLC,CA,Kern,CISO,90,34.900278,20000,0,2,34.900278,-118.238333,1.2,0.4,96,14.07566,0,39767200,0.096,260000,0
58500,RE Rio Grande Solar LLC,CA,Kern,CISO,90,35.00745,5000,0,2,35.00745,-118.16451,1.2,0.4,96,14.07566,0,39767200,0.096,260000,0
58501,RE Gillespie 1 LLC,AZ,Maricopa,AZPS,90,33.026389,15000,0,2,33.026389,-112.665833,1.2,0.4,96,14.07566,0,39767200,0.096,260000,0
58502,RE Columbia 3 LLC,CA,Kern,CISO,90,35.024722,10000,0,2,35.024722,-118.164167,1.2,0.4,96,14.07566,0,39767200,0.096,260000,0
58506,Chuckawalla Solar,CA,Riverside,CISO,180,0,4000,0,2,33.568333,-114.91805600000001,1.2,0.4,96,14.07566,0,39767200,0.096,260000,0
58508,Bear Creek Solar,CA,San Joaquin,CISO,180,20,1500,0,2,38.136389,-121.148889,1.2,0.4,96,14.07566,0,39767200,0.096,260000,0
58509,Vintner Solar,CA,San Luis Obispo,CISO,180,20,1500,0,2,35.55795,-120.68287,1.2,0.4,96,14.07566,0,39767200,0.096,260000,0
58510,Kettleman Solar Project,CA,San Joaquin,CISO,180,20,1000,0,0,38.12139,-121.14122,1.2,0.4,96,14.07566,0,39767200,0.096,260000,0
58513,Ironwood Solar LLC,CA,Riverside,CISO,180,0,4000,0,2,33.565,-114.91805600000001,1.2,0.4,96,14.07566,0,39767200,0.096,260000,0
58514,Desert Hot Springs Solar,CA,Riverside,CISO,90,45,2300,0,2,33.923056,-116.53,1.2,0.4,96,14.07566,0,39767200,0.096,260000,0
58516,Union HS at Casa Grande,AZ,Pinal,AZPS,180,12,1600,0,0,32.936944,-111.738611,1.2,0.4,96,14.07566,0,39767200,0.096,260000,0
58517,Vista Grande HS at Casa Grande,AZ,Pinal,AZPS,270,2,1400,0,0,32.891389,-111.713056,1.2,0.4,96,14.07566,0,39767200,0.096,260000,0
58520,Otero Solar,NM,Otero,PNM,180,25,8000,2,0,32.976389,-105.971111,1.2,0.4,96,14.07566,0,39767200,0.096,260000,0
58521,Manzano Solar,NM,Valencia,PNM,180,25,8400,2,0,34.746667,-106.654444,1.2,0.4,96,14.07566,0,39767200,0.096,260000,0
58522,Madera Community Hospital,CA,Madera,CISO,180,20,1000,0,2,36.941111,-120.046667,1.2,0.4,96,14.07566,0,39767200,0.096,260000,0
58525,City of Hayward WWTP,CA,Alameda,CISO,180,0,1600,0,2,37.633526,-122.139717,1.2,0.4,96,14.07566,0,39767200,0.096,260000,0
58527,Crown Cooling Facility,CA,Imperial,IID,180,30,1000,0,0,32.967222,-115.5325,1.2,0.4,96,14.07566,0,39767200,0.096,260000,0
58528,Garnet Solar Generation Station I LLC,CA,Riverside,CISO,0,0,4000,0,2,33.8906,-116.5431,1.2,0.4,96,14.07566,0,39767200,0.096,260000,0
58539,Lake Pleasant WTP,AZ,Maricopa,AZPS,0,0,6500,0,2,33.820556,-112.24,1.2,0.4,96,14.07566,0,39767200,0.096,260000,0
58540,Silver City WWTP PV Project,NM,Grant,PNM,180,30,1000,0,0,32.713889,-108.248056,1.2,0.4,96,14.07566,0,39767200,0.096,260000,0
58542,"Desert Sunlight 250, LLC",CA,Riverside,CISO,120,22.5,249700,2,0,33.8055,-115.3947,1.2,0.4,96,14.07566,0,39767200,0.096,260000,0
58543,"Gilbert Solar Facility I, LLC",AZ,Maricopa,AZPS,0,0,2000,0,2,33.355862,-111.802355,1.2,0.4,96,14.07566,0,39767200,0.096,260000,0
58544,Mountain View Solar,NV,Clark,NEVP,0,0,20000,0,2,36.390556,-114.964444,1.2,0.4,96,14.07566,0,39767200,0.096,260000,0
58545,Community Solar 1,CA,Imperial,IID,180,32.982778,5700,0,2,32.982778,-115.481944,1.2,0.4,96,14.07566,0,39767200,0.096,260000,0
58547,SMPA Solar 1 Community Solar,CO,Montrose,PSCO,180,35,1000,0,0,38.2725,-108.785556,1.2,0.4,96,14.07566,0,39767200,0.096,260000,0
58576,GSE NM1,NM,Chaves,SWPP,180,25,2300,0,0,33.3,-104.4,1.2,0.4,96,14.07566,0,39767200,0.096,260000,0
58578,Sonora 1,CA,Tuolumne,CISO,0,0,1500,0,2,37.889753,-120.528723,1.2,0.4,96,14.07566,0,39767200,0.096,260000,0
58581,Oltmans SCE at Champagne,CA,San Bernardino,CISO,180,10,1000,0,0,34.043889,-117.531111,1.2,0.4,96,14.07566,0,39767200,0.096,260000,0
58582,Oltmans SCE at Jurupa,CA,San Bernardino,CISO,180,10,1500,0,0,34.05,-117.596111,1.2,0.4,96,14.07566,0,39767200,0.096,260000,0
58585,Sierra Nevada Brewing Co Hybrid,CA,Butte,CISO,180,5,1700,0,0,39.724167,-121.815278,1.2,0.4,96,14.07566,0,39767200,0.096,260000,0
58588,Sue Cleveland High School,NM,Sandoval,PNM,180,20,1000,0,0,35.313333,-106.657778,1.2,0.4,96,14.07566,0,39767200,0.096,260000,0
58589,Rio Rancho High School,NM,Sandoval,PNM,180,20,1000,0,0,35.264444,-106.667778,1.2,0.4,96,14.07566,0,39767200,0.096,260000,0
58590,Cascade Solar,CA,San Bernardino,CISO,90,34.157222,18500,0,2,34.157222,-116.234444,1.2,0.4,96,14.07566,0,39767200,0.096,260000,0
58592,Solar Gen 2 Solar Facility,CA,Imperial,CISO,90,33.08,163200,2,2,33.08,-115.47,1.2,0.4,96,14.07566,0,39767200,0.096,260000,0
58598,Beryl Solar Plant,UT,Iron,PACE,180,30,3000,0,0,37.639167,-113.645833,1.2,0.4,96,14.07566,0,39767200,0.096,260000,0
58599,Cedar Valley Solar Plant,UT,Iron,PACE,180,30,3000,0,0,37.807778,-113.09,1.2,0.4,96,14.07566,0,39767200,0.096,260000,0
58600,Buckhorn Solar Plant,UT,Iron,PACE,180,30,3000,0,0,38.023333,-112.731667,1.2,0.4,96,14.07566,0,39767200,0.096,260000,0
58601,Milford Flat Solar Plant,UT,Beaver,PACE,180,30,3000,0,0,38.291389,-113.008333,1.2,0.4,96,14.07566,0,39767200,0.096,260000,0
58602,Laho Solar Plant,UT,Beaver,PACE,180,30,3000,0,0,38.291389,-113.035556,1.2,0.4,96,14.07566,0,39767200,0.096,260000,0
58603,Greenville Solar Plant,UT,Beaver,PACE,180,30,2200,0,0,38.256111,-112.735833,1.2,0.4,96,14.07566,0,39767200,0.096,260000,0
58604,Granite Peak Solar Plant,UT,Beaver,PACE,180,30,3000,0,0,38.402778,-112.988889,1.2,0.4,96,14.07566,0,39767200,0.096,260000,0
58609,Industry Solar Power Generation Station 1 LLC,CA,San Bernardino,CISO,90,34.553056,1500,0,2,34.553056,-117.456944,1.2,0.4,96,14.07566,0,39767200,0.096,260000,0
58610,Navajo Solar Power Generation Station 1 LLC,CA,San Bernardino,CISO,90,34.551111,1500,0,2,34.551111,-117.191111,1.2,0.4,96,14.07566,0,39767200,0.096,260000,0
58611,Powhatan Solar Power Generation Station 1 LLC,CA,San Bernardino,CISO,90,34.496944,1500,0,2,34.496944,-117.145,1.2,0.4,96,14.07566,0,39767200,0.096,260000,0
58612,Otoe Solar Power Generation Station 1 LLC,CA,San Bernardino,CISO,198,20,1500,0,0,34.545,-117.191944,1.2,0.4,96,14.07566,0,39767200,0.096,260000,0
58616,Westlands Solar PV Farm,CA,Fresno,CISO,180,36.138056,18000,0,2,36.138056,-120.075833,1.2,0.4,96,14.07566,0,39767200,0.096,260000,0
58621,Sol Orchard El Centro PV,CA,Imperial,IID,0,0,20000,0,2,32.803333,-115.546389,1.2,0.4,96,14.07566,0,39767200,0.096,260000,0
58625,Santa Rita Jail Hybrid,CA,Alameda,CISO,180,11,1500,0,0,37.719167,-121.886944,1.2,0.4,96,14.07566,0,39767200,0.096,260000,0
58626,Western Antelope Blue Sky Ranch A,CA,Los Angeles,CISO,90,34.681667,20000,0,2,34.681667,-118.324722,1.2,0.4,96,14.07566,0,39767200,0.096,260000,0
58627,Western Antelope Dry Ranch,CA,Los Angeles,CISO,90,34.688889,10000,2,2,34.688889,-118.320278,1.2,0.4,96,14.07566,0,39767200,0.096,260000,0
58632,Actus Lend Lease DMAFB,AZ,Pima,TEPC,180,0,3000,0,2,32.1825,-110.863333,1.2,0.4,96,14.07566,0,39767200,0.096,260000,0
58633,Monterey Regional Water Pollution Control Agency,CA,Monterey,CISO,195,26,1000,0,2,36.721111,-121.787778,1.2,0.4,96,14.07566,0,39767200,0.096,260000,0
58634,Lancaster Baptist Church,CA,Los Angeles,CISO,180,20,1000,0,2,34.695833,-118.058889,1.2,0.4,96,14.07566,0,39767200,0.096,260000,0
58636,Sacramento Fairbain Water Treatment Plant,CA,Sacramento,BANC,180,10,1000,0,2,38.554802,-121.416791,1.2,0.4,96,14.07566,0,39767200,0.096,260000,0
58642,Tulare 1 and 2,CA,Tulare,CISO,180,20,3000,0,0,36.2,-119.42,1.2,0.4,96,14.07566,0,39767200,0.096,260000,0
58644,Silver State Solar Power South,NV,Clark,CISO,0,0,260099.99999999997,2,2,35.63,-115.32,1.2,0.4,96,14.07566,0,39767200,0.096,260000,0
58646,Stateline Solar,CA,San Bernardino,CISO,180,25,299500,2,0,35.6,-115.4,1.2,0.4,96,14.07566,0,39767200,0.096,260000,0
58660,Utah Red Hills Renewable Energy Park,UT,Iron,PACE,0,0,80000,0,2,37.882778,-112.904167,1.2,0.4,96,14.07566,0,39767200,0.096,260000,0
58689,Blue Sky One,NM,Taos,PNM,0,0,1300,0,2,36.907778,-105.985278,1.2,0.4,96,14.07566,0,39767200,0.096,260000,0
58698,Mira Loma,CA,Riverside,CISO,180,9,3000,0,0,34.013056,-117.5375,1.2,0.4,96,14.07566,0,39767200,0.096,260000,0
58708,Phoenix Airport East Economy Lot,AZ,Maricopa,AZPS,0,0,1100,0,0,33.4345,-111.9842,1.2,0.4,96,14.07566,0,39767200,0.096,260000,0
58709,Phoenix Airport Rental Car Center,AZ,Maricopa,AZPS,90,5,1600,0,0,33.43042,-112.04484,1.2,0.4,96,14.07566,0,39767200,0.096,260000,0
58711,Lost Hills/Blackwell,CA,Kern,CISO,90,35.62,32000,2,2,35.62,-119.85,1.2,0.4,96,14.07566,0,39767200,0.096,260000,0
58713,North Star Solar,CA,Fresno,CISO,90,36.73,61600,2,2,36.73,-120.41,1.2,0.4,96,14.07566,0,39767200,0.096,260000,0
58718,Orion Solar I,CA,Kern,CISO,90,35.150694,12000,0,2,35.150694,-118.875,1.2,0.4,96,14.07566,0,39767200,0.096,260000,0
58721,Orion Solar II,CA,Kern,CISO,90,35.150694,8000,0,2,35.150694,-118.875278,1.2,0.4,96,14.07566,0,39767200,0.096,260000,0
58748,North Bay Solar 1,CA,Solano,CISO,90,38.300556,1000,0,2,38.300556,-121.966389,1.2,0.4,96,14.07566,0,39767200,0.096,260000,0
58750,Lancaster Dry Farm Ranch B,CA,Los Angeles,CISO,90,34.716944,5000,0,2,34.716944,-118.289444,1.2,0.4,96,14.07566,0,39767200,0.096,260000,0
58751,Rodeo Solar C2,CA,Los Angeles,CISO,193,25,1500,0,0,34.713333,-118.289444,1.2,0.4,96,14.07566,0,39767200,0.096,260000,0
58752,Rodeo Solar D2,CA,Los Angeles,CISO,193,25,1500,0,0,34.713333,-118.289444,1.2,0.4,96,14.07566,0,39767200,0.096,260000,0
58753,Summer Solar A2,CA,Los Angeles,CISO,193,25,1500,0,0,34.723056,-118.289722,1.2,0.4,96,14.07566,0,39767200,0.096,260000,0
58754,Summer Solar B2,CA,Los Angeles,CISO,193,25,1500,0,0,34.723056,-118.289722,1.2,0.4,96,14.07566,0,39767200,0.096,260000,0
58755,Summer Solar C2,CA,Los Angeles,CISO,193,25,1500,0,0,34.723056,-118.289722,1.2,0.4,96,14.07566,0,39767200,0.096,260000,0
58756,Summer Solar D2,CA,Los Angeles,CISO,193,25,1000,0,0,34.723056,-118.289722,1.2,0.4,96,14.07566,0,39767200,0.096,260000,0
58757,Summer North Solar,CA,Los Angeles,CISO,193,25,6500,0,0,34.723056,-118.289722,1.2,0.4,96,14.07566,0,39767200,0.096,260000,0
58761,Expressway Solar A,CA,San Bernardino,CISO,193,25,2000,0,0,34.582222,-117.341667,1.2,0.4,96,14.07566,0,39767200,0.096,260000,0
58762,Expressway Solar B,CA,San Bernardino,CISO,193,25,2000,0,0,34.583333,-117.340278,1.2,0.4,96,14.07566,0,39767200,0.096,260000,0
58763,Expressway Solar C2,CA,San Bernardino,CISO,193,25,1500,0,0,34.584444,-117.341389,1.2,0.4,96,14.07566,0,39767200,0.096,260000,0
58794,Storrie Lake Solar Project,NM,San Miguel,PNM,180,25,1500,0,0,35.656944,-105.183889,1.2,0.4,96,14.07566,0,39767200,0.096,260000,0
58814,Shasta Solar Farm,CA,Shasta,CISO,90,41.031389,3000,0,2,41.031389,-121.4225,1.2,0.4,96,14.07566,0,39767200,0.096,260000,0
58831,Redcrest Solar Farm,CA,Kern,CISO,90,35.321944,16600,2,2,35.321944,-118.812778,1.2,0.4,96,14.07566,0,39767200,0.096,260000,0
58832,Cogenra - TEP,AZ,Pima,TEPC,180,0,1000,0,2,32.101944,-110.813333,1.2,0.4,96,14.07566,0,39767200,0.096,260000,0
58833,Red Horse 2,AZ,Cochise,TEPC,90,32.286111,51000,0,2,32.286111,-110.088056,1.2,0.4,96,14.07566,0,39767200,0.096,260000,0
58842,"Gato Montes Solar, LLC",AZ,Pima,TEPC,180,20,5000,2,0,32.102778,-110.819722,1.2,0.4,96,14.07566,0,39767200,0.096,260000,0
58889,ASTI,CA,Sonoma,CISO,24,5,1000,0,0,38.761389,-122.975278,1.2,0.4,96,14.07566,0,39767200,0.096,260000,0
58890,Beringer,CA,Sonoma,CISO,26,5,1200,0,0,38.510833,-122.479722,1.2,0.4,96,14.07566,0,39767200,0.096,260000,0
58899,Prosperity Energy Storage Facility Hybrid,NM,Bernalillo,PNM,180,25,500,0,0,35.001944,-106.637222,1.2,0.4,96,14.07566,0,39767200,0.096,260000,0
58906,Valley Center 1,CA,San Diego,CISO,0,45,2500,0,2,33.234167,-117.001667,1.2,0.4,96,14.07566,0,39767200,0.096,260000,0
58907,Valley Center 2,CA,San Diego,CISO,0,45,5000,0,2,33.234167,-117.001667,1.2,0.4,96,14.07566,0,39767200,0.096,260000,0
58909,Ramona 1,CA,San Diego,CISO,0,45,2000,0,2,33.012222,-116.875,1.2,0.4,96,14.07566,0,39767200,0.096,260000,0
58911,Ramona 2,CA,San Diego,CISO,0,45,5000,0,2,33.012222,-116.875,1.2,0.4,96,14.07566,0,39767200,0.096,260000,0
58912,Santa Fe Springs Rooftop Solar BLDG M,CA,Los Angeles,CISO,180,10,1800,0,0,33.910833,-118.044444,1.2,0.4,96,14.07566,0,39767200,0.096,260000,0
58913,Santa Fe Springs Rooftop Solar BLDG H,CA,Los Angeles,CISO,180,10,1500,0,2,33.910833,-118.044444,1.2,0.4,96,14.07566,0,39767200,0.096,260000,0
58915,Copper Mountain Solar 3,NV,Clark,LDWP,180,16,255000,0,0,35.889419,-114.957912,1.2,0.4,96,14.07566,0,39767200,0.096,260000,0
58918,2081 Terzian Solar Project,CA,Fresno,CISO,180,36.67,1200,0,4,36.67,-119.415833,1.2,0.4,96,14.07566,0,39767200,0.096,260000,0
58919,2127 Harris Solar Project,CA,Butte,CISO,90,39.291667,1300,0,2,39.291667,-121.669722,1.2,0.4,96,14.07566,0,39767200,0.096,260000,0
58920,2097 Helton Solar Project,CA,Merced,CISO,90,37.352222,1500,0,2,37.352222,-120.506944,1.2,0.4,96,14.07566,0,39767200,0.096,260000,0
58949,Cloverdale Solar I,CA,Sonoma,CISO,180,25,1500,0,0,38.773056,-123.017778,1.2,0.4,96,14.07566,0,39767200,0.096,260000,0
58954,Intel Folsom Phase 2,CA,Sacramento,BANC,272,5,1000,0,2,38.643611,-121.163889,1.2,0.4,96,14.07566,0,39767200,0.096,260000,0
58961,Oregon University System OIT Klamath Falls,OR,Klamath,PACW,220,35,1700,0,0,42.254167,-121.785,1.2,0.4,96,14.07566,0,39767200,0.096,260000,0
58963,Las Virgenes Municipal Water District,CA,Los Angeles,CISO,117,0,1000,0,2,34.136111,-118.701944,1.2,0.4,96,14.07566,0,39767200,0.096,260000,0
58972,Fort Huachuca Solar PV Project,AZ,Cochise,TEPC,180,25,17700,2,0,31.555278,-110.35,1.2,0.4,96,14.07566,0,39767200,0.096,260000,0
58973,White River Solar 2,CA,Tulare,CISO,0,0,19800,0,2,35.874722,-119.046111,1.2,0.4,96,14.07566,0,39767200,0.096,260000,0
58975,Henrietta Solar Project,CA,Kings,CISO,90,36.218806,102000,0,2,36.218806,-119.805833,1.2,0.4,96,14.07566,0,39767200,0.096,260000,0
58983,RE Camelot LLC,CA,Kern,CISO,180,60,45000,0,2,35.026667,-118.185556,1.2,0.4,96,14.07566,0,39767200,0.096,260000,0
58984,"RE Adams East, LLC",CA,Fresno,CISO,180,45,19000,2,2,36.6175,-120.290833,1.2,0.4,96,14.07566,0,39767200,0.096,260000,0
58985,"RE Kansas Solar, LLC",CA,Kings,CISO,180,45,20000,2,2,36.247778,-119.833889,1.2,0.4,96,14.07566,0,39767200,0.096,260000,0
58986,"RE Old River One, LLC",CA,Kern,CISO,180,45,20000,2,2,35.223333,-119.088889,1.2,0.4,96,14.07566,0,39767200,0.096,260000,0
58990,"RE Columbia Two, LLC",CA,Kern,CISO,180,60,15000,0,2,35.026667,-118.185556,1.2,0.4,96,14.07566,0,39767200,0.096,260000,0
58991,"RE Kent South, LLC",CA,Kings,CISO,180,45,20000,2,2,36.226111,-119.905278,1.2,0.4,96,14.07566,0,39767200,0.096,260000,0
59008,Woodmere Solar Farm,CA,Kern,CISO,90,35.323056,15000,2,2,35.323056,-118.821389,1.2,0.4,96,14.07566,0,39767200,0.096,260000,0
59009,Hayworth Solar,CA,Kern,CISO,90,35.325278,27000,2,2,35.325278,-118.878611,1.2,0.4,96,14.07566,0,39767200,0.096,260000,0
59010,Macho Springs,NM,Luna,EPE,90,32.57,55000,2,2,32.57,-107.48,1.2,0.4,96,14.07566,0,39767200,0.096,260000,0
59020,Gila Bend Hybrid,AZ,Maricopa,AZPS,0,0,37400,0,2,32.940833,-112.881389,1.2,0.4,96,14.07566,0,39767200,0.096,260000,0
59044,Rio Rico Solar,AZ,Santa Cruz,TEPC,180,25,6000,0,0,31.5,-111.008056,1.2,0.4,96,14.07566,0,39767200,0.096,260000,0
59058,Vacaville,CA,Solano,CISO,90,30,1000,0,0,38.399444,-121.960278,1.2,0.4,96,14.07566,0,39767200,0.096,260000,0
59086,"Cottonwood Solar, LLC (Goose Lake)",CA,Kern,CISO,180,45,12000,2,2,35.593611,-119.58,1.2,0.4,96,14.07566,0,39767200,0.096,260000,0
59087,"Cottonwood Solar, LLC (City of Corcoran)",CA,Kings,CISO,180,45,12000,2,2,36.134444,-119.554444,1.2,0.4,96,14.07566,0,39767200,0.096,260000,0
59088,Calipatria Solar Farm,CA,Imperial,IID,90,33.165833,20000,2,2,33.165833,-115.532222,1.2,0.4,96,14.07566,0,39767200,0.096,260000,0
59094,Division 1,CA,Los Angeles,CISO,180,15,1500,0,0,34.708333,-118.130556,1.2,0.4,96,14.07566,0,39767200,0.096,260000,0
59095,Division 2,CA,Los Angeles,CISO,180,5,1000,0,0,34.708333,-118.130556,1.2,0.4,96,14.07566,0,39767200,0.096,260000,0
59096,Division 3,CA,Los Angeles,CISO,180,15,1000,0,0,34.708333,-118.130556,1.2,0.4,96,14.07566,0,39767200,0.096,260000,0
59098,Kettering Solar 1,CA,Los Angeles,CISO,180,5,1000,0,0,34.700278,-118.123611,1.2,0.4,96,14.07566,0,39767200,0.096,260000,0
59099,Kettering Solar 2,CA,Los Angeles,CISO,180,15,1000,0,0,34.700278,-118.123611,1.2,0.4,96,14.07566,0,39767200,0.096,260000,0
59122,Enerparc CA1 LLC,CA,San Benito,CISO,200,28,1500,0,0,36.831667,-121.404167,1.2,0.4,96,14.07566,0,39767200,0.096,260000,0
59129,CSD 2- Freedom High,CA,Contra Costa,CISO,182,15,900,0,0,37.969722,-121.719444,1.2,0.4,96,14.07566,0,39767200,0.096,260000,0
59130,CSD 2 - Heritage High,CA,Contra Costa,CISO,102,10,1300,0,0,37.921944,-121.755556,1.2,0.4,96,14.07566,0,39767200,0.096,260000,0
59131,Dartmouth Landfill,MA,Bristol,ISNE,180,25,1100,0,0,41.581111,-70.998056,1.2,0.4,96,14.07566,0,39767200,0.096,260000,0
59132,EAFB - North Base,CA,Kern,CISO,180,25,1000,0,2,34.9325,-117.907222,1.2,0.4,96,14.07566,0,39767200,0.096,260000,0
59133,EAFB - South Base,CA,Kern,CISO,180,25,1000,0,2,34.917222,-117.900278,1.2,0.4,96,14.07566,0,39767200,0.096,260000,0
59138,SDCCD - Miramar,CA,San Diego,CISO,180,7.5,1000,0,0,32.906111,-117.121389,1.2,0.4,96,14.07566,0,39767200,0.096,260000,0
59139,SDCWA - Twin Oaks,CA,San Diego,CISO,180,20,1000,0,0,33.21,-117.170556,1.2,0.4,96,14.07566,0,39767200,0.096,260000,0
59144,Brighton PV Solar Plant,CO,Adams,WACM,180,25,1800,0,0,39.9825,-104.940833,1.2,0.4,96,14.07566,0,39767200,0.096,260000,0
59150,RE Mustang LLC,CA,Kings,CISO,0,0,100000,0,2,36.221667,-119.903056,1.2,0.4,96,14.07566,0,39767200,0.096,260000,0
59167,Lancaster Solar 1,CA,Los Angeles,CISO,270,22,1500,0,0,34.715,-118.095,1.2,0.4,96,14.07566,0,39767200,0.096,260000,0
59168,Avalon Solar,AZ,Pima,TEPC,90,32.001389,29000,0,2,32.001389,-110.960556,1.2,0.4,96,14.07566,0,39767200,0.096,260000,0
59169,Lancaster Solar 2,CA,Los Angeles,CISO,270,22,1500,0,2,34.710556,-118.166111,1.2,0.4,96,14.07566,0,39767200,0.096,260000,0
59182,Hesperia,CA,San Bernardino,CISO,180,20,1500,0,0,34.435,-117.378056,1.2,0.4,96,14.07566,0,39767200,0.096,260000,0
59183,"CID Solar, LLC",CA,Kings,CISO,180,45,20000,2,2,36.138056,-119.564722,1.2,0.4,96,14.07566,0,39767200,0.096,260000,0
59198,Sterling PV 3,CO,Logan,PSCO,0,0,1600,0,2,40.6316,-103.194694,1.2,0.4,96,14.07566,0,39767200,0.096,260000,0
59199,Mesa PV1,CO,Mesa,PSCO,135,39.0672,1600,0,2,39.0672,-108.509139,1.2,0.4,96,14.07566,0,39767200,0.096,260000,0
59203,Farmersville,CA,Tulare,CISO,180,20,4500,0,0,36.19,-119.12,1.2,0.4,96,14.07566,0,39767200,0.096,260000,0
59219,Porterville 6 and 7,CA,Tulare,CISO,180,20,3000,0,0,36.05,-119.02,1.2,0.4,96,14.07566,0,39767200,0.096,260000,0
59237,Lone Valley Solar Park II LLC,CA,San Bernardino,CISO,90,50,20000,0,2,34.408333,-116.8625,1.2,0.4,96,14.07566,0,39767200,0.096,260000,0
59239,Eagle Springs Solar LLC,CO,Garfield,PSCO,180,16,1000,0,0,39.526111,-107.696111,1.2,0.4,96,14.07566,0,39767200,0.096,260000,0
59249,Rio Bravo Solar 1 LLC,CA,Kern,CISO,180,35.416111,20000,0,2,35.416111,-119.6825,1.2,0.4,96,14.07566,0,39767200,0.096,260000,0
59250,Rio Bravo Solar II LLC,CA,Kern,CISO,180,35.4225,20000,0,2,35.4225,-119.629167,1.2,0.4,96,14.07566,0,39767200,0.096,260000,0
59253,Wildwood Solar II,CA,Kern,CISO,180,35.63,15000,0,2,35.63,-119.573889,1.2,0.4,96,14.07566,0,39767200,0.096,260000,0
59262,Lancaster Little Rock,CA,Los Angeles,CISO,180,25,5000,2,0,34.599444,-117.932778,1.2,0.4,96,14.07566,0,39767200,0.096,260000,0
59265,Merced Solar LLC,CA,Merced,CISO,180,25,1500,0,2,37.267778,-120.484444,1.2,0.4,96,14.07566,0,39767200,0.096,260000,0
59267,Mission Solar LLC,CA,Merced,CISO,180,25,1500,0,2,37.267778,-120.4825,1.2,0.4,96,14.07566,0,39767200,0.096,260000,0
59268,Hollister Solar LLC,CA,San Benito,CISO,180,25,1500,0,2,36.8625,-121.428889,1.2,0.4,96,14.07566,0,39767200,0.096,260000,0
59269,Victor Mesa Linda B2,CA,San Bernardino,CISO,180,20,1500,0,0,34.512778,-117.387222,1.2,0.4,96,14.07566,0,39767200,0.096,260000,0
59270,Victor Mesa Linda C2,CA,San Bernardino,CISO,180,20,1500,0,0,34.511389,-117.387222,1.2,0.4,96,14.07566,0,39767200,0.096,260000,0
59271,Victor Mesa Linda D2,CA,San Bernardino,CISO,180,20,1500,0,0,34.509444,-117.387222,1.2,0.4,96,14.07566,0,39767200,0.096,260000,0
59272,Victor Mesa Linda E2,CA,San Bernardino,CISO,180,20,1500,0,0,34.508056,-117.387222,1.2,0.4,96,14.07566,0,39767200,0.096,260000,0
59273,SEPV Palmdale East,CA,Los Angeles,CISO,90,34.613056,10000,0,2,34.613056,-117.938889,1.2,0.4,96,14.07566,0,39767200,0.096,260000,0
59283,California PV Energy at ISD WWTP,CA,Contra Costa,CISO,168,30,1000,0,0,38.001111,-121.703889,1.2,0.4,96,14.07566,0,39767200,0.096,260000,0
59300,Hanford 1 and 2,CA,Kings,CISO,180,20,3000,0,0,36.306667,-119.629167,1.2,0.4,96,14.07566,0,39767200,0.096,260000,0
59308,Beacon Solar Plant Site 5,CA,Kern,LDWP,180,60,37800,0,2,35.248889,-118.034444,1.2,0.4,96,14.07566,0,39767200,0.096,260000,0
59309,Beacon Solar Plant Site 2,CA,Kern,LDWP,180,60,47300,0,2,35.265833,-117.999167,1.2,0.4,96,14.07566,0,39767200,0.096,260000,0
59315,Hecate Energy Beacon Solar 1,CA,Kern,LDWP,90,35.269444,56000,0,2,35.269444,-118.014444,1.2,0.4,96,14.07566,0,39767200,0.096,260000,0
59316,Hecate Energy Beacon Solar 3,CA,Kern,LDWP,90,35.253056,56000,0,2,35.253056,-118.014722,1.2,0.4,96,14.07566,0,39767200,0.096,260000,0
59317,Hecate Energy Beacon Solar 4,CA,Kern,LDWP,90,35.253611,50000,0,2,35.253611,-118.026944,1.2,0.4,96,14.07566,0,39767200,0.096,260000,0
59322,Pumpjack Solar I,CA,Kern,CISO,180,35.305556,20000,0,2,35.305556,-119.6225,1.2,0.4,96,14.07566,0,39767200,0.096,260000,0
59323,Sacramento (SMUD),CA,Sacramento,BANC,123,10,1500,0,0,38.587222,-121.457778,1.2,0.4,96,14.07566,0,39767200,0.096,260000,0
59334,"Catalina Solar 2, LLC",CA,Kern,CISO,180,45,18000,0,2,34.812222,-118.352778,1.2,0.4,96,14.07566,0,39767200,0.096,260000,0
59339,Quinto Solar PV Project,CA,Merced,CISO,0,0,108000,0,2,37.130278,-121.052222,1.2,0.4,96,14.07566,0,39767200,0.096,260000,0
59359,SCE-Snowline-Duncan Road (North),CA,San Bernardino,CISO,0,0,1500,0,2,34.473889,-117.562778,1.2,0.4,96,14.07566,0,39767200,0.096,260000,0
59360,SCE-Snowline-Duncan Road (South),CA,San Bernardino,CISO,0,0,1000,0,2,34.471389,-117.562222,1.2,0.4,96,14.07566,0,39767200,0.096,260000,0
59374,Old Mill Solar,OR,Klamath,PACW,180,42.203333,5000,0,2,42.203333,-121.046389,1.2,0.4,96,14.07566,0,39767200,0.096,260000,0
59380,"Wildwood Solar I, LLC",CA,Kern,CISO,180,35.615833,19500,0,2,35.615833,-119.578333,1.2,0.4,96,14.07566,0,39767200,0.096,260000,0
59386,"Enterprise Solar, LLC",UT,Iron,PACE,180,60,80000,0,2,37.641111,-113.6125,1.2,0.4,96,14.07566,0,39767200,0.096,260000,0
59387,"Escalante Solar I, LLC",UT,Beaver,PACE,180,60,80000,0,2,38.524167,-113.033889,1.2,0.4,96,14.07566,0,39767200,0.096,260000,0
59388,"Escalante Solar II, LLC",UT,Beaver,PACE,180,60,80000,0,2,38.500833,-113.03,1.2,0.4,96,14.07566,0,39767200,0.096,260000,0
59389,"Escalante Solar III, LLC",UT,Beaver,PACE,180,60,80000,0,2,38.497778,-112.986944,1.2,0.4,96,14.07566,0,39767200,0.096,260000,0
59393,Eubank Landfill Solar Array,NM,Bernalillo,PNM,90,30,2000,0,0,35.049167,-106.53,1.2,0.4,96,14.07566,0,39767200,0.096,260000,0
59395,City of Tulare Water Facility,CA,Tulare,CISO,180,40,1000,0,0,36.185,-119.375,1.2,0.4,96,14.07566,0,39767200,0.096,260000,0
59404,Searchlight Solar,NV,Clark,NEVP,90,35.479722,17500,0,2,35.479722,-114.936111,1.2,0.4,96,14.07566,0,39767200,0.096,260000,0
59405,Diamond Valley Solar Project,CA,Riverside,CISO,180,25,1300,0,2,33.713056,-117.0725,1.2,0.4,96,14.07566,0,39767200,0.096,260000,0
59407,Newman Solar,TX,El Paso,EPE,90,31.978333,10500,0,2,31.978333,-106.4275,1.2,0.4,96,14.07566,0,39767200,0.096,260000,0
59408,Shafter Solar LLC,CA,Kern,CISO,0,0,20000,0,2,35.393333,-119.127778,1.2,0.4,96,14.07566,0,39767200,0.096,260000,0
59409,"Madelyn Solar, LLC",CA,San Bernardino,CISO,45,0,1000,0,2,34.768333,-117.323611,1.2,0.4,96,14.07566,0,39767200,0.096,260000,0
59410,"Rudy Solar, LLC",CA,San Bernardino,CISO,45,0,1500,0,2,34.766389,-117.323611,1.2,0.4,96,14.07566,0,39767200,0.096,260000,0
59411,"Mitchell Solar, LLC",CA,San Bernardino,CISO,45,0,1500,0,2,34.765,-117.323611,1.2,0.4,96,14.07566,0,39767200,0.096,260000,0
59412,Algonquin SKIC20 Solar LLC,CA,Kern,CISO,180,35.126111,20000,0,2,35.126111,-119.243333,1.2,0.4,96,14.07566,0,39767200,0.096,260000,0
59413,Corcoran Solar 2,CA,Kings,CISO,0,0,19800,0,2,36.141944,-119.581667,1.2,0.4,96,14.07566,0,39767200,0.096,260000,0
59414,Atwell Island West Solar,CA,Tulare,CISO,0,0,20000,0,2,35.815,-119.459722,1.2,0.4,96,14.07566,0,39767200,0.096,260000,0
59416,Anaheim Solar Energy Plant,CA,Orange,CISO,180,5,2100,0,0,33.8025,-117.919722,1.2,0.4,96,14.07566,0,39767200,0.096,260000,0
59421,SCE-Snowline-White Road (South),CA,San Bernardino,CISO,0,0,1500,0,2,34.413056,-117.470833,1.2,0.4,96,14.07566,0,39767200,0.096,260000,0
59422,SCE-Snowline-White Road (North),CA,San Bernardino,CISO,0,0,1500,0,2,34.4175,-117.469722,1.2,0.4,96,14.07566,0,39767200,0.096,260000,0
59423,SCE-Snowline-White Rd (Central),CA,San Bernardino,CISO,0,0,1500,0,2,34.415278,-117.47,1.2,0.4,96,14.07566,0,39767200,0.096,260000,0
59430,Solar Las Vegas MB-1,NV,Clark,NEVP,180,10,4900,0,0,36.088611,-115.177778,1.2,0.4,96,14.07566,0,39767200,0.096,260000,0
59431,Sierra Solar Greenworks,CA,Los Angeles,CISO,193,25,20000,2,0,34.703611,-118.334167,1.2,0.4,96,14.07566,0,39767200,0.096,260000,0
59440,"Adelanto Solar II, LLC",CA,San Bernardino,CISO,0,0,7000,0,2,34.557222,-117.3775,1.2,0.4,96,14.07566,0,39767200,0.096,260000,0
59441,"Adelanto Solar, LLC",CA,San Bernardino,CISO,0,0,20000,0,2,34.557222,-117.3775,1.2,0.4,96,14.07566,0,39767200,0.096,260000,0
59443,"TA-Acacia, LLC",CA,Los Angeles,CISO,180,60,20000,0,2,34.689167,-118.324722,1.2,0.4,96,14.07566,0,39767200,0.096,260000,0
59444,Desert Star Hybrid,AZ,Maricopa,AZPS,0,0,10000,0,2,33.145,-112.66,1.2,0.4,96,14.07566,0,39767200,0.096,260000,0
59454,Valencia Solar,AZ,Pima,TEPC,0,0,10000,0,2,32.145833,-110.866944,1.2,0.4,96,14.07566,0,39767200,0.096,260000,0
59455,Tech Park Solar,AZ,Pima,TEPC,0,0,5000,0,2,32.097884,-110.815696,1.2,0.4,96,14.07566,0,39767200,0.096,260000,0
59462,Denver Intl Airport IV Solar,CO,Denver,SWPP,180,25,1500,0,0,39.900556,-104.669444,1.2,0.4,96,14.07566,0,39767200,0.096,260000,0
59469,Alamo Solar,CA,San Bernardino,CISO,180,45,20000,0,2,34.682222,-117.3475,1.2,0.4,96,14.07566,0,39767200,0.096,260000,0
59472,Ft. Churchill PV,NV,Lyon,NEVP,90,39.128056,19900,0,2,39.128056,-119.14,1.2,0.4,96,14.07566,0,39767200,0.096,260000,0
59473,Apple Campus 2 PV,CA,Santa Clara,CISO,210,5,14400,0,0,37.33,-122.01,1.2,0.4,96,14.07566,0,39767200,0.096,260000,0
59522,Giffen Solar Park,CA,Fresno,CISO,180,36.544722,20000,0,2,36.544722,-120.316111,1.2,0.4,96,14.07566,0,39767200,0.096,260000,0
59523,Five Points Solar Park,CA,Fresno,CISO,180,36.386944,60000,0,2,36.386944,-120.236667,1.2,0.4,96,14.07566,0,39767200,0.096,260000,0
59524,Blackwell Solar Park,CA,Kern,CISO,0,35.612,20000,0,2,35.612,-119.845,1.2,0.4,96,14.07566,0,39767200,0.096,260000,0
59525,Wright Solar Park,CA,Merced,CISO,180,37.009444,200000,0,2,37.009444,-120.957222,1.2,0.4,96,14.07566,0,39767200,0.096,260000,0
59528,Solar Oasis LLC,CA,Los Angeles,CISO,90,45,20000,2,2,34.648889,-118.076667,1.2,0.4,96,14.07566,0,39767200,0.096,260000,0
59531,Borden Solar Farm,CA,Madera,CISO,180,36.941111,50000,0,2,36.941111,-119.96,1.2,0.4,96,14.07566,0,39767200,0.096,260000,0
59532,Springbok Solar Farm 1,CA,Kern,LDWP,90,35.249167,105000,0,2,35.249167,-117.955278,1.2,0.4,96,14.07566,0,39767200,0.096,260000,0
59536,Coronus Adelanto West 1,CA,San Bernardino,CISO,180,20,1500,0,0,34.548056,-117.464444,1.2,0.4,96,14.07566,0,39767200,0.096,260000,0
59537,Coronus Adelanto West 2,CA,San Bernardino,CISO,180,20,1500,0,0,34.548056,-117.464444,1.2,0.4,96,14.07566,0,39767200,0.096,260000,0
59539,Park Meridian #1,CA,Riverside,CISO,180,11,1500,0,0,33.896111,-117.283611,1.2,0.4,96,14.07566,0,39767200,0.096,260000,0
59540,Rancho Cucamonga Dist #1,CA,San Bernardino,CISO,180,5,1800,0,0,34.100278,-117.552778,1.2,0.4,96,14.07566,0,39767200,0.096,260000,0
59541,Terra Francesco,CA,San Bernardino,CISO,180,11,1500,0,0,34.039722,-117.606667,1.2,0.4,96,14.07566,0,39767200,0.096,260000,0
59550,Putah Creek Solar Farm,CA,Yolo,CISO,0,0,2000,0,2,38.521111,-121.993889,1.2,0.4,96,14.07566,0,39767200,0.096,260000,0
59555,Vega Solar,CA,Merced,CISO,90,36.925833,20000,0,2,36.925833,-120.82,1.2,0.4,96,14.07566,0,39767200,0.096,260000,0
59558,Sandoval Solar Energy Center,NM,Sandoval,PNM,180,25,6100,2,2,35.283611,-106.812778,1.2,0.4,96,14.07566,0,39767200,0.096,260000,0
59560,Springer Solar 1,NM,Colfax,PNM,90.9,1.5,1000,0,2,36.398056,-104.594167,1.2,0.4,96,14.07566,0,39767200,0.096,260000,0
59597,"Colton Solar One, LLC",CA,San Bernardino,CISO,180,1,2500,0,0,34.093333,-117.319444,1.2,0.4,96,14.07566,0,39767200,0.096,260000,0
59598,"Colton Solar Two, LLC",CA,San Bernardino,CISO,90,34.042222,1000,0,2,34.042222,-117.361667,1.2,0.4,96,14.07566,0,39767200,0.096,260000,0
59599,Tropico Solar PV Plant,CA,Tulare,CISO,90,35.831944,14000,0,2,35.831944,-119.056111,1.2,0.4,96,14.07566,0,39767200,0.096,260000,0
59600,Nicolis Solar PV Plant,CA,Tulare,CISO,90,35.835833,20000,0,2,35.835833,-119.056111,1.2,0.4,96,14.07566,0,39767200,0.096,260000,0
59607,"Maricopa West Solar PV, LLC",CA,Kern,CISO,180,45,20000,0,2,35.115278000000004,-119.317778,1.2,0.4,96,14.07566,0,39767200,0.096,260000,0
59610,"AP North Lake I, LP",CA,Riverside,CISO,180,0,20000,0,2,33.74,-117.010556,1.2,0.4,96,14.07566,0,39767200,0.096,260000,0
59618,Meadow Lake Solar Energy Center,NM,Valencia,PNM,180,25,9100,2,2,34.81,-106.52,1.2,0.4,96,14.07566,0,39767200,0.096,260000,0
59619,Cibola,NM,Cibola,PNM,180,25,7600,2,2,35.20115,-107.245156,1.2,0.4,96,14.07566,0,39767200,0.096,260000,0
59620,South Milford Solar Plant,UT,Beaver,PACE,180,0,2900,0,2,38.311111,-113.053611,1.2,0.4,96,14.07566,0,39767200,0.096,260000,0
59633,Kettleman Solar -Centaurus,CA,Kings,CISO,180,36.050833,20000,0,2,36.050833,-119.9475,1.2,0.4,96,14.07566,0,39767200,0.096,260000,0
59634,Sandstone Solar,AZ,Pinal,SRP,90,33.035556,45000,2,2,33.035556,-111.430278,1.2,0.4,96,14.07566,0,39767200,0.096,260000,0
59638,Coronal Lost Hills,CA,Kern,CISO,90,35.726667,20000,0,2,35.726667,-119.905833,1.2,0.4,96,14.07566,0,39767200,0.096,260000,0
59651,"Forever 21 Retail, Inc.",CA,Los Angeles,LDWP,190,30,1600,0,0,34.071389,-118.196111,1.2,0.4,96,14.07566,0,39767200,0.096,260000,0
59652,Nordhoff Place,CA,Los Angeles,LDWP,190,30,1200,0,0,34.236667,-118.565833,1.2,0.4,96,14.07566,0,39767200,0.096,260000,0
59653,City of Truth or Consequences PV,NM,Sierra,PNM,0,0,1900,0,2,33.121111,-107.287778,1.2,0.4,96,14.07566,0,39767200,0.096,260000,0
59656,Comanche Solar,CO,Pueblo,PSCO,180,38.205278,120000,0,2,38.205278,-104.566667,1.2,0.4,96,14.07566,0,39767200,0.096,260000,0
59657,"Imperial Valley Solar Co (IVSC) 2, LLC",CA,Imperial,IID,180,25,20000,0,0,33.252222,-115.4975,1.2,0.4,96,14.07566,0,39767200,0.096,260000,0
59687,Sun Harvest Solar NDP1,CA,Merced,CISO,0,0,1500,0,2,37.05758,-120.653625,1.2,0.4,96,14.07566,0,39767200,0.096,260000,0
59695,"Mt. Home Solar 1, LLC",ID,Elmore,IPCO,180,60,20000,0,2,43.129,-115.752,1.2,0.4,96,14.07566,0,39767200,0.096,260000,0
59702,"Pavant Solar, LLC",UT,Millard,PACE,180,45,50000,0,2,38.960519,-112.36327,1.2,0.4,96,14.07566,0,39767200,0.096,260000,0
59703,"Cottonwood Solar, LLC Cottonwood Carport",CA,Marin,CISO,180,5,1000,0,0,38.129759,-122.568158,1.2,0.4,96,14.07566,0,39767200,0.096,260000,0
59722,Seville 1,CA,Imperial,IID,180,33.1125,20000,2,2,33.1125,-116.0139,1.2,0.4,96,14.07566,0,39767200,0.096,260000,0
59723,Seville 2,CA,Imperial,IID,180,33.1101,30000,2,2,33.1101,-116.0059,1.2,0.4,96,14.07566,0,39767200,0.096,260000,0
59730,SEPV 18,CA,Los Angeles,CISO,90,34.613602,2000,0,2,34.613602,-117.93439,1.2,0.4,96,14.07566,0,39767200,0.096,260000,0
59737,Aspiration G,CA,Fresno,CISO,90,36.552186,9000,0,2,36.552186,-120.352481,1.2,0.4,96,14.07566,0,39767200,0.096,260000,0
59738,Citizen B,CA,Fresno,CISO,180,25,5000,0,0,36.723806,-120.432139,1.2,0.4,96,14.07566,0,39767200,0.096,260000,0
59739,Lancaster WAD B,CA,Los Angeles,CISO,90,34.780192,3000,0,2,34.780192,-118.19333,1.2,0.4,96,14.07566,0,39767200,0.096,260000,0
59740,SEPV Mojave West,CA,Kern,CISO,90,35.022903,20000,0,2,35.022903,-118.282694,1.2,0.4,96,14.07566,0,39767200,0.096,260000,0
59742,Sunnyside Ranch Community Solar Array,CO,Garfield,PSCO,180,35,1500,0,0,39.415027,-107.157188,1.2,0.4,96,14.07566,0,39767200,0.096,260000,0
59746,DSH (CA) - Coalinga State Hospital,CA,Fresno,CISO,0,0,2000,0,2,36.13726,-120.218453,1.2,0.4,96,14.07566,0,39767200,0.096,260000,0
59747,River Mountains Solar,NV,Clark,NEVP,0,0,14400,0,2,36.031616,-114.929399,1.2,0.4,96,14.07566,0,39767200,0.096,260000,0
59748,CDCR (CA) - Pleasant Valley State Prison,CA,Fresno,CISO,0,0,1200,0,2,36.137219,-120.224445,1.2,0.4,96,14.07566,0,39767200,0.096,260000,0
59779,Davis Monthan AFB (AZ) West Airfield,AZ,Pima,TEPC,0,0,12600,0,2,32.17356,-110.899734,1.2,0.4,96,14.07566,0,39767200,0.096,260000,0
59786,Fiddler's Canyon #2,UT,Iron,PACE,180,0,3000,0,2,37.794678,-113.283666,1.2,0.4,96,14.07566,0,39767200,0.096,260000,0
59787,Fiddler's Canyon #1,UT,Iron,PACE,180,0,3000,0,2,37.750268,-113.253724,1.2,0.4,96,14.07566,0,39767200,0.096,260000,0
59790,Oregon University System Rabbit Field,OR,Benton,PACW,180,20,1200,0,0,44.573484,-123.31695,1.2,0.4,96,14.07566,0,39767200,0.096,260000,0
59798,Colon PV,CA,Los Angeles,LDWP,190,30,1300,0,0,33.792694,-118.252407,1.2,0.4,96,14.07566,0,39767200,0.096,260000,0
59807,Airport 1 Solar (DIA),CO,Denver,SWPP,180,22,1500,0,0,39.899444,-104.675338,1.2,0.4,96,14.07566,0,39767200,0.096,260000,0
59814,"Copper Mountain Solar 4, LLC",NV,Clark,CISO,0,52,93600,0,2,35.78222,-114.975375,1.2,0.4,96,14.07566,0,39767200,0.096,260000,0
59817,Tooele Army Depot(CSG),UT,Tooele,PACE,180,40.50303,1500,0,0,40.50303,-112.37059000000001,1.2,0.4,96,14.07566,0,39767200,0.096,260000,0
59819,Mohave Electric at Fort Mohave,AZ,Mohave,WALC,180,22,4400,0,0,34.9843,-114.5565,1.2,0.4,96,14.07566,0,39767200,0.096,260000,0
59826,Sunshine Valley Solar,NV,Nye,CISO,90,36.518,103500,2,2,36.518,-116.497,1.2,0.4,96,14.07566,0,39767200,0.096,260000,0
59827,"Playa Solar 1, LLC",NV,Clark,NEVP,0,0,79000,2,2,36.408,-114.908,1.2,0.4,96,14.07566,0,39767200,0.096,260000,0
59840,Springbok Solar Farm 2,CA,Kern,LDWP,90,35.250031,155000,0,2,35.250031,-117.976847,1.2,0.4,96,14.07566,0,39767200,0.096,260000,0
59848,Pikes Peak Solar Garden 1 LLC CSG,CO,El Paso,WACM,0,38.7745,2000,0,2,38.7745,-104.7458,1.2,0.4,96,14.07566,0,39767200,0.096,260000,0
59849,Adams Community Solar Garden LLC,CO,Adams,PSCO,0,0,1200,0,2,39.7876,-104.5859,1.2,0.4,96,14.07566,0,39767200,0.096,260000,0
59850,Adams Community Solar Garden III LLC,CO,Adams,PSCO,0,0,1200,0,2,39.7867,-104.5877,1.2,0.4,96,14.07566,0,39767200,0.096,260000,0
59868,Kingbird A Solar LLC,CA,Kern,CISO,180,34.819,20000,2,2,34.819,-118.432,1.2,0.4,96,14.07566,0,39767200,0.096,260000,0
59870,"Little Bear Solar 1, LLC",CA,Fresno,CISO,180,36.716,40000,2,2,36.716,-120.415,1.2,0.4,96,14.07566,0,39767200,0.096,260000,0
59872,UC Davis South Campus,CA,Yolo,CISO,180,38.55,13000,0,2,38.55,-121.75,1.2,0.4,96,14.07566,0,39767200,0.096,260000,0
59878,Windhub Solar A LLC,CA,Kern,CISO,90,35.0199,20000,2,2,35.0199,-118.2879,1.2,0.4,96,14.07566,0,39767200,0.096,260000,0
59879,North Rosamond Solar LLC,CA,Kern,CISO,180,34.862,151100,2,2,34.862,-118.38,1.2,0.4,96,14.07566,0,39767200,0.096,260000,0
59900,Corcoran Solar 3,CA,Kings,CISO,0,0,20000,0,2,36.15042,-119.58542,1.2,0.4,96,14.07566,0,39767200,0.096,260000,0
59915,Oro Loma,CA,Fresno,CISO,0,0,20000,0,2,36.876847,-120.667608,1.2,0.4,96,14.07566,0,39767200,0.096,260000,0
59916,SunE- E Philadelphia Ontario,CA,San Bernardino,CISO,180,12,1000,0,0,34.03527,-117.5341,1.2,0.4,96,14.07566,0,39767200,0.096,260000,0
59919,Nellis Solar PV II,NV,Clark,NEVP,0,0,15000,0,2,36.206672,-115.047703,1.2,0.4,96,14.07566,0,39767200,0.096,260000,0
59932,Fiddler's Canyon 3,UT,Iron,PACE,180,0,3000,0,2,37.731338,-113.216634,1.2,0.4,96,14.07566,0,39767200,0.096,260000,0
59939,RE Tranquillity,CA,Fresno,CISO,90,36.581365,205300,0,2,36.581365,-120.40447,1.2,0.4,96,14.07566,0,39767200,0.096,260000,0
59940,"Great Valley Solar Portfolio Holdings, LLC",CA,Fresno,CISO,0,36.581182,202500,0,2,36.581182,-120.37957,1.2,0.4,96,14.07566,0,39767200,0.096,260000,0
59941,"Iron Springs Solar, LLC",UT,Iron,PACE,180,60,80000,0,2,37.7212,-113.1516,1.2,0.4,96,14.07566,0,39767200,0.096,260000,0
59942,Morgan Lancaster 1,CA,Los Angeles,CISO,180,34.6608,1500,0,4,34.6608,-118.0836,1.2,0.4,96,14.07566,0,39767200,0.096,260000,0
59945,"Granite Mountain Solar West, LLC",UT,Iron,PACE,180,60,50400,0,2,37.7989,-113.322,1.2,0.4,96,14.07566,0,39767200,0.096,260000,0
59946,"Granite Mountain Solar East, LLC",UT,Iron,PACE,180,60,80000,0,2,37.77509,-113.226403,1.2,0.4,96,14.07566,0,39767200,0.096,260000,0
59948,Bakersfield 111,CA,Kern,PACW,180,0,1400,0,2,35.317551,-118.989894,1.2,0.4,96,14.07566,0,39767200,0.096,260000,0
59958,Milford 2,UT,Beaver,PACE,180,0,3000,0,2,38.388243,-112.990812,1.2,0.4,96,14.07566,0,39767200,0.096,260000,0
59961,Western Antelope Blue Sky B,CA,Los Angeles,CISO,90,34.73206,20000,0,2,34.73206,-118.313573,1.2,0.4,96,14.07566,0,39767200,0.096,260000,0
59962,North Lancaster Ranch,CA,Los Angeles,CISO,180,25,20000,0,0,34.719538,-118.31301,1.2,0.4,96,14.07566,0,39767200,0.096,260000,0
59963,Central Antelope Dry Ranch C,CA,Los Angeles,CISO,180,25,20000,0,0,34.720499,-118.30046,1.2,0.4,96,14.07566,0,39767200,0.096,260000,0
59964,Elevation Solar C,CA,Los Angeles,CISO,90,34.730263,40000,0,2,34.730263,-118.30425,1.2,0.4,96,14.07566,0,39767200,0.096,260000,0
59976,RE Astoria,CA,Kern,CISO,0,0,100000,0,2,34.844226,-118.458466,1.2,0.4,96,14.07566,0,39767200,0.096,260000,0
59977,RE Astoria 2,CA,Kern,CISO,0,0,75000,0,2,34.836649,-118.480204,1.2,0.4,96,14.07566,0,39767200,0.096,260000,0
59978,"Enerparc CA2, LLC",CA,Glenn,PACW,0,0,1500,0,2,39.69898,-122.175583,1.2,0.4,96,14.07566,0,39767200,0.096,260000,0
59979,"Columbia Solar Energy, LLC",CA,Contra Costa,CISO,203,20,19200,0,0,38.019671,-121.86506,1.2,0.4,96,14.07566,0,39767200,0.096,260000,0
60007,Morelos del Sol,CA,Kern,CISO,90,35.731362,15000,2,2,35.731362,-119.818712,1.2,0.4,96,14.07566,0,39767200,0.096,260000,0
60008,Hooper Solar,CO,Alamosa,PSCO,0,0,52000,0,2,37.691863,-105.990812,1.2,0.4,96,14.07566,0,39767200,0.096,260000,0
60009,Murphy Flat Solar,ID,Owyhee,IPCO,180,60,20000,0,2,43.213,-116.439,1.2,0.4,96,14.07566,0,39767200,0.096,260000,0
60010,Orchard Ranch Solar,ID,Ada,IPCO,180,60,20000,0,2,43.467,-116.285,1.2,0.4,96,14.07566,0,39767200,0.096,260000,0
60011,American Falls Solar,ID,Power,IPCO,180,60,20000,0,2,42.824,-112.752,1.2,0.4,96,14.07566,0,39767200,0.096,260000,0
60012,American Falls Solar II,ID,Power,IPCO,180,60,20000,0,2,42.824,-112.752,1.2,0.4,96,14.07566,0,39767200,0.096,260000,0
60023,SR Jenkins Ft Lupton,CO,Weld,PSCO,180,45,13000,2,2,40.081444,-104.746661,1.2,0.4,96,14.07566,0,39767200,0.096,260000,0
60026,Little Rock Pham Solar,CA,Los Angeles,LDWP,180,15,3000,2,2,34.600231,-117.94751,1.2,0.4,96,14.07566,0,39767200,0.096,260000,0
60027,Adera Solar,CA,Madera,CISO,180,25,20000,0,0,37.120586,-120.32488,1.2,0.4,96,14.07566,0,39767200,0.096,260000,0
60032,SunE Rochester,CA,San Bernardino,CISO,180,11,1000,0,0,34.097728,-117.544529,1.2,0.4,96,14.07566,0,39767200,0.096,260000,0
60033,"CA Flats Solar 130, LLC",CA,San Luis Obispo,CISO,180,35.615573,130000,2,2,35.615573,-120.404352,1.2,0.4,96,14.07566,0,39767200,0.096,260000,0
60034,"CA Flats Solar 150, LLC",CA,San Luis Obispo,CISO,180,35.615573,150000,2,2,35.615573,-120.404352,1.2,0.4,96,14.07566,0,39767200,0.096,260000,0
60035,Tequesquite Landfill Solar PV Project,CA,Riverside,CISO,180,7.5,7300,0,2,33.97819,-117.38514,1.2,0.4,96,14.07566,0,39767200,0.096,260000,0
60039,Frontier Solar LLC,CA,Stanislaus,CISO,180,37.379919,20000,0,2,37.379919,-121.130661,1.2,0.4,96,14.07566,0,39767200,0.096,260000,0
60043,"Cuyama Solar, LLC",CA,Santa Barbara,CISO,90,34.901,40000,0,2,34.901,-119.596,1.2,0.4,96,14.07566,0,39767200,0.096,260000,0
60057,"Steel Bridge Solar, LLC",OR,Polk,PGE,182,25,2300,0,0,45.068,-123.47,1.2,0.4,96,14.07566,0,39767200,0.096,260000,0
60060,Lindberg FIeld Solar,CA,San Diego,CISO,185,10,3200,0,0,32.729238,-117.207718,1.2,0.4,96,14.07566,0,39767200,0.096,260000,0
60062,Avalon Solar II,AZ,Pima,TEPC,180,32.000854,16000,0,2,32.000854,-110.958427,1.2,0.4,96,14.07566,0,39767200,0.096,260000,0
60068,Grand View Solar Two,ID,Elmore,IPCO,180,42.989614,80000,0,2,42.989614,-116.093431,1.2,0.4,96,14.07566,0,39767200,0.096,260000,0
60077,CED Avenal,CA,Kings,CISO,0,0,15800,0,2,35.996324,-120.15146,1.2,0.4,96,14.07566,0,39767200,0.096,260000,0
60078,CED Ducor 1,CA,Tulare,CISO,0,0,20000,0,2,35.856278,-119.068414,1.2,0.4,96,14.07566,0,39767200,0.096,260000,0
60079,CED Ducor 2,CA,Tulare,CISO,0,0,20000,0,2,35.844167,-119.068069,1.2,0.4,96,14.07566,0,39767200,0.096,260000,0
60080,CED Ducor 3,CA,Tulare,CISO,0,0,15000,0,2,35.845378,-119.056992,1.2,0.4,96,14.07566,0,39767200,0.096,260000,0
60081,CED Ducor 4,CA,Tulare,CISO,0,0,20000,0,2,35.850403,-119.026992,1.2,0.4,96,14.07566,0,39767200,0.096,260000,0
60083,Fresno Solar,CA,Fresno,CISO,90,36.616846,3000,0,2,36.616846,-120.105144,1.2,0.4,96,14.07566,0,39767200,0.096,260000,0
60085,AVS Lancaster 1,CA,Los Angeles,CISO,180,20,3700,0,0,34.748894,-117.973571,1.2,0.4,96,14.07566,0,39767200,0.096,260000,0
60086,US-TOPCO (Soccer Center),CA,Los Angeles,CISO,180,20,3000,0,0,34.66072,-118.081152,1.2,0.4,96,14.07566,0,39767200,0.096,260000,0
60091,"Kingbird B Solar, LLC",CA,Kern,CISO,180,34.824206,20000,2,2,34.824206,-118.438547,1.2,0.4,96,14.07566,0,39767200,0.096,260000,0
60092,"Blythe Solar II, LLC",CA,Riverside,CISO,0,0,131200,0,2,33.68,-114.73,1.2,0.4,96,14.07566,0,39767200,0.096,260000,0
60093,"Blythe Solar 110, LLC",CA,Riverside,CISO,0,0,109800,0,2,33.68,-114.742,1.2,0.4,96,14.07566,0,39767200,0.096,260000,0
60094,"Blythe Solar III, LLC Hybrid",CA,Riverside,CISO,180,33.656,136800,0,2,33.656,-114.742,1.2,0.4,96,14.07566,0,39767200,0.096,260000,0
60095,"Blythe Solar IV, LLC",CA,Riverside,CISO,180,33.682,137400,0,2,33.682,-114.768,1.2,0.4,96,14.07566,0,39767200,0.096,260000,0
60112,Oregon Convention Center,OR,Multnomah,PACW,180,2,1400,0,0,45.528457,-122.66317,1.2,0.4,96,14.07566,0,39767200,0.096,260000,0
60142,Lemoore 1,CA,Kings,CISO,90,36.257938,1500,0,2,36.257938,-119.798139,1.2,0.4,96,14.07566,0,39767200,0.096,260000,0
60151,Building F,CA,Los Angeles,CISO,180,10,1300,0,0,33.914356,-118.050189,1.2,0.4,96,14.07566,0,39767200,0.096,260000,0
60153,Building G,CA,Los Angeles,CISO,180,10,1200,0,0,33.912917,-118.050561,1.2,0.4,96,14.07566,0,39767200,0.096,260000,0
60154,Buidling L,CA,Los Angeles,CISO,180,10,1000,0,0,33.912917,-118.041944,1.2,0.4,96,14.07566,0,39767200,0.096,260000,0
60182,Dulles,CA,Riverside,CISO,180,10,2000,0,0,34.030119,-117.517753,1.2,0.4,96,14.07566,0,39767200,0.096,260000,0
60183,Freeway Springs,CA,Los Angeles,CISO,180,10,2000,0,0,33.892614,-118.037564,1.2,0.4,96,14.07566,0,39767200,0.096,260000,0
60185,Solverde 1,CA,Los Angeles,CISO,90,34.655694,85000,0,2,34.655694,-118.298166,1.2,0.4,96,14.07566,0,39767200,0.096,260000,0
60186,Antelope DSR 1,CA,Los Angeles,CISO,90,34.655556,50000,0,2,34.655556,-118.280722,1.2,0.4,96,14.07566,0,39767200,0.096,260000,0
60187,Antelope DSR 2,CA,Los Angeles,CISO,90,34.686944,5000,0,2,34.686944,-118.311722,1.2,0.4,96,14.07566,0,39767200,0.096,260000,0
60193,Whitethorn Solar LLC,CA,Alameda,CISO,180,15,3300,0,0,37.691,-121.717,1.2,0.4,96,14.07566,0,39767200,0.096,260000,0
60195,South Valley Solar Energy Center,NM,Bernalillo,PNM,180,0,10000,0,2,34.986073,-106.736129,1.2,0.4,96,14.07566,0,39767200,0.096,260000,0
60196,Santa Fe Solar Energy Center,NM,Santa Fe,PNM,180,0,9500,0,2,35.587795,-106.060859,1.2,0.4,96,14.07566,0,39767200,0.096,260000,0
60197,Santolina Solar Energy Center,NM,Bernalillo,PNM,180,0,10500,0,2,35.029719,-106.855498,1.2,0.4,96,14.07566,0,39767200,0.096,260000,0
60198,Rio Communities Solar Energy Center,NM,Valencia,PNM,180,0,10000,0,2,34.582598,-106.682975,1.2,0.4,96,14.07566,0,39767200,0.096,260000,0
60219,Strata Roof 1,CA,Sacramento,BANC,180,10,1000,0,0,38.643527,-121.505506,1.2,0.4,96,14.07566,0,39767200,0.096,260000,0
60226,"Rancho Seco Solar, LLC",CA,Sacramento,BANC,90,38.339857,10800,2,2,38.339857,-121.114494,1.2,0.4,96,14.07566,0,39767200,0.096,260000,0
60230,Estrella Mountain PV,AZ,Maricopa,AZPS,180,5,1800,0,2,33.409803,-112.340297,1.2,0.4,96,14.07566,0,39767200,0.096,260000,0
60231,Genentech-Oceanside Hybrid,CA,San Diego,CISO,180,25,4500,0,2,33.211095,-117.299593,1.2,0.4,96,14.07566,0,39767200,0.096,260000,0
60233,RE Garland,CA,Kern,CISO,90,34.825267,185100,0,2,34.825267,-118.524989,1.2,0.4,96,14.07566,0,39767200,0.096,260000,0
60237,Midway Solar Farm II,CA,Imperial,IID,180,60,30000,2,2,33.162056,-115.531694,1.2,0.4,96,14.07566,0,39767200,0.096,260000,0
60242,"Algonquin SKIC 10 Solar, LLC",CA,Kern,CISO,180,35.126111,10000,0,2,35.126111,-119.243361,1.2,0.4,96,14.07566,0,39767200,0.096,260000,0
60247,Valley View Solar,CO,Weld,WACM,180,45,4000,2,2,40.418786,-104.891944,1.2,0.4,96,14.07566,0,39767200,0.096,260000,0
60248,Skylark,CO,Weld,WACM,180,45,4000,2,2,40.577889,-104.894792,1.2,0.4,96,14.07566,0,39767200,0.096,260000,0
60255,Weymouth Solar Plant,CA,Los Angeles,CISO,90,34.108618,3000,0,2,34.108618,-117.782246,1.2,0.4,96,14.07566,0,39767200,0.096,260000,0
60258,Alta Luna,NM,Luna,PNM,90,32.572022,28100,0,2,32.572022,-107.486458,1.2,0.4,96,14.07566,0,39767200,0.096,260000,0
60261,Playa Solar 2,NV,Clark,NEVP,0,0,100000,2,2,36.408,-114.908,1.2,0.4,96,14.07566,0,39767200,0.096,260000,0
60275,Westside Solar Power PV1,CA,Kings,CISO,180,0,2000,0,2,36.219,-119.907,1.2,0.4,96,14.07566,0,39767200,0.096,260000,0
60277,Castor Solar,CA,Kern,CISO,180,25,1500,0,0,35.211044,-119.387258,1.2,0.4,96,14.07566,0,39767200,0.096,260000,0
60279,Antelope Big Sky Ranch,CA,Los Angeles,CISO,90,34.694839,20000,0,2,34.694839,-118.28769,1.2,0.4,96,14.07566,0,39767200,0.096,260000,0
60280,Summer Solar LLC,CA,Los Angeles,CISO,90,34.714703,20000,0,2,34.714703,-118.311006,1.2,0.4,96,14.07566,0,39767200,0.096,260000,0
60281,Central Antelope Dry Ranch B LLC,CA,Los Angeles,CISO,90,34.705549,3000,0,2,34.705549,-118.301417,1.2,0.4,96,14.07566,0,39767200,0.096,260000,0
60283,SR Mavericks,CO,Weld,WACM,180,45,7800,2,2,40.23,-105.03,1.2,0.4,96,14.07566,0,39767200,0.096,260000,0
60285,Red Horse III,AZ,Cochise,TEPC,90,32.13597,30000,0,2,32.13597,-110.05129,1.2,0.4,96,14.07566,0,39767200,0.096,260000,0
60300,Montana Solar Facility,TX,El Paso,EPE,90,31.813061,3000,2,2,31.813061,-106.218892,1.2,0.4,96,14.07566,0,39767200,0.096,260000,0
60301,Holloman Solar Facility,NM,Otero,EPE,180,0,5000,2,2,32.921261,-106.072411,1.2,0.4,96,14.07566,0,39767200,0.096,260000,0
60304,"San Isabel Solar, LLC",CO,Las Animas,PSCO,90,37.372,30000,0,2,37.372,-104.843,1.2,0.4,96,14.07566,0,39767200,0.096,260000,0
60307,"Mesquite Solar 2, LLC",AZ,Maricopa,CISO,90,52,100000,0,2,33.332777,-112.911388,1.2,0.4,96,14.07566,0,39767200,0.096,260000,0
60308,"Mesquite Solar 3, LLC",AZ,Maricopa,CISO,90,52,150000,0,2,33.347583,-112.936805,1.2,0.4,96,14.07566,0,39767200,0.096,260000,0
60310,"Portal Ridge Solar B, LLC",CA,Los Angeles,CISO,90,34.71647,20000,0,2,34.71647,-118.2821,1.2,0.4,96,14.07566,0,39767200,0.096,260000,0
60311,"Portal Ridge Solar C, LLC",CA,Los Angeles,CISO,90,34.71412,11400,0,2,34.71412,-118.2739,1.2,0.4,96,14.07566,0,39767200,0.096,260000,0
60315,Midway Solar Farm III,CA,Imperial,IID,0,33.154761,20000,0,2,33.154761,-115.544918,1.2,0.4,96,14.07566,0,39767200,0.096,260000,0
60320,Jeffco Community Solar Gardens LLC,CO,Jefferson,PSCO,0,52,1200,0,2,39.859564,-105.149694,1.2,0.4,96,14.07566,0,39767200,0.096,260000,0
60324,"Willow Spring Solar, LLC",CA,Kern,CISO,90,34.826697,107900,0,2,34.826697,-118.335211,1.2,0.4,96,14.07566,0,39767200,0.096,260000,0
60330,"Grove Solar Center, LLC",OR,Malheur,IPCO,0,0,6000,0,2,43.936687,-117.381214,1.2,0.4,96,14.07566,0,39767200,0.096,260000,0
60331,"Hyline Solar Center, LLC",OR,Malheur,IPCO,180,0,9000,0,2,44.151256,-117.000071,1.2,0.4,96,14.07566,0,39767200,0.096,260000,0
60332,"Open Range Solar Center, LLC",OR,Malheur,IPCO,0,0,10000,0,2,43.796766,-117.065311,1.2,0.4,96,14.07566,0,39767200,0.096,260000,0
60333,"Railroad Solar Center, LLC",OR,Malheur,IPCO,180,0,4500,0,2,43.998019,-117.10118,1.2,0.4,96,14.07566,0,39767200,0.096,260000,0
60334,"Thunderegg Solar Center, LLC",OR,Malheur,IPCO,180,0,10000,0,2,43.93097,-116.987626,1.2,0.4,96,14.07566,0,39767200,0.096,260000,0
60335,"Vale Air Solar Center, LLC",OR,Malheur,IPCO,180,0,10000,0,2,43.965031,-117.25806,1.2,0.4,96,14.07566,0,39767200,0.096,260000,0
60336,Midway Solar Farm 1,CA,Imperial,IID,180,90,50000,2,2,33.176627,-115.572788,1.2,0.4,96,14.07566,0,39767200,0.096,260000,0
60341,Wal-Mart Truth or Consequences PV,NM,Sierra,PNM,180,10,1000,0,0,33.1526,-107.249831,1.2,0.4,96,14.07566,0,39767200,0.096,260000,0
60350,"Solar Las Vegas MB 2, LLC",NV,Clark,NEVP,180,26,1900,0,0,36.087426,-115.175381,1.2,0.4,96,14.07566,0,39767200,0.096,260000,0
60351,Bison Solar LLC,CO,Larimer,PSCO,90,40.863809,30000,0,2,40.863809,-105.0111,1.2,0.4,96,14.07566,0,39767200,0.096,260000,0
60352,"Boulder Solar Power, LLC",NV,Clark,NEVP,90,35.348,100000,0,2,35.348,-114.97,1.2,0.4,96,14.07566,0,39767200,0.096,260000,0
60381,Sulphur Springs,AZ,Cochise,WALC,0,0,20000,0,2,32.0628,-109.919283,1.2,0.4,96,14.07566,0,39767200,0.096,260000,0
60386,RE Garland A,CA,Kern,CISO,90,34.821453,20200,0,2,34.821453,-118.497406,1.2,0.4,96,14.07566,0,39767200,0.096,260000,0
60389,RE Barren Ridge 1,CA,Kern,LDWP,0,0,199000,0,2,35.20473,-118.06875,1.2,0.4,96,14.07566,0,39767200,0.096,260000,0
60412,Munro Valley Solar,CA,Inyo,CISO,180,25,4000,0,0,36.2647,-117.9955,1.2,0.4,96,14.07566,0,39767200,0.096,260000,0
60413,Bonnybrooke PV,AZ,Pinal,SRP,90,33.053,50000,0,2,33.053,-111.34,1.2,0.4,96,14.07566,0,39767200,0.096,260000,0
60426,RCWD PV Project,CA,Riverside,CISO,0,0,4100,0,2,33.5226,-117.1815,1.2,0.4,96,14.07566,0,39767200,0.096,260000,0
60428,CA Dept of Public Health at Richmond,CA,Contra Costa,CISO,179,12,2200,0,0,37.92,-122.344,1.2,0.4,96,14.07566,0,39767200,0.096,260000,0
60432,Three Peaks Power,UT,Iron,PACE,180,37.827082,80000,0,2,37.827082,-113.137082,1.2,0.4,96,14.07566,0,39767200,0.096,260000,0
60445,ID Solar,ID,Ada,IPCO,180,20,40000,0,2,43.444,-116.333,1.2,0.4,96,14.07566,0,39767200,0.096,260000,0
60446,E&B Resources,CA,Kern,CISO,0,0,1000,0,2,35.534584,-119.060029,1.2,0.4,96,14.07566,0,39767200,0.096,260000,0
60449,Pavant Solar II LLC,UT,Millard,PACE,90,39.1625,50000,0,2,39.1625,-112.343,1.2,0.4,96,14.07566,0,39767200,0.096,260000,0
60450,Corcoran,CA,Kings,CISO,180,30,1100,0,0,36.102307,-119.566516,1.2,0.4,96,14.07566,0,39767200,0.096,260000,0
60467,Red Rock,AZ,Maricopa,AZPS,0,0,40000,0,2,32.551026,-111.289232,1.2,0.4,96,14.07566,0,39767200,0.096,260000,0
60474,"Bayshore Solar B, LLC",CA,Los Angeles,CISO,90,34.678305,20000,0,2,34.678305,-118.302649,1.2,0.4,96,14.07566,0,39767200,0.096,260000,0
60475,"Bayshore Solar C, LLC",CA,Los Angeles,CISO,90,34.681338,20000,0,2,34.681338,-118.314087,1.2,0.4,96,14.07566,0,39767200,0.096,260000,0
60481,"Bayshore Solar A, LLC",CA,Los Angeles,CISO,90,34.667817,20000,0,2,34.667817,-118.298089,1.2,0.4,96,14.07566,0,39767200,0.096,260000,0
60485,"Longboat Solar, LLC",CA,San Bernardino,CISO,180,34.541,20000,0,2,34.541,-117.061,1.2,0.4,96,14.07566,0,39767200,0.096,260000,0
60490,Redwood 4 Solar Farm,CA,Kern,CISO,0,0,20000,0,2,35.314198,-118.81192,1.2,0.4,96,14.07566,0,39767200,0.096,260000,0
60491,Springbok 3 Solar Farm Hybrid,CA,Kern,LDWP,180,35.171153,90000,2,2,35.171153,-118.00165200000001,1.2,0.4,96,14.07566,0,39767200,0.096,260000,0
60497,SR Skylark B,CO,Weld,WACM,180,45,2000,2,2,40.579472,-104.895675,1.2,0.4,96,14.07566,0,39767200,0.096,260000,0
60509,Valley Center,CA,San Diego,CISO,0,0,2300,0,2,33.2503,-117.0226,1.2,0.4,96,14.07566,0,39767200,0.096,260000,0
60511,Clear Spring Ranch PV Project,CO,El Paso,WACM,180,0,10000,0,2,38.602102,-104.694688,1.2,0.4,96,14.07566,0,39767200,0.096,260000,0
60516,NLP Granger,CA,San Diego,CISO,0,0,3000,0,2,33.2704,-117.0588,1.2,0.4,96,14.07566,0,39767200,0.096,260000,0
60548,"NorWest Energy 2, LLC",OR,Deschutes,PACW,180,20,9900,0,2,44.06803,-121.22838,1.2,0.4,96,14.07566,0,39767200,0.096,260000,0
60558,Solar Blythe 2,CA,Riverside,CISO,180,33.618678,20000,0,2,33.618678,-114.696182,1.2,0.4,96,14.07566,0,39767200,0.096,260000,0
60590,"Golden Fields Solar I, LLC",CA,Kern,CISO,0,0,54000,0,2,34.839012,-118.386843,1.2,0.4,96,14.07566,0,39767200,0.096,260000,0
60591,"Solar Star California, XLI, LLC",CA,Kern,CISO,0,0,54000,0,2,34.839012,-118.386843,1.2,0.4,96,14.07566,0,39767200,0.096,260000,0
60603,Jacobson 5 MW Solar,AZ,Mohave,TEPC,180,25,4400,0,0,35.304528,-114.01183,1.2,0.4,96,14.07566,0,39767200,0.096,260000,0
60616,BC Solar,OR,Lake,PACW,90,42.175,8000,0,2,42.175,-120.3598,1.2,0.4,96,14.07566,0,39767200,0.096,260000,0
60654,Townsite Solar Project Hybrid,NV,Clark,WALC,90,90,180000,2,2,35.937336,-114.883999,1.2,0.4,96,14.07566,0,39767200,0.096,260000,0
60678,San Joaquin Solar,CA,Fresno,CISO,180,36.527,21300,2,2,36.527,-120.149,1.2,0.4,96,14.07566,0,39767200,0.096,260000,0
60684,Amphitheater High School Solar,AZ,Pima,TEPC,180,12,1000,0,0,32.269,-110.975,1.2,0.4,96,14.07566,0,39767200,0.096,260000,0
60685,Canyon Del Oro High School Solar,AZ,Pima,TEPC,180,12,4399.999999999999,0,0,32.374,-110.974,1.2,0.4,96,14.07566,0,39767200,0.096,260000,0
60720,Weld 1 Community Solar Array,CO,Weld,PSCO,180,40.232146,1500,0,2,40.232146,-104.791865,1.2,0.4,96,14.07566,0,39767200,0.096,260000,0
60722,Logan 1 Community Solar Array,CO,Logan,PSCO,180,0,1500,0,2,40.609968,-103.145084,1.2,0.4,96,14.07566,0,39767200,0.096,260000,0
60723,Conejos 1 Community Solar Array,CO,Conejos,PSCO,0,0,1500,0,2,37.195886,-105.982424,1.2,0.4,96,14.07566,0,39767200,0.096,260000,0
60724,Arapahoe 3 Community Solar Array,CO,Arapahoe,PSCO,0,0,1800,0,2,39.638358,-104.674249,1.2,0.4,96,14.07566,0,39767200,0.096,260000,0
60725,Xcel Adams 2 Community Solar Array,CO,Adams,PSCO,0,39.784937,1500,0,2,39.784937,-104.583391,1.2,0.4,96,14.07566,0,39767200,0.096,260000,0
60726,Xcel Adams 1 Community Solar Array,CO,Adams,PSCO,0,39.765479,1800,0,2,39.765479,-104.588631,1.2,0.4,96,14.07566,0,39767200,0.096,260000,0
60744,SEPV Imperial Dixieland West,CA,Imperial,IID,90,0,3000,0,2,32.79411,-115.779317,1.2,0.4,96,14.07566,0,39767200,0.096,260000,0
60745,SEPV Imperial Dixieland East,CA,Imperial,IID,90,0,2000,0,2,32.792038,-115.773448,1.2,0.4,96,14.07566,0,39767200,0.096,260000,0
60748,Simcoe Solar,ID,Elmore,IPCO,180,60,20000,0,2,43.288439,-115.955371,1.2,0.4,96,14.07566,0,39767200,0.096,260000,0
60764,Victory Solar LLC,CO,Adams,PSCO,180,39.795,12800,0,2,39.795,-104.433,1.2,0.4,96,14.07566,0,39767200,0.096,260000,0
60777,"American Kings Solar, LLC",CA,Kings,CISO,180,0,128000,0,2,36.24,-119.898,1.2,0.4,96,14.07566,0,39767200,0.096,260000,0
60785,Tungsten Mountain,NV,Churchill,NEVP,0,0,7300,0,2,39.667002,-117.693658,1.2,0.4,96,14.07566,0,39767200,0.096,260000,0
60790,"PVN Milliken, LLC",CA,San Bernardino,CISO,180,22,3000,0,0,34.038433,-117.565802,1.2,0.4,96,14.07566,0,39767200,0.096,260000,0
60791,SunAnza,CA,Riverside,CISO,180,27,3400,0,0,33.555267,-116.639647,1.2,0.4,96,14.07566,0,39767200,0.096,260000,0
60801,"CEC Solar #1117, LLC",CO,Pueblo,PSCO,0,38.284425,1500,0,2,38.284425,-104.523951,1.2,0.4,96,14.07566,0,39767200,0.096,260000,0
60813,Cloverdale Solar Center,CA,Sonoma,CISO,180,20,1000,0,2,38.769581,-123.020724,1.2,0.4,96,14.07566,0,39767200,0.096,260000,0
60821,Weber State University - Davis Campus PV,UT,Davis,WACM,180,25,1300,0,0,41.098957,-111.982167,1.2,0.4,96,14.07566,0,39767200,0.096,260000,0
60822,Intel - Ocotillo Campus Solar,AZ,Maricopa,AZPS,162,5,4199.999999999999,0,2,33.243261,-111.892354,1.2,0.4,96,14.07566,0,39767200,0.096,260000,0
60824,Valley Sanitary District WTP Solar,CA,Riverside,LDWP,180,20,1000,0,0,33.708661,-116.198885,1.2,0.4,96,14.07566,0,39767200,0.096,260000,0
60825,Colgreen North Shore Solar Farm,CA,Riverside,IID,180,33.540124,74800,0,4,33.540124,-115.974771,1.2,0.4,96,14.07566,0,39767200,0.096,260000,0
60827,"Sun Streams, LLC",AZ,Maricopa,CISO,90,33.34884,160000,2,2,33.34884,-112.8348,1.2,0.4,96,14.07566,0,39767200,0.096,260000,0
60844,Genentech Vacaville Meter #1,CA,Solano,CISO,180,25,6100,0,0,38.390756,-121.94777,1.2,0.4,96,14.07566,0,39767200,0.096,260000,0
60846,US GSA - Sacramento,CA,Sacramento,BANC,180,7,1100,0,0,38.601354,-121.397929,1.2,0.4,96,14.07566,0,39767200,0.096,260000,0
60861,Dept of General Services -FTB,CA,Sacramento,BANC,180,12,2700,0,0,38.565,-121.343,1.2,0.4,96,14.07566,0,39767200,0.096,260000,0
60869,"Solar Star California, XLIV, LLC",CA,Los Angeles,CISO,0,0,9500,0,2,34.511889,-117.922819,1.2,0.4,96,14.07566,0,39767200,0.096,260000,0
60885,"Boulder Solar II, LLC",NV,Clark,NEVP,0,0,50000,0,2,35.85,-114.944,1.2,0.4,96,14.07566,0,39767200,0.096,260000,0
60886,Pavant Solar III,UT,Millard,PACE,0,0,20000,0,2,39.154474,-112.359849,1.2,0.4,96,14.07566,0,39767200,0.096,260000,0
60914,Westmont 300B,CA,Los Angeles,LDWP,190,30,3000,0,0,33.766067,-118.284733,1.2,0.4,96,14.07566,0,39767200,0.096,260000,0
60947,Jacumba Solar Farm,CA,San Diego,CISO,180,25,20000,0,0,32.6212,-116.12896,1.2,0.4,96,14.07566,0,39767200,0.096,260000,0
60953,Owens Valley Solar Project 11,CA,Inyo,LDWP,190,30,1000,0,0,36.275144,-118.012151,1.2,0.4,96,14.07566,0,39767200,0.096,260000,0
60964,Apache Solar 1,AZ,Cochise,WALC,90,32.068141,20000,0,2,32.068141,-109.890379,1.2,0.4,96,14.07566,0,39767200,0.096,260000,0
60975,Whitney Point Solar,CA,Fresno,CISO,0,0,20000,0,2,36.376889,-120.138472,1.2,0.4,96,14.07566,0,39767200,0.096,260000,0
60976,"OSLH, LLC",OR,Deschutes,PACW,90,60,9900,0,2,44.061,-121.228,1.2,0.4,96,14.07566,0,39767200,0.096,260000,0
60978,CSUF State College,CA,Orange,CISO,180,10,1000,0,0,33.87912,-117.8887,1.2,0.4,96,14.07566,0,39767200,0.096,260000,0
60979,CSUF Nutwood Solar,CA,Orange,CISO,180,10,1900,0,0,33.87912,-117.8887,1.2,0.4,96,14.07566,0,39767200,0.096,260000,0
60981,NextEra Westside PV,CA,Fresno,CISO,0,0,20000,0,2,36.381775,-120.134486,1.2,0.4,96,14.07566,0,39767200,0.096,260000,0
60984,Lindberg Field Solar 2,CA,San Diego,CISO,207,7.5,1900,0,0,32.729444,-117.205083,1.2,0.4,96,14.07566,0,39767200,0.096,260000,0
60995,Ramona Solar Energy,CA,San Diego,CISO,180,20,4300,0,0,33.018486,-116.860713,1.2,0.4,96,14.07566,0,39767200,0.096,260000,0
60996,Iron Horse Battery Storage Hybrid,AZ,Pima,TEPC,180,25,2000,0,0,32.098492,-110.819119,1.2,0.4,96,14.07566,0,39767200,0.096,260000,0
61006,SCDA Solar 1,CA,Sacramento,CISO,180,38.690186,7000,0,2,38.690186,-121.586514,1.2,0.4,96,14.07566,0,39767200,0.096,260000,0
61013,Marin Clean Energy Solar One,CA,Contra Costa,CISO,180,15,10500,0,0,37.945296,-122.377202,1.2,0.4,96,14.07566,0,39767200,0.096,260000,0
61048,Solar Star Oregon II,OR,Crook,PACW,180,60,56300,0,2,44.1843,-120.918,1.2,0.4,96,14.07566,0,39767200,0.096,260000,0
61084,Luning Energy,NV,Mineral,NEVP,180,0,50000,0,2,38.546947,-118.19156,1.2,0.4,96,14.07566,0,39767200,0.096,260000,0
61098,Battle Mountain Solar Project,NV,Humboldt,NEVP,358,0,101000,0,2,40.718433,-117.06143,1.2,0.4,96,14.07566,0,39767200,0.096,260000,0
61104,Pima Community College - East Campus,AZ,Pima,TEPC,180,10,1300,0,2,32.146142,-110.990639,1.2,0.4,96,14.07566,0,39767200,0.096,260000,0
61115,Manteca Land PV,CA,San Joaquin,CISO,180,20,1000,0,0,37.84013,-121.216191,1.2,0.4,96,14.07566,0,39767200,0.096,260000,0
61116,Delano Land 1,CA,Kern,CISO,90,35.761217,1000,0,2,35.761217,-119.344408,1.2,0.4,96,14.07566,0,39767200,0.096,260000,0
61117,Bakersfield PV 1,CA,Kern,CISO,90,35.324982,5300,0,2,35.324982,-118.981522,1.2,0.4,96,14.07566,0,39767200,0.096,260000,0
61118,Bakersfield Industrial PV 1,CA,Kern,CISO,180,20,1000,0,0,35.330032,-118.993119,1.2,0.4,96,14.07566,0,39767200,0.096,260000,0
61119,Quichapa 1,UT,Iron,PACE,170,59,3000,0,2,37.658223,-113.216679,1.2,0.4,96,14.07566,0,39767200,0.096,260000,0
61120,Quichapa 2,UT,Iron,PACE,170,59,3000,0,2,37.666772,-113.188953,1.2,0.4,96,14.07566,0,39767200,0.096,260000,0
61121,Quichapa 3,UT,Iron,PACE,170,59,3000,0,2,37.649816,-113.236928,1.2,0.4,96,14.07566,0,39767200,0.096,260000,0
61152,Intel Folsom Phase 3,CA,Sacramento,BANC,272,5,5200,0,2,38.645961,-121.162623,1.2,0.4,96,14.07566,0,39767200,0.096,260000,0
61165,Columbus Solar Project,NM,Luna,PNM,180,52,1900,0,2,31.86673,-107.587513,1.2,0.4,96,14.07566,0,39767200,0.096,260000,0
61193,IKEA Las Vegas 462,NV,Clark,NEVP,180,10,1000,0,0,36.068926,-115.280825,1.2,0.4,96,14.07566,0,39767200,0.096,260000,0
61198,Merck - Upper Gwynedd Solar Array,PA,Montgomery,PJM,225,10,1500,0,0,40.215399,-75.28309,1.2,0.4,96,14.07566,0,39767200,0.096,260000,0
61199,T0588 Phoenix - AZ,AZ,Maricopa,SRP,180,10,1200,0,0,33.447225,-112.217664,1.2,0.4,96,14.07566,0,39767200,0.096,260000,0
61200,"OR Solar 2, LLC",OR,Jackson,PACW,180,60,10000,0,2,42.542084,-122.781338,1.2,0.4,96,14.07566,0,39767200,0.096,260000,0
61201,"OR Solar 3, LLC",OR,Klamath,PACW,0,0,10000,0,2,42.022336,-121.418873,1.2,0.4,96,14.07566,0,39767200,0.096,260000,0
61202,Mount Signal Solar Farm V,CA,Imperial,CISO,180,32.678805,252300,2,2,32.678805,-115.56721,1.2,0.4,96,14.07566,0,39767200,0.096,260000,0
61209,Sacramento Regional County Sanitation PV,CA,Sacramento,BANC,0,0,3500,0,2,38.448604,-121.46369,1.2,0.4,96,14.07566,0,39767200,0.096,260000,0
61215,Green Beanworks C PV,CA,Los Angeles,CISO,180,34.597,3000,0,2,34.597,-117.931,1.2,0.4,96,14.07566,0,39767200,0.096,260000,0
61216,Green Beanworks D PV,CA,Los Angeles,CISO,180,0,3000,0,2,34.654976,-118.08215,1.2,0.4,96,14.07566,0,39767200,0.096,260000,0
61249,Westmont 300A,CA,Los Angeles,LDWP,180,10,2900,0,0,33.766067,-118.288925,1.2,0.4,96,14.07566,0,39767200,0.096,260000,0
61250,USPS PV,CA,Los Angeles,CISO,225,10,7400,0,0,33.977922,-118.2587,1.2,0.4,96,14.07566,0,39767200,0.096,260000,0
61264,Antelope Expansion 2,CA,Los Angeles,CISO,180,0,105000,0,2,34.744977,-118.309153,1.2,0.4,96,14.07566,0,39767200,0.096,260000,0
61265,Antelope DSR 3,CA,Los Angeles,CISO,0,0,20000,0,2,34.736859,-118.304071,1.2,0.4,96,14.07566,0,39767200,0.096,260000,0
61268,Kayenta Solar Project,AZ,Navajo,WALC,90,50,55300,0,2,36.771944,-110.263889,1.2,0.4,96,14.07566,0,39767200,0.096,260000,0
61272,Gray Hawk Solar,AZ,Mohave,TEPC,0,0,55000,0,2,35.3635,-113.8978,1.2,0.4,96,14.07566,0,39767200,0.096,260000,0
61281,Bear Creek Solar Center,OR,Deschutes,PACW,180,44.060814,10000,0,2,44.060814,-121.237203,1.2,0.4,96,14.07566,0,39767200,0.096,260000,0
61289,"River Bend Solar, LLC",MT,Stillwater,NWMT,90,45,2000,0,2,45.703779,-109.565219,1.2,0.4,96,14.07566,0,39767200,0.096,260000,0
61290,"South Mills Solar, LLC",MT,Big Horn,NWMT,90,45,3000,0,2,45.730113,-107.632624,1.2,0.4,96,14.07566,0,39767200,0.096,260000,0
61291,"Green Meadow Solar, LLC",MT,Lewis and Clark,NWMT,90,45,3000,0,2,46.694488,-112.063623,1.2,0.4,96,14.07566,0,39767200,0.096,260000,0
61314,SR Kersey,CO,Weld,WACM,180,45,3500,2,2,40.386197,-104.55095,1.2,0.4,96,14.07566,0,39767200,0.096,260000,0
61319,Port of LA Solar FiT Project,CA,Los Angeles,LDWP,168,10,1100,0,0,33.727977,-118.280032,1.2,0.4,96,14.07566,0,39767200,0.096,260000,0
61335,"Great Divide Solar, LLC",MT,Lewis and Clark,NWMT,90,45,3000,0,2,46.805739,-112.249048,1.2,0.4,96,14.07566,0,39767200,0.096,260000,0
61336,"Black Eagle Solar, LLC",MT,Cascade,NWMT,90,45,3000,0,2,47.547466,-111.253974,1.2,0.4,96,14.07566,0,39767200,0.096,260000,0
61337,"Magpie Solar, LLC",MT,Golden Valley,NWMT,90,45,3000,0,2,46.291439,-108.937935,1.2,0.4,96,14.07566,0,39767200,0.096,260000,0
61338,Mill Creek Solar (OR),OR,Yamhill,PGE,180,15,2200,0,0,45.16964,-123.13633,1.2,0.4,96,14.07566,0,39767200,0.096,260000,0
61339,Green Beanworks B PV,CA,Los Angeles,CISO,180,34.688042,3000,0,2,34.688042,-117.989541,1.2,0.4,96,14.07566,0,39767200,0.096,260000,0
61345,WyEast Solar,OR,Sherman,AVRN,180,60,10000,0,2,45.5846,-120.59994,1.2,0.4,96,14.07566,0,39767200,0.096,260000,0
61348,Westmont 400A,CA,Los Angeles,LDWP,180,10,2300,0,0,33.764227,-118.288925,1.2,0.4,96,14.07566,0,39767200,0.096,260000,0
61349,Westmont 400B,CA,Los Angeles,LDWP,180,10,2200,0,0,33.764227,-118.284733,1.2,0.4,96,14.07566,0,39767200,0.096,260000,0
61353,Mount Signal Solar Farm II,CA,Imperial,CISO,0,0,153500,0,2,32.6685,-115.6292,1.2,0.4,96,14.07566,0,39767200,0.096,260000,0
61369,Sweetwater Solar,WY,Sweetwater,PACE,180,41.629056,92000,0,2,41.629056,-109.683472,1.2,0.4,96,14.07566,0,39767200,0.096,260000,0
61377,Amazon - Patterson PV,CA,Stanislaus,BANC,180,10,2500,0,0,37.468888,-121.166326,1.2,0.4,96,14.07566,0,39767200,0.096,260000,0
61418,Valencia 1 Solar CA,CA,Imperial,IID,180,20,3000,0,0,33.04358,-115.62779,1.2,0.4,96,14.07566,0,39767200,0.096,260000,0
61419,One Ten Partners PV,CA,Los Angeles,CISO,0,0,2000,0,2,34.615622,-117.936594,1.2,0.4,96,14.07566,0,39767200,0.096,260000,0
61420,Merced 1 PV,CA,Merced,CISO,180,0,3000,0,2,36.989475,-120.878081,1.2,0.4,96,14.07566,0,39767200,0.096,260000,0
61421,Madera 1 PV,CA,Madera,CISO,180,0,1500,0,2,37.056468,-120.167021,1.2,0.4,96,14.07566,0,39767200,0.096,260000,0
61423,"OR Solar 5, LLC",OR,Klamath,PACW,0,0,8000,0,2,42.030332,-121.611565,1.2,0.4,96,14.07566,0,39767200,0.096,260000,0
61424,"OR Solar 8, LLC",OR,Klamath,PACW,0,0,10000,0,2,42.238888,-121.585833,1.2,0.4,96,14.07566,0,39767200,0.096,260000,0
61425,Coyote Ridge Community Solar,CO,Larimer,WACM,-90,40.500969,1500,0,2,40.500969,-105.13143,1.2,0.4,96,14.07566,0,39767200,0.096,260000,0
61430,"OR Solar 6, LLC",OR,Lake,PACW,0,0,10000,0,2,42.208988,-120.367807,1.2,0.4,96,14.07566,0,39767200,0.096,260000,0
61439,Panasonic Carport Solar Hybrid,CO,Adams,PSCO,180,7,1300,0,0,39.808719,-104.781494,1.2,0.4,96,14.07566,0,39767200,0.096,260000,0
61445,Gaskell West 1 Solar Facility,CA,Kern,CISO,90,34.832786,20000,0,2,34.832786,-118.563578,1.2,0.4,96,14.07566,0,39767200,0.096,260000,0
61462,SR Platte Solar Farm,CO,Weld,PSCO,180,45,16000,2,2,40.181742,-104.692067,1.2,0.4,96,14.07566,0,39767200,0.096,260000,0
61463,Vandenberg Solar Project,CA,Santa Barbara,CISO,0,0,25300,0,2,34.749708,-120.509982,1.2,0.4,96,14.07566,0,39767200,0.096,260000,0
61472,San Luis Solar Garden,CO,Conejos,PSCO,90,37.068132,1200,0,2,37.068132,-106.018925,1.2,0.4,96,14.07566,0,39767200,0.096,260000,0
61496,Adams Solar Center,OR,Jefferson,PACW,0,0,10000,0,2,44.675,-121.122,1.2,0.4,96,14.07566,0,39767200,0.096,260000,0
61497,Elbe Solar Center,OR,Jefferson,PACW,0,0,10000,0,2,44.618,-121.205,1.2,0.4,96,14.07566,0,39767200,0.096,260000,0
61553,Klamath Falls Solar 2 CSG,OR,Klamath,PACW,0,42.183,2900,0,2,42.183,-121.764,1.2,0.4,96,14.07566,0,39767200,0.096,260000,0
61556,Facebook 1 Solar Energy Center,NM,Valencia,PNM,180,0,10000,0,2,34.831,-106.762,1.2,0.4,96,14.07566,0,39767200,0.096,260000,0
61557,Facebook 2 Solar Energy Center,NM,Bernalillo,PNM,180,0,10000,0,2,35.08,-106.865,1.2,0.4,96,14.07566,0,39767200,0.096,260000,0
61558,Facebook 3 Solar Energy Center,NM,Bernalillo,PNM,180,0,10000,0,2,35.075,-106.865,1.2,0.4,96,14.07566,0,39767200,0.096,260000,0
61559,Woodline Solar,OR,Klamath,PACW,180,60,8000,0,2,42.236443,-121.57766,1.2,0.4,96,14.07566,0,39767200,0.096,260000,0
61560,Eagle Point Solar,OR,Jackson,PACW,180,60,9900,0,2,42.400814,-122.82917,1.2,0.4,96,14.07566,0,39767200,0.096,260000,0
61563,Denver Metro Solar,CO,Adams,PSCO,180,39.759298,1600,0,2,39.759298,-104.621139,1.2,0.4,96,14.07566,0,39767200,0.096,260000,0
61580,"Tumbleweed Solar, LLC",OR,Deschutes,PACW,180,28,9900,0,0,44.192575,-121.233106,1.2,0.4,96,14.07566,0,39767200,0.096,260000,0
61593,Westmont 301,CA,Los Angeles,LDWP,190,30,1800,0,0,33.763012,-118.286558,1.2,0.4,96,14.07566,0,39767200,0.096,260000,0
61594,Westmont 401,CA,Los Angeles,LDWP,190,30,2900,0,0,33.762421,-118.288214,1.2,0.4,96,14.07566,0,39767200,0.096,260000,0
61605,San Luis Valley Solar Array,CO,Saguache,PSCO,0,0,2700,0,2,37.777,-106.22,1.2,0.4,96,14.07566,0,39767200,0.096,260000,0
61606,Vilas Solar Array,CO,Baca,PSCO,0,0,4000,0,2,37.384,-102.466,1.2,0.4,96,14.07566,0,39767200,0.096,260000,0
61607,Stenner Creek Solar,CA,San Luis Obispo,CISO,180,35.32,4500,0,2,35.32,-120.691,1.2,0.4,96,14.07566,0,39767200,0.096,260000,0
61611,Techren Solar I LLC,NV,Clark,NEVP,180,35.851336,100000,0,2,35.851336,-114.974386,1.2,0.4,96,14.07566,0,39767200,0.096,260000,0
61619,CDCR (CA) - Solano State Prison,CA,Solano,CISO,180,0,1100,0,2,38.32272,-121.97062,1.2,0.4,96,14.07566,0,39767200,0.096,260000,0
61620,CDCR (CA) - Corcoran State Prison,CA,Kings,CISO,180,0,5000,0,2,36.06502,-119.55756,1.2,0.4,96,14.07566,0,39767200,0.096,260000,0
61621,CDCR (CA) - Wasco State Prison,CA,Kern,CISO,180,0,1500,0,2,35.60053,-119.40366,1.2,0.4,96,14.07566,0,39767200,0.096,260000,0
61628,Kilroy Solar,CA,San Diego,CISO,177,3,1100,0,0,32.936137,-117.234157,1.2,0.4,96,14.07566,0,39767200,0.096,260000,0
61631,"Chiloquin Solar, LLC",OR,Klamath,PACW,180,28,9900,0,0,42.610732,-121.861248,1.2,0.4,96,14.07566,0,39767200,0.096,260000,0
61662,Carrizozo Solar,NM,Lincoln,PNM,0,33.610306,3000,0,2,33.610306,-105.747825,1.2,0.4,96,14.07566,0,39767200,0.096,260000,0
61678,Pinal Central Energy Center Hybrid,AZ,Pinal,SRP,180,32.875697,20000,2,2,32.875697,-111.551111,1.2,0.4,96,14.07566,0,39767200,0.096,260000,0
61682,USG 1,CA,Imperial,IID,180,0,1000,0,2,32.79278,-115.857336,1.2,0.4,96,14.07566,0,39767200,0.096,260000,0
61683,USG 2,CA,Imperial,IID,180,25,1000,0,0,32.790403,-115.863214,1.2,0.4,96,14.07566,0,39767200,0.096,260000,0
61692,IVC Solar,CA,Imperial,IID,180,0,3000,0,2,32.83186,-115.506629,1.2,0.4,96,14.07566,0,39767200,0.096,260000,0
61698,Folsom SP and CSP Sacramento,CA,Sacramento,BANC,110,12,1300,0,0,38.687,-121.16,1.2,0.4,96,14.07566,0,39767200,0.096,260000,0
61718,Aerolease,CA,Los Angeles,LDWP,180,10,1300,0,0,34.189857,-118.451355,1.2,0.4,96,14.07566,0,39767200,0.096,260000,0
61750,Wistaria Ranch Solar,CA,Imperial,CISO,0,32.676,106700,0,2,32.676,-115.619,1.2,0.4,96,14.07566,0,39767200,0.096,260000,0
61752,Quincy II Solar Garden,CO,Arapahoe,PSCO,0,0,1500,0,2,39.638409,-104.662508,1.2,0.4,96,14.07566,0,39767200,0.096,260000,0
61753,Imboden Solar Garden,CO,Adams,PSCO,0,0,3000,0,2,39.786769,-104.583574,1.2,0.4,96,14.07566,0,39767200,0.096,260000,0
61791,Stage Gulch Solar,CA,Sonoma,CISO,180,25,1000,0,0,38.216841,-122.542866,1.2,0.4,96,14.07566,0,39767200,0.096,260000,0
61792,Lavio Solar,CA,Sonoma,CISO,180,25,1000,0,0,38.194599,-122.663388,1.2,0.4,96,14.07566,0,39767200,0.096,260000,0
61809,"EGP Stillwater Solar PV II, LLC",NV,Churchill,NEVP,180,30,20000,2,0,39.542041,-118.560147,1.2,0.4,96,14.07566,0,39767200,0.096,260000,0
61811,Titan Solar,CO,Arapahoe,PSCO,180,39.68646,50000,0,2,39.68646,-104.01398,1.2,0.4,96,14.07566,0,39767200,0.096,260000,0
61824,RPUWD Scheuer Well Solar Project,CA,San Bernardino,CISO,0,10,3000,0,2,34.11193,-117.27326,1.2,0.4,96,14.07566,0,39767200,0.096,260000,0
61825,Dignity - Siena Campus,NV,Clark,NEVP,0,36.004293,1400,0,2,36.004293,-115.115305,1.2,0.4,96,14.07566,0,39767200,0.096,260000,0
61827,Dayton Cutoff Solar,OR,Yamhill,PGE,180,15,2200,0,0,45.17,-123.135,1.2,0.4,96,14.07566,0,39767200,0.096,260000,0
61828,Valley Creek Solar,OR,Polk,PGE,180,20,2200,0,0,45.033,-123.094,1.2,0.4,96,14.07566,0,39767200,0.096,260000,0
61829,Silverton Solar,OR,Marion,PGE,180,25,2200,0,0,45.014,-122.807,1.2,0.4,96,14.07566,0,39767200,0.096,260000,0
61830,Sheep Solar,OR,Marion,PGE,180,30,2200,0,0,44.826,-122.949,1.2,0.4,96,14.07566,0,39767200,0.096,260000,0
61831,Colton Solar,OR,Clackamas,PGE,180,15,2200,0,0,45.17,-122.473,1.2,0.4,96,14.07566,0,39767200,0.096,260000,0
61832,Interstate Solar,OR,Marion,PGE,180,25,2200,0,0,45.129,-122.899,1.2,0.4,96,14.07566,0,39767200,0.096,260000,0
61834,Soboba Community Solar Project,CA,Riverside,CISO,200,25,2000,0,0,33.767061,-116.905874,1.2,0.4,96,14.07566,0,39767200,0.096,260000,0
61835,Grand Ronde Solar,OR,Polk,PGE,180,15,2200,0,0,45.054,-123.61,1.2,0.4,96,14.07566,0,39767200,0.096,260000,0
61843,SeaWorld Aquatica,CA,San Diego,CISO,181,7,1100,0,0,32.586536,-117.004884,1.2,0.4,96,14.07566,0,39767200,0.096,260000,0
61844,Brush Solar Center,OR,Baker,IPCO,0,0,2800,0,2,44.465334,-118.204075,1.2,0.4,96,14.07566,0,39767200,0.096,260000,0
61854,Baker City Solar,OR,Baker,IPCO,0,0,15000,0,2,44.702418,-117.763482,1.2,0.4,96,14.07566,0,39767200,0.096,260000,0
61855,Morgan Solar Center,OR,Malheur,IPCO,0,0,3000,0,2,43.951376,-117.07478,1.2,0.4,96,14.07566,0,39767200,0.096,260000,0
61856,Vale Solar Center,OR,Malheur,IPCO,180,25,3000,0,0,44.157874,-117.44434,1.2,0.4,96,14.07566,0,39767200,0.096,260000,0
61860,Ontario Solar Center,OR,Malheur,IPCO,0,0,3000,0,2,44.112841,-117.028093,1.2,0.4,96,14.07566,0,39767200,0.096,260000,0
61862,Dignity - San Martin,NV,Clark,NEVP,180,10,1700,0,0,36.057181,-115.272131,1.2,0.4,96,14.07566,0,39767200,0.096,260000,0
61886,Bar D,CO,Rio Blanco,WACM,180,20,4000,0,0,39.923679,-108.462709,1.2,0.4,96,14.07566,0,39767200,0.096,260000,0
61894,National Raisin,CA,Fresno,CISO,225,36.624512,2900,0,2,36.624512,-119.673088,1.2,0.4,96,14.07566,0,39767200,0.096,260000,0
61930,Techren Solar II LLC,NV,Clark,NEVP,180,35.867258,200000,0,2,35.867258,-114.956428,1.2,0.4,96,14.07566,0,39767200,0.096,260000,0
61931,Techren Solar III LLC,NV,Clark,NEVP,180,35.844106,25000,0,2,35.844106,-114.9713,1.2,0.4,96,14.07566,0,39767200,0.096,260000,0
61932,Techren Solar IV LLC,NV,Clark,NEVP,180,35.892658,25000,0,2,35.892658,-114.936525,1.2,0.4,96,14.07566,0,39767200,0.096,260000,0
61933,Adams Nielson Solar,WA,Adams,AVA,180,46.95528,19200,2,4,46.95528,-118.621244,1.2,0.4,96,14.07566,0,39767200,0.096,260000,0
61989,Pacific Ethanol Madera Solar Array,CA,Madera,CISO,180,52,4300,0,2,36.916111,-119.97138,1.2,0.4,96,14.07566,0,39767200,0.096,260000,0
61991,"Pioneer Solar (CO), LLC",CO,Adams,PSCO,180,39.761569,80000,0,2,39.761569,-104.45903,1.2,0.4,96,14.07566,0,39767200,0.096,260000,0
61993,Gavilan Community College Solar Project,CA,Santa Clara,CISO,240,10,1400,0,0,37.003832,-121.593567,1.2,0.4,96,14.07566,0,39767200,0.096,260000,0
61995,UC Merced Solar Hybrid,CA,Merced,CISO,48,10,4500,0,0,37.365688,-120.432228,1.2,0.4,96,14.07566,0,39767200,0.096,260000,0
62004,San Pablo Raceway,CA,Los Angeles,CISO,0,0,100000,0,2,34.723748,-118.280345,1.2,0.4,96,14.07566,0,39767200,0.096,260000,0
62015,Mustang Two,CA,Kings,CISO,180,36.216806,150000,0,2,36.216806,-119.896389,1.2,0.4,96,14.07566,0,39767200,0.096,260000,0
62016,UC Riverside Lots 30 & 32,CA,Riverside,CISO,180,10,4000,0,0,33.97036,-117.33099,1.2,0.4,96,14.07566,0,39767200,0.096,260000,0
62020,Stanford Campus Solar,CA,Santa Clara,CISO,215,5,3400,0,0,37.43434,-122.16077,1.2,0.4,96,14.07566,0,39767200,0.096,260000,0
62028,CSU Long Beach Lots 7 & 14,CA,Los Angeles,CISO,180,10,4500,0,0,33.78104,-118.11357,1.2,0.4,96,14.07566,0,39767200,0.096,260000,0
62039,Santa Rosa Junior College Petaluma Solar,CA,Sonoma,CISO,262,10,1200,0,0,38.46905,-122.72188,1.2,0.4,96,14.07566,0,39767200,0.096,260000,0
62052,Citizens Imperial Solar,CA,Imperial,IID,180,33.191661,30000,0,2,33.191661,-115.433783,1.2,0.4,96,14.07566,0,39767200,0.096,260000,0
62056,Lancaster,CA,Los Angeles,CISO,0,34.743383,3000,0,2,34.743383,-117.972222,1.2,0.4,96,14.07566,0,39767200,0.096,260000,0
62075,Pima Community College,AZ,Pima,TEPC,180,25,1100,0,0,32.166494,-110.816669,1.2,0.4,96,14.07566,0,39767200,0.096,260000,0
62077,Blue Shld Of Cal- El Dorado Hlls Mtr B,CA,El Dorado,BANC,180,10,1500,0,2,38.650627,-121.074115,1.2,0.4,96,14.07566,0,39767200,0.096,260000,0
62114,Roseville Solar,CA,Placer,BANC,10,38.791779,1000,0,2,38.791779,-121.385301,1.2,0.4,96,14.07566,0,39767200,0.096,260000,0
62149,Syncarpha Eagle Nest,NM,Colfax,PNM,180,0,1000,0,2,36.544166,-105.2772,1.2,0.4,96,14.07566,0,39767200,0.096,260000,0
62150,Chaffey College Rancho Cucamonga Campus,CA,San Bernardino,CISO,180,7,4000,0,0,34.148139,-117.570404,1.2,0.4,96,14.07566,0,39767200,0.096,260000,0
62151,Clif Bar Bakery of Twin Falls,ID,Twin Falls,IPCO,180,25,2000,0,0,42.540968,-114.412523,1.2,0.4,96,14.07566,0,39767200,0.096,260000,0
62169,Boring Solar LLC,OR,Clackamas,PGE,180,20,2200,0,0,45.431,-122.285,1.2,0.4,96,14.07566,0,39767200,0.096,260000,0
62170,Ballston Solar LLC,OR,Yamhill,PGE,180,20,2200,0,0,45.077,-123.395,1.2,0.4,96,14.07566,0,39767200,0.096,260000,0
62171,Labish Solar LLC,OR,Marion,PGE,180,20,2200,0,0,45.023,-122.922,1.2,0.4,96,14.07566,0,39767200,0.096,260000,0
62177,"Desert Harvest, LLC",CA,Riverside,CISO,180,33.8,80000,2,2,33.8,-115.38,1.2,0.4,96,14.07566,0,39767200,0.096,260000,0
62178,"Maverick Solar, LLC",CA,Riverside,CISO,180,33.7,125000,0,2,33.7,-115.38,1.2,0.4,96,14.07566,0,39767200,0.096,260000,0
62191,CNMEC Solar Energy Center,NM,Torrance,PNM,0,0,2000,0,2,34.783205,-106.051092,1.2,0.4,96,14.07566,0,39767200,0.096,260000,0
62224,Oak Leaf Solar XXVII LLC,CO,Weld,PSCO,0,40.44,1500,0,2,40.44,-104.64,1.2,0.4,96,14.07566,0,39767200,0.096,260000,0
62239,Oak Leaf Solar XXX LLC (CSG),CO,Alamosa,PSCO,0,37.453381,1500,0,2,37.453381,-105.878021,1.2,0.4,96,14.07566,0,39767200,0.096,260000,0
62241,NorWest Energy 9 LLC,OR,Umatilla,PACW,180,30,6000,0,0,45.917,-119.343,1.2,0.4,96,14.07566,0,39767200,0.096,260000,0
62242,County of San Diego SBRC,CA,San Diego,CISO,0,10,1300,0,2,32.63266,-117.07775,1.2,0.4,96,14.07566,0,39767200,0.096,260000,0
62243,Oak Leaf Solar XXI (CSG),CO,Arapahoe,PSCO,180,39.638,1500,0,2,39.638,-104.604,1.2,0.4,96,14.07566,0,39767200,0.096,260000,0
62244,Oak Leaf Solar XXXI LLC (CSG),CO,Mesa,PSCO,0,39.145,1500,0,2,39.145,-108.32,1.2,0.4,96,14.07566,0,39767200,0.096,260000,0
62245,Oak Leaf Solar XXV LLC (CSG),CO,Arapahoe,PSCO,180,39.637,1500,0,2,39.637,-104.529,1.2,0.4,96,14.07566,0,39767200,0.096,260000,0
62246,Target Woodland Solar Project,CA,Yolo,CISO,181,10,2300,0,0,38.682746,-121.723451,1.2,0.4,96,14.07566,0,39767200,0.096,260000,0
62251,Oak Leaf Solar XXXII (CSG),CO,Garfield,PSCO,180,52,1500,0,2,39.523,-107.815,1.2,0.4,96,14.07566,0,39767200,0.096,260000,0
62252,Oak Leaf Solar XXII LLC (CSG),CO,Denver,PSCO,180,39.904373,1500,0,2,39.904373,-104.6848,1.2,0.4,96,14.07566,0,39767200,0.096,260000,0
62253,Oak Leaf Solar XXIV LLC (CSG),CO,Arapahoe,PSCO,180,39.637,1500,0,2,39.637,-104.561,1.2,0.4,96,14.07566,0,39767200,0.096,260000,0
62254,Oak Leaf Solar XXVI LLC,CO,Denver,PSCO,180,39.899,1500,0,2,39.899,-104.659,1.2,0.4,96,14.07566,0,39767200,0.096,260000,0
62255,Oak Leaf Solar XXVIII LLC (CSG),CO,Weld,PSCO,180,40.237,1500,0,2,40.237,-104.779,1.2,0.4,96,14.07566,0,39767200,0.096,260000,0
62256,Oak Leaf Solar XXIII LLC (CSG),CO,Adams,PSCO,180,39.80165,1500,0,2,39.80165,-104.62146,1.2,0.4,96,14.07566,0,39767200,0.096,260000,0
62260,Trout Creek Solar,CO,Chaffee,PSCO,180,0,2000,0,2,38.8151,-106.1104,1.2,0.4,96,14.07566,0,39767200,0.096,260000,0
62268,"NorWest Energy 4, LLC",OR,Klamath,PACW,0,42.695,5600,0,2,42.695,-121.614,1.2,0.4,96,14.07566,0,39767200,0.096,260000,0
62272,Bly Solar Center,OR,Klamath,PACW,80,42.392193,8000,0,2,42.392193,-121.024494,1.2,0.4,96,14.07566,0,39767200,0.096,260000,0
62274,Liberty HS Solar Project,CA,Kern,CISO,0,0,1500,0,2,35.364408,-119.127496,1.2,0.4,96,14.07566,0,39767200,0.096,260000,0
62275,Frontier HS Solar Project,CA,Kern,CISO,0,0,1400,0,2,35.41824,-119.14888,1.2,0.4,96,14.07566,0,39767200,0.096,260000,0
62286,Xebec 1,CA,Los Angeles,LDWP,180,10,1900,2,0,34.224041,-118.392921,1.2,0.4,96,14.07566,0,39767200,0.096,260000,0
62287,Francisco St. Solar,CA,Los Angeles,LDWP,180,10,1200,0,0,33.8482,-118.3055,1.2,0.4,96,14.07566,0,39767200,0.096,260000,0
62288,"Valentine Solar, LLC",CA,Kern,CISO,0,34.90422,111200,2,2,34.90422,-118.384341,1.2,0.4,96,14.07566,0,39767200,0.096,260000,0
62376,Grazing Yak Solar,CO,El Paso,WACM,180,38.977759,35000,0,2,38.977759,-104.252715,1.2,0.4,96,14.07566,0,39767200,0.096,260000,0
62378,CFW Solar X LLC - Vaughn,CA,Los Angeles,LDWP,180,10,1600,0,0,34.277355,-118.429836,1.2,0.4,96,14.07566,0,39767200,0.096,260000,0
62399,Sage Solar I-III,UT,Rich,PACE,0,41.77,57600,2,2,41.77,-111.06,1.2,0.4,96,14.07566,0,39767200,0.096,260000,0
62406,City of Gallup Solar,NM,McKinley,PNM,180,0,8000,0,2,35.52236,-108.778791,1.2,0.4,96,14.07566,0,39767200,0.096,260000,0
62440,Techren Solar V,NV,Clark,NEVP,180,35.899694,50000,0,2,35.899694,-114.92625,1.2,0.4,96,14.07566,0,39767200,0.096,260000,0
62463,Little Bear 3,CA,Fresno,CISO,180,0,20000,2,2,36.716,-120.415,1.2,0.4,96,14.07566,0,39767200,0.096,260000,0
62464,Little Bear 4,CA,Fresno,CISO,180,0,50000,2,0,36.716,-120.415,1.2,0.4,96,14.07566,0,39767200,0.096,260000,0
62465,Little Bear 5,CA,Fresno,CISO,180,0,50000,2,0,36.716,-120.415,1.2,0.4,96,14.07566,0,39767200,0.096,260000,0
62467,Vista Solar Energy Center,NM,Valencia,PNM,180,0,10000,0,2,34.741,-106.655,1.2,0.4,96,14.07566,0,39767200,0.096,260000,0
62469,Cove Mountain Solar,UT,Iron,PACE,2,37.623123,58000,2,2,37.623123,-113.619219,1.2,0.4,96,14.07566,0,39767200,0.096,260000,0
62470,Cove Mountain Solar 2,UT,Iron,PACE,2,37.638602,122000,2,2,37.638602,-113.637097,1.2,0.4,96,14.07566,0,39767200,0.096,260000,0
62495,Palmer Solar,CO,El Paso,WACM,180,38.6299,60000,0,2,38.6299,-104.6526,1.2,0.4,96,14.07566,0,39767200,0.096,260000,0
62545,Renew Solar ABC Sacramento LLC,CA,Sacramento,BANC,180,52,1700,0,0,38.39945,-121.29319,1.2,0.4,96,14.07566,0,39767200,0.096,260000,0
62547,Aquamarine,CA,Kings,CISO,180,0,250000,0,2,36.189722,-119.904166,1.2,0.4,96,14.07566,0,39767200,0.096,260000,0
62560,Airport Solar,OR,Lake,PACW,90,42.170176,47300,0,2,42.170176,-120.402317,1.2,0.4,96,14.07566,0,39767200,0.096,260000,0
62578,Preferred Freezer San Leandro,CA,Alameda,CISO,228,5,2000,0,0,37.711995,-122.150665,1.2,0.4,96,14.07566,0,39767200,0.096,260000,0
62597,Rio De Oro Solar Energy Center,NM,Valencia,PNM,180,0,10000,0,2,34.692,-106.688,1.2,0.4,96,14.07566,0,39767200,0.096,260000,0
62611,PFMG Solar Grossmont Helix LLC,CA,San Diego,CISO,236,5,1200,0,0,32.753281,-117.035241,1.2,0.4,96,14.07566,0,39767200,0.096,260000,0
62636,NVSS-II,NV,Nye,NEVP,180,30,15000,0,0,36.275051,-115.972329,1.2,0.4,96,14.07566,0,39767200,0.096,260000,0
62643,AZ State University - Tempe Campus Solar,AZ,Maricopa,AZPS,180,20,2400,0,0,33.424279,-111.92822,1.2,0.4,96,14.07566,0,39767200,0.096,260000,0
62649,SFDK Solar,CA,Solano,CISO,9,5,6300,0,0,38.132245,-122.231965,1.2,0.4,96,14.07566,0,39767200,0.096,260000,0
62655,HL Solar,CA,Lassen,CISO,180,40.373,7600,0,2,40.373,-120.262,1.2,0.4,96,14.07566,0,39767200,0.096,260000,0
62656,Hunter Solar LLC (UT),UT,Emery,PACE,90,39.142217,100000,0,2,39.142217,-111.051111,1.2,0.4,96,14.07566,0,39767200,0.096,260000,0
62663,Gilcrest Solar,CO,Weld,WACM,180,40.289366,1500,0,2,40.289366,-104.783613,1.2,0.4,96,14.07566,0,39767200,0.096,260000,0
62664,Quincy Solar,CO,Arapahoe,WACM,180,39.63838,1500,0,2,39.63838,-104.562645,1.2,0.4,96,14.07566,0,39767200,0.096,260000,0
62666,Sigurd Solar LLC,UT,Sevier,PACE,90,38.850544,80000,0,2,38.850544,-112.005212,1.2,0.4,96,14.07566,0,39767200,0.096,260000,0
62667,Lafayette Horizon Solar CSG LLC,CO,Boulder,PSCO,180,39.981606,1600,2,2,39.981606,-105.063747,1.2,0.4,96,14.07566,0,39767200,0.096,260000,0
62673,Antelope Expansion 3A,CA,Los Angeles,CISO,0,0,15000,0,2,34.728902,-118.322051,1.2,0.4,96,14.07566,0,39767200,0.096,260000,0
62674,Antelope Expansion 3B,CA,Los Angeles,CISO,0,0,5000,0,2,34.720162,-118.322532,1.2,0.4,96,14.07566,0,39767200,0.096,260000,0
62687,American Canyon Solar,CA,Napa,CISO,180,52,3000,0,2,38.160858,-122.214014,1.2,0.4,96,14.07566,0,39767200,0.096,260000,0
62688,Malech Solar Farm,CA,Santa Clara,CISO,180,10,3100,0,0,37.228736,-121.738616,1.2,0.4,96,14.07566,0,39767200,0.096,260000,0
62689,Hellyer Solar Farm,CA,Santa Clara,CISO,180,10,2200,0,0,37.286958,-121.81508,1.2,0.4,96,14.07566,0,39767200,0.096,260000,0
62690,Guadalupe Solar Farm,CA,Santa Clara,CISO,180,10,1700,0,0,37.269039,-121.861079,1.2,0.4,96,14.07566,0,39767200,0.096,260000,0
62718,Mesa CSG 2 Massicotte,CO,Mesa,PSCO,180,30,1500,0,0,39.044814,-108.419672,1.2,0.4,96,14.07566,0,39767200,0.096,260000,0
62719,Mesa CSG 1 Murdock,CO,Mesa,PSCO,0,0,1500,0,2,39.108785,-108.64387,1.2,0.4,96,14.07566,0,39767200,0.096,260000,0
62732,"Solar Star Palo Alto I, LLC",CA,Santa Clara,CISO,85,10,1300,0,0,37.411011,-122.148864,1.2,0.4,96,14.07566,0,39767200,0.096,260000,0
62756,RC Energy AA LLC Solar Facility,NM,Bernalillo,PNM,180,30,1000,0,0,35.152721,-106.547222,1.2,0.4,96,14.07566,0,39767200,0.096,260000,0
62805,Bloomington Solar I,UT,Washington,PACE,180,20,2000,0,0,37.043828,-113.627523,1.2,0.4,96,14.07566,0,39767200,0.096,260000,0
62806,Shelter Creek Condominiums Solar,CA,San Mateo,CISO,150,15,2500,0,0,37.61909,-122.4289,1.2,0.4,96,14.07566,0,39767200,0.096,260000,0
62812,Milford Solar 1,UT,Beaver,PACE,180,38.490667,99000,2,2,38.490667,-113.018283,1.2,0.4,96,14.07566,0,39767200,0.096,260000,0
62877,Amazon Denver DEN3,CO,Adams,PSCO,180,5,4600,0,0,39.885061,-104.982339,1.2,0.4,96,14.07566,0,39767200,0.096,260000,0
62899,East Line Solar,AZ,Pinal,SRP,180,32.84703,100000,2,2,32.84703,-111.565072,1.2,0.4,96,14.07566,0,39767200,0.096,260000,0
62902,Windsor Floating Solar,CA,Sonoma,CISO,180,12,1500,0,0,38.53917,-122.81508,1.2,0.4,96,14.07566,0,39767200,0.096,260000,0
62980,Turquoise Liberty Solar,NV,Washoe,NEVP,0,-4,10000,2,2,39.59,-119.52,1.2,0.4,96,14.07566,0,39767200,0.096,260000,0
62987,Grossmont HS Solar Project,CA,San Diego,CISO,219,10,1400,0,0,32.816542,-116.999589,1.2,0.4,96,14.07566,0,39767200,0.096,260000,0
62988,Wildflower Solar 1,CA,Sacramento,BANC,180,60,13000,0,2,38.705,-121.477,1.2,0.4,96,14.07566,0,39767200,0.096,260000,0
62994,Bluewater CDEC 1,NM,Cibola,PNM,180,52,2400,0,2,35.24102,-107.952296,1.2,0.4,96,14.07566,0,39767200,0.096,260000,0
62995,Grants CDEC 2,NM,Cibola,PNM,180,52,4500,0,2,35.14,-107.821,1.2,0.4,96,14.07566,0,39767200,0.096,260000,0
63021,SCCCD - Clovis Community College,CA,Fresno,CISO,269,7,1300,0,0,36.885463,-119.731899,1.2,0.4,96,14.07566,0,39767200,0.096,260000,0
63031,Gloucester Solar,VA,Gloucester,PJM,9,0,19900,0,2,37.45,-76.45,1.2,0.4,96,14.07566,0,39767200,0.096,260000,0
63049,Prineville Solar Energy LLC,OR,Crook,PACW,180,44.163296,46200,0,2,44.163296,-120.524077,1.2,0.4,96,14.07566,0,39767200,0.096,260000,0
63050,Millican Solar Energy LLC,OR,Crook,PACW,180,44.154107,71400,0,2,44.154107,-120.53409,1.2,0.4,96,14.07566,0,39767200,0.096,260000,0
63054,CalCity Solar 1,CA,Kern,CISO,180,30,3000,0,2,35.141374,-117.965748,1.2,0.4,96,14.07566,0,39767200,0.096,260000,0
63068,SCCCD - Fresno Community College,CA,Fresno,CISO,180,7,2200,0,0,36.76655,-119.79858,1.2,0.4,96,14.07566,0,39767200,0.096,260000,0
63074,Reedley Community College Solar,CA,Fresno,CISO,180,7,2600,0,0,36.60563,-119.4577,1.2,0.4,96,14.07566,0,39767200,0.096,260000,0
63078,Eagle Creek,CA,Kern,CISO,180,0,3000,0,2,35.214023,-119.39522,1.2,0.4,96,14.07566,0,39767200,0.096,260000,0
63080,Harry Allen Solar Energy LLC,NV,Clark,NEVP,180,36.43395,100000,0,2,36.43395,-114.9471,1.2,0.4,96,14.07566,0,39767200,0.096,260000,0
63081,San Miguel I Solar Energy Center,NM,San Miguel,PNM,180,0,10000,0,2,35.63457,-105.1784,1.2,0.4,96,14.07566,0,39767200,0.096,260000,0
63082,San Miguel II Solar Energy Center,NM,San Miguel,PNM,180,0,10000,0,2,35.63471,-105.1732,1.2,0.4,96,14.07566,0,39767200,0.096,260000,0
63091,UC Santa Cruz Solar,CA,Santa Cruz,CISO,200,7,1800,0,0,36.9911,-122.0532,1.2,0.4,96,14.07566,0,39767200,0.096,260000,0
63123,Syncarpha Taos,NM,Taos,PNM,180,36.371326,3100,0,2,36.371326,-105.660152,1.2,0.4,96,14.07566,0,39767200,0.096,260000,0
63124,Syncarpha El Rito,NM,Rio Arriba,PNM,180,36.331724,1600,0,2,36.331724,-106.190105,1.2,0.4,96,14.07566,0,39767200,0.096,260000,0
63125,Syncarpha Questa,NM,Taos,PNM,180,36.810668,1600,0,2,36.810668,-105.588421,1.2,0.4,96,14.07566,0,39767200,0.096,260000,0
63163,Tom Sifers Solar,CO,Grand,WACM,180,39.959166,1000,0,2,39.959166,-105.846,1.2,0.4,96,14.07566,0,39767200,0.096,260000,0
63164,Whiskey Hill Solar,CO,Jackson,WACM,180,40.8125,1000,0,2,40.8125,-106.289722,1.2,0.4,96,14.07566,0,39767200,0.096,260000,0
63184,Rio Rancho Solar Energy Center,NM,Bernalillo,PNM,180,0,10000,0,2,35.10476,-106.48237,1.2,0.4,96,14.07566,0,39767200,0.096,260000,0
63189,Bio-Rad,CA,Contra Costa,CISO,180,15,2500,0,0,38.022486,-122.273663,1.2,0.4,96,14.07566,0,39767200,0.096,260000,0
63204,CID Solar (CA),CA,Kings,CISO,180,36.140764,2000,0,2,36.140764,-119.566896,1.2,0.4,96,14.07566,0,39767200,0.096,260000,0
63206,Rafael Solar,OR,Marion,PGE,180,20,2200,0,0,44.859838,-123.007913,1.2,0.4,96,14.07566,0,39767200,0.096,260000,0
63207,Case Creek Solar,OR,Marion,PGE,180,20,2200,0,0,45.172,-122.912,1.2,0.4,96,14.07566,0,39767200,0.096,260000,0
63208,Kale Patch Solar,OR,Marion,PGE,180,20,2200,0,0,45.083,-122.904,1.2,0.4,96,14.07566,0,39767200,0.096,260000,0
63235,O'Neill Creek Solar,OR,Washington,PGE,180,20,2200,0,0,45.472,-123.129,1.2,0.4,96,14.07566,0,39767200,0.096,260000,0
63276,Mtn. Solar 1,CO,Adams,PSCO,0,0,1500,0,2,39.777621,-104.58591,1.2,0.4,96,14.07566,0,39767200,0.096,260000,0
63277,Mtn. Solar 2,CO,Adams,PSCO,0,0,1500,0,2,39.766772,-104.59054,1.2,0.4,96,14.07566,0,39767200,0.096,260000,0
63278,CO LI CSG 1 - Kamerra,CO,Adams,PSCO,0,0,1500,0,2,39.784879,-104.583391,1.2,0.4,96,14.07566,0,39767200,0.096,260000,0
63301,Garrett Solar,OR,Lake,PACW,0,42.16,10000,0,2,42.16,-120.4,1.2,0.4,96,14.07566,0,39767200,0.096,260000,0
63303,Alticor Inc - Solar Project,CA,Orange,CISO,180,10,1200,0,0,33.878585,-117.99608,1.2,0.4,96,14.07566,0,39767200,0.096,260000,0
63330,"Duus Solar, LLC",OR,Clackamas,PGE,180,45.35,10000,0,2,45.35,-122.35,1.2,0.4,96,14.07566,0,39767200,0.096,260000,0
63331,"Firwood Solar, LLC",OR,Clackamas,PGE,180,45.35,10000,0,2,45.35,-122.25,1.2,0.4,96,14.07566,0,39767200,0.096,260000,0
63344,Starvation,OR,Harney,BPAT,180,55,9900,0,2,43.50222,-119.14852,1.2,0.4,96,14.07566,0,39767200,0.096,260000,0
63349,OE_AZ1,AZ,La Paz,WALC,180,0,32500,2,2,33.776667,-113.656111,1.2,0.4,96,14.07566,0,39767200,0.096,260000,0
63361,Medline Ind. Phase 2 Tracy,CA,San Joaquin,CISO,180,10,1000,0,0,37.734761,-121.508945,1.2,0.4,96,14.07566,0,39767200,0.096,260000,0
63363,Niagara Bottling Stockton,CA,San Joaquin,CISO,222,5,1000,0,0,37.894817,-121.24891,1.2,0.4,96,14.07566,0,39767200,0.096,260000,0
63376,Phelan Pinon Hills CSD Solar,CA,San Bernardino,CISO,180,10,1200,0,0,34.57654,-117.58281,1.2,0.4,96,14.07566,0,39767200,0.096,260000,0
63379,Mtn. Solar 3 CSG,CO,Morgan,PSCO,0,0,1500,0,2,40.280904,-103.61911,1.2,0.4,96,14.07566,0,39767200,0.096,260000,0
63385,Castaic Lake Phase II,CA,Los Angeles,CISO,90,60,3500,0,2,34.433332,-118.510837,1.2,0.4,96,14.07566,0,39767200,0.096,260000,0
63387,"Rancho Seco Solar II, LLC",CA,Sacramento,BANC,210,20,160000,0,0,38.346814,-121.119839,1.2,0.4,96,14.07566,0,39767200,0.096,260000,0
63391,City of Rio Rancho WWTP,NM,Sandoval,PNM,0,30,1200,0,0,35.179889,-106.806583,1.2,0.4,96,14.07566,0,39767200,0.096,260000,0
63414,IOS II-LAX9,CA,San Bernardino,CISO,180,10,4000,0,0,34.09,-117.45,1.2,0.4,96,14.07566,0,39767200,0.096,260000,0
63416,Sierra Pacific Industries (2042-RD),CA,Tehama,CISO,180,25,8400,0,0,40.121389,-122.191944,1.2,0.4,96,14.07566,0,39767200,0.096,260000,0
63418,DGS Wasco State Prison,CA,Kern,CISO,180,7,2300,0,0,35.593903,-119.407215,1.2,0.4,96,14.07566,0,39767200,0.096,260000,0
63419,DGS Central California Womens Facility,CA,Madera,CISO,225,7,2000,0,0,37.089701,-120.149966,1.2,0.4,96,14.07566,0,39767200,0.096,260000,0
63420,Fresno Bullard High School Hybrid,CA,Fresno,CISO,180,7,1200,0,0,36.818646,-119.810408,1.2,0.4,96,14.07566,0,39767200,0.096,260000,0
63421,Fresno Hoover High School Hybrid,CA,Fresno,CISO,270,7,1200,0,2,36.817816,-119.770709,1.2,0.4,96,14.07566,0,39767200,0.096,260000,0
63422,Fresno Sunnyside High School Hybrid,CA,Fresno,CISO,270,7,1600,0,2,36.734014,-119.717809,1.2,0.4,96,14.07566,0,39767200,0.096,260000,0
63440,Sun Streams 2,AZ,Maricopa,CISO,0,33.320406,150000,2,2,33.320406,-112.816771,1.2,0.4,96,14.07566,0,39767200,0.096,260000,0
63442,Tickle Creek Solar,OR,Clackamas,PGE,180,45.375,1900,0,2,45.375,-122.265,1.2,0.4,96,14.07566,0,39767200,0.096,260000,0
63443,Thomas Creek Solar,OR,Clackamas,PGE,180,45.131407,2200,0,2,45.131407,-122.619475,1.2,0.4,96,14.07566,0,39767200,0.096,260000,0
63455,RE-VFO LLC,CA,Tulare,CISO,90,45,1000,0,2,36.353675,-119.400823,1.2,0.4,96,14.07566,0,39767200,0.096,260000,0
63456,St Louis Solar,OR,Marion,PGE,180,45.11994,2200,0,2,45.11994,-122.9361,1.2,0.4,96,14.07566,0,39767200,0.096,260000,0
63462,Pika Solar,OR,Marion,PGE,180,60,2200,0,2,45.089244,-122.7705,1.2,0.4,96,14.07566,0,39767200,0.096,260000,0
63464,Brush Creek Solar,OR,Marion,PGE,180,44.984217,2200,0,2,44.984217,-122.813127,1.2,0.4,96,14.07566,0,39767200,0.096,260000,0
63465,Minke Solar,OR,Clackamas,PGE,180,60,2200,0,2,45.172332,-122.622665,1.2,0.4,96,14.07566,0,39767200,0.096,260000,0
63466,Drift Creek Solar,OR,Marion,PGE,0,25,2200,0,0,44.970572,-122.803509,1.2,0.4,96,14.07566,0,39767200,0.096,260000,0
63467,Bighorn Solar,OR,Marion,PGE,180,60,2200,0,2,44.965702,-122.954234,1.2,0.4,96,14.07566,0,39767200,0.096,260000,0
63476,Saint Solar,AZ,Pinal,SRP,90,32.866276,100000,2,2,32.866276,-111.502402,1.2,0.4,96,14.07566,0,39767200,0.096,260000,0
63477,Alcalde Solar Array,NM,Rio Arriba,PNM,180,36.091143,2400,0,2,36.091143,-106.040879,1.2,0.4,96,14.07566,0,39767200,0.096,260000,0
63486,D'Arrigo Brothers - Phase 4,CA,Monterey,CISO,180,20,1700,0,2,36.616,-121.636,1.2,0.4,96,14.07566,0,39767200,0.096,260000,0
63493,PSREC/SIAD Solar,CA,Lassen,CISO,0,0,2500,0,2,40.15006,-120.123352,1.2,0.4,96,14.07566,0,39767200,0.096,260000,0
63504,"Copper Mountain Solar 5, LLC",NV,Clark,NEVP,0,52,252000,0,2,35.776286,-114.973676,1.2,0.4,96,14.07566,0,39767200,0.096,260000,0
63510,Walnut Unified School District Walnut HS Hybrid,CA,Los Angeles,CISO,260,5,1800,0,0,34.02188,-117.85051,1.2,0.4,96,14.07566,0,39767200,0.096,260000,0
63514,Moonlight Packing - Phase 2,CA,Fresno,CISO,180,20,1400,0,0,36.585794,-119.469986,1.2,0.4,96,14.07566,0,39767200,0.096,260000,0
63516,California City,CA,Kern,CISO,180,35.157,1900,0,2,35.157,-117.981,1.2,0.4,96,14.07566,0,39767200,0.096,260000,0
63527,Lafayette 2 - Internal Services Dept,CA,Los Angeles,CISO,225,4.8,1900,0,0,34.05,-118.18,1.2,0.4,96,14.07566,0,39767200,0.096,260000,0
63531,Pima Community College NW,AZ,Pima,TEPC,145,14,1300,0,0,32.343491,-111.02786,1.2,0.4,96,14.07566,0,39767200,0.096,260000,0
63536,Amazon DEN2 Solar Project,CO,Adams,PSCO,183,10,1200,0,0,39.75,-104.75,1.2,0.4,96,14.07566,0,39767200,0.096,260000,0
63545,Chevron - Lost Hills Hybrid,CA,Kern,CISO,180,61.5,30000,0,2,35.62,-119.69,1.2,0.4,96,14.07566,0,39767200,0.096,260000,0
63554,Mohave Electric Cooperative at Joy Lane,AZ,Mohave,WALC,180,34.9843,10000,0,2,34.9843,-114.5565,1.2,0.4,96,14.07566,0,39767200,0.096,260000,0
63579,Britton Solar Energy Center,NM,Torrance,PNM,180,0,50000,0,2,35.016,-106.098,1.2,0.4,96,14.07566,0,39767200,0.096,260000,0
63586,SR Kersey II,CO,Weld,WACM,60,40.386223,1000,0,2,40.386223,-104.554038,1.2,0.4,96,14.07566,0,39767200,0.096,260000,0
63587,SR Skylark C,CO,Weld,WACM,60,40.575118,1100,0,2,40.575118,-104.89577,1.2,0.4,96,14.07566,0,39767200,0.096,260000,0
63623,Lafayette 2 - MLK Jr. Hospital (MLK),CA,Los Angeles,CISO,180,10,1700,0,0,33.92,-118.24,1.2,0.4,96,14.07566,0,39767200,0.096,260000,0
63630,Pleasanton - Amador Valley High School,CA,Alameda,CISO,8,5,1100,0,0,37.662431,-121.874678,1.2,0.4,96,14.07566,0,39767200,0.096,260000,0
63636,Fort Rock I,OR,Lake,BPAT,180,60,9900,0,2,43.320081,-121.003496,1.2,0.4,96,14.07566,0,39767200,0.096,260000,0
63642,Dunn Road Solar,OR,Clackamas,PGE,180,45.431,1800,0,2,45.431,-122.286,1.2,0.4,96,14.07566,0,39767200,0.096,260000,0
63651,North Kern State Prison Phase II,CA,Kern,CISO,180,0,4000,0,2,35.780407,-119.30875,1.2,0.4,96,14.07566,0,39767200,0.096,260000,0
63663,Mt Hope Solar,OR,Clackamas,PGE,180,45.12795,2500,0,2,45.12795,-122.61382,1.2,0.4,96,14.07566,0,39767200,0.096,260000,0
63664,Williams Acres Solar,OR,Marion,PGE,180,45.137,2500,0,2,45.137,-122.799,1.2,0.4,96,14.07566,0,39767200,0.096,260000,0
63674,Dedeaux,CA,Los Angeles,LDWP,180,15,900,0,0,34.013113,-118.241894,1.2,0.4,96,14.07566,0,39767200,0.096,260000,0
63681,Oak Leaf Solar XXXIII LLC (Lantz),CO,Chaffee,PSCO,180,52,3000,0,2,38.5357,-106.0753,1.2,0.4,96,14.07566,0,39767200,0.096,260000,0
63694,"Butler Solar, LLC",OR,Yamhill,PGE,180,45.101804,4000,0,2,45.101804,-123.410102,1.2,0.4,96,14.07566,0,39767200,0.096,260000,0
63722,Rawhide Prairie Solar Hybrid,CO,Larimer,PSCO,180,40.857978,22000,0,0,40.857978,-105.015561,1.2,0.4,96,14.07566,0,39767200,0.096,260000,0
63727,Slate Hybrid,CA,Kings,CISO,180,0,50500,0,2,36.226955,-119.8948,1.2,0.4,96,14.07566,0,39767200,0.096,260000,0
63753,"Platteville Solar CSG, LLC",CO,Weld,PSCO,180,52,1300,2,2,40.22833,-104.77471,1.2,0.4,96,14.07566,0,39767200,0.096,260000,0
63758,Kroger La Habra,CA,Orange,CISO,180,10,1200,0,0,33.917918,-117.939825,1.2,0.4,96,14.07566,0,39767200,0.096,260000,0
63759,Ballenger Road Solar A,SC,Spartanburg,DUK,180,35.04354,2000,0,2,35.04354,-82.112843,1.2,0.4,96,14.07566,0,39767200,0.096,260000,0
63761,Soscol Ferry Solar,CA,Napa,CISO,180,38.237422,2000,0,2,38.237422,-122.275184,1.2,0.4,96,14.07566,0,39767200,0.096,260000,0
63762,Silveira Ranch Road Solar,CA,Marin,CISO,209,20,3000,0,0,38.153474,-122.56565,1.2,0.4,96,14.07566,0,39767200,0.096,260000,0
63770,Bighorn Solar 1,CO,Pueblo,PSCO,180,38.207518,240000,2,2,38.207518,-104.596708,1.2,0.4,96,14.07566,0,39767200,0.096,260000,0
63778,"Suntex Solar, LLC",OR,Harney,BPAT,180,43.56149,10000,0,2,43.56149,-119.68621,1.2,0.4,96,14.07566,0,39767200,0.096,260000,0
63779,"Rock Garden Solar, LLC",OR,Lake,BPAT,180,43.39691,10000,0,2,43.39691,-120.93038,1.2,0.4,96,14.07566,0,39767200,0.096,260000,0
63795,"Alkali Solar, LLC",OR,Lake,BPAT,180,43.31942,10000,0,2,43.31942,-121.0035,1.2,0.4,96,14.07566,0,39767200,0.096,260000,0
63796,"West Hines Solar I, LLC",OR,Harney,BPAT,180,43.50259,10000,0,2,43.50259,-119.14713,1.2,0.4,96,14.07566,0,39767200,0.096,260000,0
63859,"Golden Field Solar III, LLC",CA,Kern,CISO,180,34.847,192000,0,2,34.847,-118.395,1.2,0.4,96,14.07566,0,39767200,0.096,260000,0
63860,Encino Solar Energy Center,NM,Sandoval,PNM,180,0,55000,0,2,35.354,-106.858,1.2,0.4,96,14.07566,0,39767200,0.096,260000,0
63869,IBM Solar,CO,Boulder,PSCO,180,52,8100,0,2,40.038266,-105.244892,1.2,0.4,96,14.07566,0,39767200,0.096,260000,0
63906,"Turquoise Nevada, LLC",NV,Washoe,NEVP,180,25,60000,0,0,39.57395,-119.5242,1.2,0.4,96,14.07566,0,39767200,0.096,260000,0
63908,SulusSolar17,OR,Clackamas,PGE,180,25,3100,0,0,45.34891,-122.433515,1.2,0.4,96,14.07566,0,39767200,0.096,260000,0
63925,Riley,OR,Harney,BPAT,180,60,10000,0,2,43.5559,-119.6852,1.2,0.4,96,14.07566,0,39767200,0.096,260000,0
63926,Fort Rock IV,OR,Lake,BPAT,180,60,10000,0,2,43.38988,-120.956087,1.2,0.4,96,14.07566,0,39767200,0.096,260000,0
63928,Vacaville Hospital,CA,Solano,CISO,269,5,1500,0,0,38.38867,-121.93864,1.2,0.4,96,14.07566,0,39767200,0.096,260000,0
63932,Titan Solar 1 (CA),CA,Imperial,CISO,15,33.101555,70000,0,2,33.101555,-116.010024,1.2,0.4,96,14.07566,0,39767200,0.096,260000,0
63940,Central 40,CA,Stanislaus,CISO,180,37.246,40000,0,2,37.246,-121.104,1.2,0.4,96,14.07566,0,39767200,0.096,260000,0
63947,DGS Valley State Prison,CA,Madera,CISO,225,7,2300,0,0,37.10117,-120.153072,1.2,0.4,96,14.07566,0,39767200,0.096,260000,0
63956,"Palmer Creek Solar, LLC",OR,Yamhill,PGE,0,25,2300,0,0,45.18484,-123.10175,1.2,0.4,96,14.07566,0,39767200,0.096,260000,0
63957,"Day Hill Solar, LLC",OR,Clackamas,PGE,0,20,2300,0,0,45.26866,-122.32942,1.2,0.4,96,14.07566,0,39767200,0.096,260000,0
63958,"SSD Marion 3, LLC",OR,Marion,PGE,180,0,2000,0,2,44.985,-122.938,1.2,0.4,96,14.07566,0,39767200,0.096,260000,0
63959,"SSD Marion 5, LLC",OR,Marion,PGE,180,0,2000,0,2,45.11601,-122.793791,1.2,0.4,96,14.07566,0,39767200,0.096,260000,0
63960,"SSD Marion 6, LLC",OR,Marion,PGE,180,0,2000,0,2,45.254,-122.806,1.2,0.4,96,14.07566,0,39767200,0.096,260000,0
63961,"SSD Clackamas 1, LLC",OR,Clackamas,PGE,180,0,4000,0,2,45.42,-122.333,1.2,0.4,96,14.07566,0,39767200,0.096,260000,0
63962,"SSD Clackamas 4, LLC",OR,Clackamas,PGE,180,0,2000,0,2,45.102,-122.662,1.2,0.4,96,14.07566,0,39767200,0.096,260000,0
63963,"SSD Clackamas 7, LLC",OR,Clackamas,PGE,180,0,2000,0,2,45.182,-122.591,1.2,0.4,96,14.07566,0,39767200,0.096,260000,0
63964,"SSD Marion 1, LLC",OR,Marion,PGE,180,45.139507,2000,0,2,45.139507,-122.904499,1.2,0.4,96,14.07566,0,39767200,0.096,260000,0
63969,SulusSolar35,OR,Clackamas,PGE,5,25,3000,0,0,45.140551,-122.649655,1.2,0.4,96,14.07566,0,39767200,0.096,260000,0
63986,Rialto - High School,CA,San Bernardino,CISO,180,7,900,0,0,34.090318,-117.355604,1.2,0.4,96,14.07566,0,39767200,0.096,260000,0
63993,FTF-PackingShed,CA,Tulare,CISO,180,25,1000,0,0,36.546901,-119.430179,1.2,0.4,96,14.07566,0,39767200,0.096,260000,0
63994,Firebaugh-CCS-PV-1,CA,Fresno,CISO,180,25,1000,0,0,36.734667,-120.612773,1.2,0.4,96,14.07566,0,39767200,0.096,260000,0
64006,SulusSolar33,OR,Yamhill,PGE,185,25,3000,0,0,45.08,-123.4,1.2,0.4,96,14.07566,0,39767200,0.096,260000,0
64007,SulusSolar28,OR,Yamhill,PGE,180,25,3000,0,0,45.1,-123.52,1.2,0.4,96,14.07566,0,39767200,0.096,260000,0
64008,MilfordSolar OR,OR,Washington,PGE,180,25,3000,0,0,45.57,-123.05,1.2,0.4,96,14.07566,0,39767200,0.096,260000,0
64009,BristolSolar,OR,Marion,PGE,180,25,3000,0,0,45.15,-122.79,1.2,0.4,96,14.07566,0,39767200,0.096,260000,0
64021,Alden Solar CSG LLC,CO,Weld,PSCO,0,52,1600,2,2,40.45633,-104.58107,1.2,0.4,96,14.07566,0,39767200,0.096,260000,0
64022,SulusSolar22,OR,Marion,PGE,180,25,3000,0,0,44.97,-122.78,1.2,0.4,96,14.07566,0,39767200,0.096,260000,0
64024,"Monte Vista Solar 2 CSG, LLC",CO,Rio Grande,PSCO,180,52,1600,2,2,37.57176,-106.09988,1.2,0.4,96,14.07566,0,39767200,0.096,260000,0
64028,San Diego - EMDF at San Diego,CA,San Diego,CISO,201,7,2900,0,0,32.590258,-116.91949,1.2,0.4,96,14.07566,0,39767200,0.096,260000,0
64031,"Fremont CO 1, LLC",CO,Fremont,PSCO,180,52,1800,0,2,38.46446,-105.21246,1.2,0.4,96,14.07566,0,39767200,0.096,260000,0
64033,GreenparkSolar,OR,Marion,PGE,185,25,1300,0,0,44.879414,-122.937451,1.2,0.4,96,14.07566,0,39767200,0.096,260000,0
64034,SulusSolar25,OR,Marion,PGE,180,25,2200,0,0,45.27,-122.82,1.2,0.4,96,14.07566,0,39767200,0.096,260000,0
64048,SulusSolar29,OR,Clackamas,PGE,180,25,2600,0,0,45.46,-122.29,1.2,0.4,96,14.07566,0,39767200,0.096,260000,0
64049,San Diego - NCRC at Vista,CA,San Diego,CISO,178,7,1800,0,0,33.190283,-117.255584,1.2,0.4,96,14.07566,0,39767200,0.096,260000,0
64055,Wonderful Orchards - New Columbia,CA,Madera,CISO,35,36.8249,5000,0,2,36.8249,-120.317876,1.2,0.4,96,14.07566,0,39767200,0.096,260000,0
64098,Tesla Reno GigaFactory,NV,Storey,NEVP,180,25,1800,0,0,39.539511,-119.439158,1.2,0.4,96,14.07566,0,39767200,0.096,260000,0
64103,Desert Harvest II LLC,CA,Riverside,CISO,180,33.8,70000,2,2,33.8,-115.38,1.2,0.4,96,14.07566,0,39767200,0.096,260000,0
64105,"Maverick Solar 6, LLC",CA,Riverside,CISO,180,60,100000,0,2,33.7,-115.38,1.2,0.4,96,14.07566,0,39767200,0.096,260000,0
64152,SR Rattlesnake,CO,Weld,WACM,0,40.105427,6000,2,2,40.105427,-104.413144,1.2,0.4,96,14.07566,0,39767200,0.096,260000,0
64198,"Horn Rapids Solar, Storage and Training",WA,Benton,BPAT,180,30,3200,0,0,46.3529,-119.3222,1.2,0.4,96,14.07566,0,39767200,0.096,260000,0
64200,Jack's Solar Garden,CO,Boulder,PSCO,180,45,1000,0,2,40.122552,-105.130321,1.2,0.4,96,14.07566,0,39767200,0.096,260000,0
64220,Wonderful Orchards - Westside,CA,Kern,CISO,35,35.73277,5000,0,2,35.73277,-119.74523,1.2,0.4,96,14.07566,0,39767200,0.096,260000,0
64221,Wonderful Orchards - Belridge,CA,Kern,CISO,35,35.50012,5000,0,2,35.50012,-119.74935,1.2,0.4,96,14.07566,0,39767200,0.096,260000,0
64264,Las Virgenes,CA,Los Angeles,LDWP,177,10,3000,0,0,34.1265,-118.70404,1.2,0.4,96,14.07566,0,39767200,0.096,260000,0
64265,Rock Creek 2 CSG,CO,Alamosa,WACM,180,52,1600,0,0,37.39955,-105.90341,1.2,0.4,96,14.07566,0,39767200,0.096,260000,0
64266,Alamosa Solar South CSG,CO,Alamosa,PSCO,180,37.4512,1600,2,2,37.4512,-105.85916,1.2,0.4,96,14.07566,0,39767200,0.096,260000,0
64267,Valencia 2,CA,Imperial,IID,0,0,3000,0,0,33.0218,-115.52641,1.2,0.4,96,14.07566,0,39767200,0.096,260000,0
64270,"ESCA-LL-COLTON, LLC",CA,San Bernardino,CISO,216,10,2600,0,0,34.03925,-117.36056,1.2,0.4,96,14.07566,0,39767200,0.096,260000,0
64290,"SE Athos II, LLC",CA,Riverside,CISO,60,33.751283,200000,2,2,33.751283,-115.35499,1.2,0.4,96,14.07566,0,39767200,0.096,260000,0
64308,"Dissigno Healdsburg FPV, LLC",CA,Sonoma,CISO,12,83,3000,0,0,38.584405,-122.866189,1.2,0.4,96,14.07566,0,39767200,0.096,260000,0
64355,"NSE Camber BH CSG 2, LLC",CO,Crowley,WACM,180,52,2000,0,2,38.209158,-103.747306,1.2,0.4,96,14.07566,0,39767200,0.096,260000,0
64365,"Western Meadowlark Solar SCS NE 1, LLC",NE,Scotts Bluff,SWPP,0,-52,4400,0,2,41.889,-103.649,1.2,0.4,96,14.07566,0,39767200,0.096,260000,0
64376,Tranquillity ID,CA,Fresno,CISO,180,0,1300,0,2,36.648026,-120.24594,1.2,0.4,96,14.07566,0,39767200,0.096,260000,0
64386,Gilcrest V CSG,CO,Weld,PSCO,90,40.317966,4800,0,2,40.317966,-104.770747,1.2,0.4,96,14.07566,0,39767200,0.096,260000,0
64388,TruStile Doors - Denver,CO,Adams,PSCO,180,10,1200,0,0,39.825708,-104.97312,1.2,0.4,96,14.07566,0,39767200,0.096,260000,0
64391,Firestone Walker Brewery - Phase 1,CA,San Luis Obispo,CISO,180,35.595877,1600,0,2,35.595877,-120.694306,1.2,0.4,96,14.07566,0,39767200,0.096,260000,0
64396,EMWD - Perris Valley RWRF,CA,Riverside,CISO,180,52,3400,0,2,33.75998,-117.18766,1.2,0.4,96,14.07566,0,39767200,0.096,260000,0
64397,EMWD - San Jacinto RWRF NEM,CA,Riverside,CISO,180,52,1300,0,2,33.798547,-117.016588,1.2,0.4,96,14.07566,0,39767200,0.096,260000,0
64398,EMWD - Sun City RWRF,CA,Riverside,CISO,180,33.696146,1600,0,0,33.696146,-117.218621,1.2,0.4,96,14.07566,0,39767200,0.096,260000,0
64401,CSU San Jose State University,CA,Santa Clara,CISO,180,37.334,1700,0,0,37.334,-121.884,1.2,0.4,96,14.07566,0,39767200,0.096,260000,0
64402,El Dorado County,CA,El Dorado,CISO,180,15,1500,0,0,38.698145,-120.828256,1.2,0.4,96,14.07566,0,39767200,0.096,260000,0
64403,California State Univ at Channel Islands,CA,Ventura,CISO,180,15,3700,0,2,34.162058,-119.043375,1.2,0.4,96,14.07566,0,39767200,0.096,260000,0
64404,Mesa Carport PV,AZ,Maricopa,SRP,180,20,4600,0,0,33.347,-111.602,1.2,0.4,96,14.07566,0,39767200,0.096,260000,0
64406,EMWD - Moreno Valley RWRF,CA,Riverside,CISO,180,33.868252,2400,0,4,33.868252,-117.214055,1.2,0.4,96,14.07566,0,39767200,0.096,260000,0
64418,Big Bear,CA,Los Angeles,LDWP,180,7,5500,0,0,34.015287,-118.192851,1.2,0.4,96,14.07566,0,39767200,0.096,260000,0
64426,Wilmot Energy Center LLC,AZ,Pima,TEPC,90,32.043502,130000,2,2,32.043502,-110.892676,1.2,0.4,96,14.07566,0,39767200,0.096,260000,0
64438,Vallecitos Water District,CA,San Diego,CISO,180,20,1400,0,0,33.212535,-117.177029,1.2,0.4,96,14.07566,0,39767200,0.096,260000,0
64441,Valencia 3,CA,Imperial,IID,180,32.88567,3000,0,2,32.88567,-115.53765,1.2,0.4,96,14.07566,0,39767200,0.096,260000,0
64446,Arlington Microgrid,WA,Snohomish,BPAT,180,30,500,0,0,48.15614,-122.1502,1.2,0.4,96,14.07566,0,39767200,0.096,260000,0
64472,Berry Road Solar,SC,Greenville,DUK,180,34.639249,2000,0,2,34.639249,-82.328691,1.2,0.4,96,14.07566,0,39767200,0.096,260000,0
64517,Department of Justice,CA,Sacramento,BANC,180,7.4,2400,0,0,38.548056,-121.44855,1.2,0.4,96,14.07566,0,39767200,0.096,260000,0
64518,CA Institute for Women,CA,San Bernardino,CISO,180,52,1000,0,2,33.949722,-117.636427,1.2,0.4,96,14.07566,0,39767200,0.096,260000,0
64519,Centinela State Prison,CA,Imperial,IID,180,52,6000,0,2,32.825833,-115.782916,1.2,0.4,96,14.07566,0,39767200,0.096,260000,0
64521,Calipatria State Prison,CA,Imperial,IID,180,52,6000,0,2,33.163055,-115.484805,1.2,0.4,96,14.07566,0,39767200,0.096,260000,0
64523,Atascadero State Hospital,CA,San Luis Obispo,CISO,180,52,1100,0,2,35.463333,-120.634011,1.2,0.4,96,14.07566,0,39767200,0.096,260000,0
64524,SoCore Clovis 1,NM,Curry,SWPP,0,0,2000,0,0,34.423035,-103.254078,1.2,0.4,96,14.07566,0,39767200,0.096,260000,0
64579,Broadway 2 - UC Riverside,CA,Riverside,CISO,0,0,3000,0,2,33.97034,-117.33101,1.2,0.4,96,14.07566,0,39767200,0.096,260000,0
64580,Broadway 2 - Tucson Phase II,AZ,Pima,TEPC,0,0,3000,0,2,32.24817,-111.2611,1.2,0.4,96,14.07566,0,39767200,0.096,260000,0
64600,Prologis L.P,CA,San Joaquin,CISO,180,10,3000,0,0,37.725044,-121.529783,1.2,0.4,96,14.07566,0,39767200,0.096,260000,0
64601,County of San Diego COC Hybrid,CA,San Diego,CISO,182,10,1700,0,0,32.833645,-117.131123,1.2,0.4,96,14.07566,0,39767200,0.096,260000,0
64611,SEPV Sierra,CA,Los Angeles,CISO,180,52,2300,0,2,34.733011,-118.138525,1.2,0.4,96,14.07566,0,39767200,0.096,260000,0
64624,Hudson - High Desert Hybrid,CA,San Bernardino,CISO,180,0,100000,0,2,34.6365,-117.3724,1.2,0.4,96,14.07566,0,39767200,0.096,260000,0
64676,Lake Herman,CA,Solano,CISO,180,38.0971,5000,0,2,38.0971,-122.1417,1.2,0.4,96,14.07566,0,39767200,0.096,260000,0
64687,Van der Hoek Solar Array/ Dairy,CA,Fresno,CISO,40,40,2400,0,0,36.504015,-120.098148,1.2,0.4,96,14.07566,0,39767200,0.096,260000,0
64693,Dos Palos,CA,Merced,CISO,180,36.981755,1000,0,0,36.981755,-120.625358,1.2,0.4,96,14.07566,0,39767200,0.096,260000,0
64700,"El Dorado Solar, LLC",CA,El Dorado,CISO,180,38.637,1500,0,0,38.637,-121.059,1.2,0.4,96,14.07566,0,39767200,0.096,260000,0
64751,Amazon PSP1,CA,Riverside,CISO,180,33.92624,3800,0,0,33.92624,-116.99442,1.2,0.4,96,14.07566,0,39767200,0.096,260000,0
64766,Redwood Coast Airport Microgrid,CA,Humboldt,CISO,225,34,2300,0,0,40.967222,-124.104444,1.2,0.4,96,14.07566,0,39767200,0.096,260000,0
64819,AEC- Santa Rosa Solar,CA,Riverside,CISO,180,30,900,0,0,33.5293,-116.547706,1.2,0.4,96,14.07566,0,39767200,0.096,260000,0
64830,"Brightwood Solar, LLC",OR,Clackamas,PGE,180,0,10000,0,0,45.384949,-122.084421,1.2,0.4,96,14.07566,0,39767200,0.096,260000,0
64836,Catalina Express,CA,Los Angeles,CISO,180,5,1000,0,0,33.749947,-118.278469,1.2,0.4,96,14.07566,0,39767200,0.096,260000,0
64837,Marina South,CA,Los Angeles,CISO,180,5,1000,0,0,33.717993,-118.275617,1.2,0.4,96,14.07566,0,39767200,0.096,260000,0
64846,Prairie,CA,Los Angeles,LDWP,180,10,1800,0,2,34.239244,-118.583575,1.2,0.4,96,14.07566,0,39767200,0.096,260000,0
64861,Deer Creek 2,CA,El Dorado,CISO,180,38.628,1300,0,0,38.628,-120.984,1.2,0.4,96,14.07566,0,39767200,0.096,260000,0
64877,Edwards Sanborn E3,CA,Kern,CISO,180,34.946324,27400,0,0,34.946324,-118.126489,1.2,0.4,96,14.07566,0,39767200,0.096,260000,0
64879,Edwards Sanborn E2,CA,Kern,CISO,180,34.941507,140600,0,0,34.941507,-118.129025,1.2,0.4,96,14.07566,0,39767200,0.096,260000,0
64880,Venture 1 - 1A CSG,CO,Adams,PSCO,0,52,1500,0,2,39.752297,-104.667388,1.2,0.4,96,14.07566,0,39767200,0.096,260000,0
64881,NMSU Solar and Storage,NM,Dona Ana,EPE,180,32.286048,3000,0,0,32.286048,-106.744529,1.2,0.4,96,14.07566,0,39767200,0.096,260000,0
64994,Sacramento Point West Medical Offices,CA,Sacramento,BANC,245,7,1300,0,0,38.596314,-121.428022,1.2,0.4,96,14.07566,0,39767200,0.096,260000,0
65002,SSI West Riverside Landfill LLC,CA,Riverside,LDWP,180,17,2500,0,0,33.980601,-117.375494,1.2,0.4,96,14.07566,0,39767200,0.096,260000,0
65084,Pitkin County Solar,CO,Pitkin,WACM,180,39.247705,5000,0,2,39.247705,-106.876811,1.2,0.4,96,14.07566,0,39767200,0.096,260000,0
65089,Foothill Sanitary Landfill - Solar Array,CA,San Joaquin,PACW,0,38.042352,3600,0,2,38.042352,-120.933761,1.2,0.4,96,14.07566,0,39767200,0.096,260000,0
65096,Arbora Court Apartments,WA,King,NA,180,47.665794,100,0,0,47.665794,-122.311927,1.2,0.4,96,14.07566,0,39767200,0.096,260000,0
65097,Anchor Flats Apartments,WA,King,NA,180,47.632682,100,0,0,47.632682,-122.342285,1.2,0.4,96,14.07566,0,39767200,0.096,260000,0
65131,Fremont - Kato Rd,CA,Alameda,CISO,335,8,1400,0,0,37.479188,-121.932263,1.2,0.4,96,14.07566,0,39767200,0.096,260000,0
65168,Five H Farms Solar Array,CA,Merced,CISO,40,40,1000,0,0,37.120446,-120.292797,1.2,0.4,96,14.07566,0,39767200,0.096,260000,0
65169,Van der Kooi Dairy Solary Array,CA,Fresno,CISO,40,40,1000,0,0,36.29169,-120.022439,1.2,0.4,96,14.07566,0,39767200,0.096,260000,0
65177,Donaghy-Stockton,CA,San Joaquin,CISO,180,10,1100,0,0,37.909523,-121.194893,1.2,0.4,96,14.07566,0,39767200,0.096,260000,0
65178,Mtn. Solar 4 (CSG),CO,Jefferson,PSCO,0,52,1500,0,0,39.727586,-105.113057,1.2,0.4,96,14.07566,0,39767200,0.096,260000,0
65185,Broadway 3 - Tucson Phase I,AZ,Pima,TEPC,0,0,1000,0,2,32.24817,-111.26111,1.2,0.4,96,14.07566,0,39767200,0.096,260000,0
65186,Broadway 3 - UC Merced 1,CA,Merced,CISO,180,0,1000,0,2,37.36448,-120.43108,1.2,0.4,96,14.07566,0,39767200,0.096,260000,0
65187,Broadway 3 - UCSB Lot 38,CA,Santa Barbara,CISO,180,10,1800,0,0,34.41974,-119.85637,1.2,0.4,96,14.07566,0,39767200,0.096,260000,0
65188,Broadway 4 - Target Shafter,CA,Kern,CISO,180,10,1600,0,0,35.46331,-119.18912,1.2,0.4,96,14.07566,0,39767200,0.096,260000,0
65228,Red Prairie Solar,OR,Yamhill,PGE,180,25,2200,0,0,45.087389,-123.417361,1.2,0.4,96,14.07566,0,39767200,0.096,260000,0
65229,OK Produce Fresno Carport,CA,Fresno,CISO,180,7,2000,0,0,36.723488,-119.774411,1.2,0.4,96,14.07566,0,39767200,0.096,260000,0
65235,Venture 2 - 1B,CO,Adams,PSCO,0,52,1500,0,2,39.752244,-104.66509,1.2,0.4,96,14.07566,0,39767200,0.096,260000,0
65236,Venture 3 - 1C,CO,Adams,PSCO,0,52,1500,0,2,39.750499,-104.66733,1.2,0.4,96,14.07566,0,39767200,0.096,260000,0
65237,Venture 4 - 1D,CO,Adams,PSCO,0,52,1500,0,2,39.752334,-104.66733,1.2,0.4,96,14.07566,0,39767200,0.096,260000,0
65238,Chambers 4 - Eastvale LGB3,CA,Riverside,CISO,180,10,2400,0,0,33.99848,-117.55289,1.2,0.4,96,14.07566,0,39767200,0.096,260000,0
65251,Chambers 4 - Redland LGB4,CA,San Bernardino,CISO,180,10.4,1900,0,0,34.08041,-117.20138,1.2,0.4,96,14.07566,0,39767200,0.096,260000,0
65252,Chambers 4 - Riverside LGB6,CA,Riverside,CISO,180,10,2400,0,0,33.88102,-117.30036,1.2,0.4,96,14.07566,0,39767200,0.096,260000,0
65253,Chambers 4 - Rialto LGB8,CA,San Bernardino,CISO,180,10,2200,0,0,34.12937,-117.40554,1.2,0.4,96,14.07566,0,39767200,0.096,260000,0
65254,Chambers 4 - Sacramento SMF1,CA,Sacramento,BANC,180,10,2700,0,0,38.68251,-121.57434,1.2,0.4,96,14.07566,0,39767200,0.096,260000,0
65255,Chambers 4 - Eastvale DCA2,CA,Riverside,CISO,180,10.4,1500,0,0,33.99347,-117.55391,1.2,0.4,96,14.07566,0,39767200,0.096,260000,0
65256,Chambers 4 - San Bernardino SNA7,CA,San Bernardino,CISO,180,10.4,2000,0,0,34.07752,-117.27257,1.2,0.4,96,14.07566,0,39767200,0.096,260000,0
65277,Wonderful Huller & Shellling,CA,Kern,CISO,35,35.57609,1500,0,2,35.57609,-119.78885,1.2,0.4,96,14.07566,0,39767200,0.096,260000,0
65278,Wonderful Lost Hills,CA,Kern,CISO,35,35.66934,17100,0,2,35.66934,-119.87658,1.2,0.4,96,14.07566,0,39767200,0.096,260000,0
65331,"20333 Normandie PV, LLC",CA,Los Angeles,LDWP,180,15,2600,0,0,33.84614,-118.30019,1.2,0.4,96,14.07566,0,39767200,0.096,260000,0
65364,Danell Bros Inc,CA,Kings,CISO,180,0,2600,0,2,36.267574,-119.631577,1.2,0.4,96,14.07566,0,39767200,0.096,260000,0
65382,Lincoln WWTF Hybrid,CA,Placer,CISO,0,0,3000,0,2,38.859,-121.346,1.2,0.4,96,14.07566,0,39767200,0.096,260000,0
65383,Bodega Avenue Solar LLC,CA,Sonoma,CISO,180,52,2000,0,2,38.26147,-122.7373,1.2,0.4,96,14.07566,0,39767200,0.096,260000,0
65384,Rancho Cordova Medical Offices,CA,Sacramento,BANC,180,20,1100,0,0,38.576571,-121.291035,1.2,0.4,96,14.07566,0,39767200,0.096,260000,0
65404,Antioch Central Utility Plant,CA,Contra Costa,CISO,180,5,1000,0,0,37.949488,-121.775429,1.2,0.4,96,14.07566,0,39767200,0.096,260000,0
65408,Gilead Oceanside Solar Project,CA,San Diego,CISO,180,10,1500,0,0,33.213138,-117.304166,1.2,0.4,96,14.07566,0,39767200,0.096,260000,0
65409,Gilead Foster City Solar Project,CA,San Mateo,CISO,180,10,1100,0,0,37.568597,-122.27797,1.2,0.4,96,14.07566,0,39767200,0.096,260000,0
65464,"Laredo Detention Facility - Solar 2, 3",CA,Kern,CISO,180,10,5200,0,0,35.510942,-119.109941,1.2,0.4,96,14.07566,0,39767200,0.096,260000,0
65520,Vasquez V CSG,CO,Weld,PSCO,180,40.231806,4000,0,2,40.231806,-104.79894,1.2,0.4,96,14.07566,0,39767200,0.096,260000,0
65568,Google Moffett Park Solar Project,CA,Santa Clara,CISO,180,10,1700,0,0,37.405313,-122.017498,1.2,0.4,96,14.07566,0,39767200,0.096,260000,0
65569,Gilead Sciences La Verne Rooftop Solar,CA,Los Angeles,CISO,180,10,1700,0,0,34.09623,-117.781867,1.2,0.4,96,14.07566,0,39767200,0.096,260000,0
65607,Sysco Sacramento,CA,Sutter,CISO,0,52,800,0,2,38.776988,-121.524863,1.2,0.4,96,14.07566,0,39767200,0.096,260000,0
65609,Gilcrest Sun CSG,CO,Weld,PSCO,0,40.293752,1800,0,2,40.293752,-104.806202,1.2,0.4,96,14.07566,0,39767200,0.096,260000,0
